lon;lat;m_name;address;m_type;sq_km_id
37.651438260121;55.820781414891;Ряжский Кирпичный Завод;Москва, ул. Космонавтов д.10;"Строительные и отделочные материалы    (Кирпичные заводы)";6210
37.651438260121;55.820781414891;Ряжский Кирпичный Завод;Москва, ул. Космонавтов д.10;"Строительные и отделочные материалы    (Кирпичные заводы)";6210
37.626408514088;55.690655820421;Maldex;Москва, Варшавское шоссе, 35, стр.1;"Прочие промышленные производства    (Другие производители)";4978
37.704864268056;55.661716427203;WoodPress;109383, г. Москва, Батюнинский проезд, д. 11;"Промышленное оборудование    (Производители нестандартного оборудования)";4738
37.651438260121;55.820781414891;Ряжский Кирпичный Завод;Москва, ул. Космонавтов д.10;"Строительные и отделочные материалы    (Кирпичные заводы)";6210
37.671866945302;55.784577326767;Helen;г. Москва ул. Русаковская 13/5, 2 этаж, офис 210, БЦ Бородино;"Прочие промышленные производства    (Типографии/полиграфии)";5883
37.626408514088;55.690655820421;Maldex;Москва, Варшавское шоссе, 35, стр.1;"Прочие промышленные производства    (Другие производители)";4978
37.457442852711;55.866528778067;Малые архитектурные формы;Ленинградское ш. 65 стр. 5;"Строительные и отделочные материалы    (Производители фасадных материалов)";6606
37.704864268056;55.661716427203;WoodPress;109383, г. Москва, Батюнинский проезд, д. 11;"Промышленное оборудование    (Производители нестандартного оборудования)";4738
37.704085064351;55.786422781829;Группа Компаний Соло;Москва, ул. Электрозаводская, 21;"Химическая и нефтехимическая промышленность    (Заводы РТИ)";5886
37.671866945302;55.784577326767;Helen;г. Москва ул. Русаковская 13/5, 2 этаж, офис 210, БЦ Бородино;"Прочие промышленные производства    (Типографии/полиграфии)";5883
37.895885937367;55.660040035199;НКУ-ПРО;г.Люберцы, Котельнический проезд, д.29, оф.26;"Энергетика и коммунальное хозяйство    (Заводы электрощитового оборудования)";4751
37.457442852711;55.866528778067;Малые архитектурные формы;Ленинградское ш. 65 стр. 5;"Строительные и отделочные материалы    (Производители фасадных материалов)";6606
37.704085064351;55.786422781829;Группа Компаний Соло;Москва, ул. Электрозаводская, 21;"Химическая и нефтехимическая промышленность    (Заводы РТИ)";5886
37.601978272607;55.437542056334;Аэрдин;г. Подольск, Домодедовское шоссе, д. 45А;"Промышленное оборудование    (Производители вентиляционного оборудования)";2680
37.895885937367;55.660040035199;НКУ-ПРО;г.Люберцы, Котельнический проезд, д.29, оф.26;"Энергетика и коммунальное хозяйство    (Заводы электрощитового оборудования)";4751
37.723095389219;55.606418397774;Glerio;ул. Генерала Белова, д. 26;"Машиностроение и металлообработка    (Светотехнические заводы)";4247
37.582349022023;55.868150781306;Aleaf;Россия, г. Москва, Алтуфьевское шоссе, д.41 А, стр.5;"Химическая и нефтехимическая промышленность    (Производители автохимии)";6615
37.601978272607;55.437542056334;Аэрдин;г. Подольск, Домодедовское шоссе, д. 45А;"Промышленное оборудование    (Производители вентиляционного оборудования)";2680
37.930713225728;55.781358978097;Профессиональные Решения;143930, Московская область, г. Балашиха, Никольско-Архангельский, Разинское шоссе д. 5, БЦ Вешняки, офис 117;"Химическая и нефтехимическая промышленность    (Производители пленок и труб из полимерных материалов)";5902
37.723095389219;55.606418397774;Glerio;ул. Генерала Белова, д. 26;"Машиностроение и металлообработка    (Светотехнические заводы)";4247
37.582349022023;55.868150781306;Aleaf;Россия, г. Москва, Алтуфьевское шоссе, д.41 А, стр.5;"Химическая и нефтехимическая промышленность    (Производители автохимии)";6615
37.579961106679;55.423015812587;Аскол;Подольск, Северная, д.13;"Машиностроение и металлообработка    (Литейные заводы)";2597
37.930713225728;55.781358978097;Профессиональные Решения;143930, Московская область, г. Балашиха, Никольско-Архангельский, Разинское шоссе д. 5, БЦ Вешняки, офис 117;"Химическая и нефтехимическая промышленность    (Производители пленок и труб из полимерных материалов)";5902
37.579961106679;55.423015812587;Аскол;Подольск, Северная, д.13;"Машиностроение и металлообработка    (Литейные заводы)";2597
37.615083522023;55.61278069707;Энергопром-Альянс;Москва, улица Подольских Курсантов, дом 3, строение 2, этаж 2;"Энергетика и коммунальное хозяйство    (Заводы электрощитового оборудования)";4321
37.714035768056;55.783421448966;Смазки Покрытия Сожи;Семеновский пер., 6, Москва, 105187, Россия;"Химическая и нефтехимическая промышленность    (Производители ГСМ)";5886
37.578632318318;55.889294471846;НПО ДиОД;127576, ГОРОД МОСКВА, УЛИЦА НОВГОРОДСКАЯ, ДОМ 1, ПОМ А606;"Легкая промышленность    (Производители СИЗов и спецодежды)";6861
37.615083522023;55.61278069707;Энергопром-Альянс;Москва, улица Подольских Курсантов, дом 3, строение 2, этаж 2;"Энергетика и коммунальное хозяйство    (Заводы электрощитового оборудования)";4321
37.79404703922;55.372099787023;Шоколадница;улица Заборье (Востряково Мкр.), 2-д строение 8;"Пищевая и с/х промышленность    (Кондитерские фабрики)";2120
37.714035768056;55.783421448966;Смазки Покрытия Сожи;Семеновский пер., 6, Москва, 105187, Россия;"Химическая и нефтехимическая промышленность    (Производители ГСМ)";5886
37.542087275706;55.375049102638;Упак-РФ;Московская область, г. Климовск;"Лесная промышленность    (Производители бумажной и картонной тары)";2102
37.578632318318;55.889294471846;НПО ДиОД;127576, ГОРОД МОСКВА, УЛИЦА НОВГОРОДСКАЯ, ДОМ 1, ПОМ А606;"Легкая промышленность    (Производители СИЗов и спецодежды)";6861
37.79404703922;55.372099787023;Шоколадница;улица Заборье (Востряково Мкр.), 2-д строение 8;"Пищевая и с/х промышленность    (Кондитерские фабрики)";2120
37.626919049243;55.684454936736;Глобал Климат;г. Москва, ул. Нагатинская, 1с14;"Промышленное оборудование    (Производители вентиляционного оборудования)";4978
37.542087275706;55.375049102638;Упак-РФ;Московская область, г. Климовск;"Лесная промышленность    (Производители бумажной и картонной тары)";2102
37.418183039219;55.838654414883;НПП Аргата;"""125362, Москва, Строительный проезд 7а, корпус 5, 37";"офис: корпус 28.""";"Медицинская промышленность    (Медицинские заводы)";6357
37.425820623875;55.836648452636;Аргус-М;125362, г. Москва, Строительный проезд, 7а к37;"Машиностроение и металлообработка    (Электромеханические заводы)";6358
37.626919049243;55.684454936736;Глобал Климат;г. Москва, ул. Нагатинская, 1с14;"Промышленное оборудование    (Производители вентиляционного оборудования)";4978
37.418183039219;55.838654414883;НПП Аргата;"""125362, Москва, Строительный проезд 7а, корпус 5, 37";"офис: корпус 28.""";"Медицинская промышленность    (Медицинские заводы)";6357
37.631024141072;55.729089266443;Sarstedt;Большой Строченовский пер., 7, Москва;"Медицинская промышленность    (Производители медицинских расходников)";5388
37.425820623875;55.836648452636;Аргус-М;125362, г. Москва, Строительный проезд, 7а к37;"Машиностроение и металлообработка    (Электромеханические заводы)";6358
37.758163712166;55.634928496245;Артишок;Москва, Братеевская улица, дом 27 корпус 2, помещение 2 ком 6;"Строительные и отделочные материалы    (Камнеобрабатывающие заводы)";4496
37.539499524686;55.687187049448;Центр перспективных технологий;Москва, ул. Строителей, д. 4 к. 5, кв. 47;"Машиностроение и металлообработка    (Приборостроительные заводы)";4972
37.631024141072;55.729089266443;Sarstedt;Большой Строченовский пер., 7, Москва;"Медицинская промышленность    (Производители медицинских расходников)";5388
37.494977149006;55.794006614157;ТД Петровский;г. Москва, ул. Народного Ополчения, д. 48, к. 1;"Пищевая и с/х промышленность    (Кондитерские фабрики)";5953
37.758163712166;55.634928496245;Артишок;Москва, Братеевская улица, дом 27 корпус 2, помещение 2 ком 6;"Строительные и отделочные материалы    (Камнеобрабатывающие заводы)";4496
37.504841098744;55.724123045617;Zin Holding;Минская улица, 2Ж, Москва;"Легкая промышленность    (Производители СИЗов и спецодежды)";5297
37.539499524686;55.687187049448;Центр перспективных технологий;Москва, ул. Строителей, д. 4 к. 5, кв. 47;"Машиностроение и металлообработка    (Приборостроительные заводы)";4972
37.494977149006;55.794006614157;ТД Петровский;г. Москва, ул. Народного Ополчения, д. 48, к. 1;"Пищевая и с/х промышленность    (Кондитерские фабрики)";5953
37.163827387849;55.308064143772;Arma Crypta;Москва, пос. Вороновское;"Лесная промышленность    (Мебельные фабрики)";1501
37.504841098744;55.724123045617;Zin Holding;Минская улица, 2Ж, Москва;"Легкая промышленность    (Производители СИЗов и спецодежды)";5297
37.420414852711;55.903299589322;Материум-Рус;г. Химки, ул. Ленинградская, д.29, эт/оф 9/920/1;"Химическая и нефтехимическая промышленность    (Производители пленок и труб из полимерных материалов)";6931
37.696959123875;55.585847908698;РусДез;г. Москва, Лебедянская улица, 38, этаж 1, пом. III, комната 6;"Химическая и нефтехимическая промышленность    (Химические заводы)";4081
37.163827387849;55.308064143772;Arma Crypta;Москва, пос. Вороновское;"Лесная промышленность    (Мебельные фабрики)";1501
37.571404185058;55.737200682927;Стальконструкция;Москва, ул. Бутлерова, 17б;"Машиностроение и металлообработка    (Заводы металлоконструкций и металлоизделий)";5466
37.420414852711;55.903299589322;Материум-Рус;г. Химки, ул. Ленинградская, д.29, эт/оф 9/920/1;"Химическая и нефтехимическая промышленность    (Производители пленок и труб из полимерных материалов)";6931
37.7680136834;55.722555145282;Дик;Рязанский проспект, д16;"Лесная промышленность    (Мебельные фабрики)";5316
37.696959123875;55.585847908698;РусДез;г. Москва, Лебедянская улица, 38, этаж 1, пом. III, комната 6;"Химическая и нефтехимическая промышленность    (Химические заводы)";4081
37.619129882618;55.622009351085;Мебельная фабрика Castello;Москва, Варшавское шоссе, 125к3с1;"Лесная промышленность    (Мебельные фабрики)";4404
37.571404185058;55.737200682927;Стальконструкция;Москва, ул. Бутлерова, 17б;"Машиностроение и металлообработка    (Заводы металлоконструкций и металлоизделий)";5466
37.7680136834;55.722555145282;Дик;Рязанский проспект, д16;"Лесная промышленность    (Мебельные фабрики)";5316
37.619129882618;55.622009351085;Мебельная фабрика Castello;Москва, Варшавское шоссе, 125к3с1;"Лесная промышленность    (Мебельные фабрики)";4404
37.864243479695;55.75860975216;Текс Трейд;Реутов ул. Победы 1, к. 2, этаж 3;"Легкая промышленность    (Производители пряжи, тканей, ниток)";5651
37.439132606679;55.62586228723;BestMebelShop;Киевское шоссе, 1, корпус А;"Лесная промышленность    (Мебельные фабрики)";4391
37.864243479695;55.75860975216;Текс Трейд;Реутов ул. Победы 1, к. 2, этаж 3;"Легкая промышленность    (Производители пряжи, тканей, ниток)";5651
37.879250310383;55.765987419413;Коконат;ул. Фабричная, д. 8;"Химическая и нефтехимическая промышленность    (Производители косметики и парфюмерии)";5734
37.4110141834;55.833974882639;Winlee;Походный проезд 4к1;"Легкая промышленность    (Текстильные фабрики)";6275
37.439132606679;55.62586228723;BestMebelShop;Киевское шоссе, 1, корпус А;"Лесная промышленность    (Мебельные фабрики)";4391
37.879250310383;55.765987419413;Коконат;ул. Фабричная, д. 8;"Химическая и нефтехимическая промышленность    (Производители косметики и парфюмерии)";5734
37.579853818318;55.423041440744;Профиполимер;;"Химическая и нефтехимическая промышленность    (Производители упаковки и пакетов)";2597
37.4110141834;55.833974882639;Winlee;Походный проезд 4к1;"Легкая промышленность    (Текстильные фабрики)";6275
37.638682022023;55.649671824938;Liza;115201, г. Москва, 1-й Котляковский пер-ок, д. 3;"Легкая промышленность    (Швейные фабрики)";4651
37.579853818318;55.423041440744;Профиполимер;;"Химическая и нефтехимическая промышленность    (Производители упаковки и пакетов)";2597
37.625129501718;55.672536957569;Диалог;Варшавское шоссе, дом 46;"Машиностроение и металлообработка    (Заводы металлоконструкций и металлоизделий)";4814
37.721292895039;55.710153655986;Химпроминжиниринг;г. Москва, Волгоградский просп., д. 42, корп. 13;"Строительные и отделочные материалы    (Производители композитных материалов и утеплителей)";5231
37.638682022023;55.649671824938;Liza;115201, г. Москва, 1-й Котляковский пер-ок, д. 3;"Легкая промышленность    (Швейные фабрики)";4651
37.625129501718;55.672536957569;Диалог;Варшавское шоссе, дом 46;"Машиностроение и металлообработка    (Заводы металлоконструкций и металлоизделий)";4814
37.721292895039;55.710153655986;Химпроминжиниринг;г. Москва, Волгоградский просп., д. 42, корп. 13;"Строительные и отделочные материалы    (Производители композитных материалов и утеплителей)";5231
37.546717141072;55.661876555605;Типография Мы рядом;улица Профсоюзная 57;"Прочие промышленные производства    (Типографии/полиграфии)";4726
37.546717141072;55.661876555605;Типография Мы рядом;улица Профсоюзная 57;"Прочие промышленные производства    (Типографии/полиграфии)";4726
37.962990860646;55.559680677018;CoolTex;Лыткарино, ул. Тураевская 26;"Легкая промышленность    (Текстильные фабрики)";3854
37.788230330688;55.943250971493;Энертекс;141017, г. Мытищи, ул. Чернышевского, д. 28.;"Машиностроение и металлообработка    (Трансформаторные заводы)";7368
37.772227606679;55.706184962383;Мегапласт 2000;г. Москва, пр-т Волгоградский, дом 135, корпус 3;"Химическая и нефтехимическая промышленность    (Производители упаковки и пакетов)";5153
37.962990860646;55.559680677018;CoolTex;Лыткарино, ул. Тураевская 26;"Легкая промышленность    (Текстильные фабрики)";3854
37.772377810383;55.706148614634;Мосполимер;109443, г. Москва, пр-т Волгоградский, дом 135, корпус 3, помещение VI, комната 13а, РМ 1 Д;"Химическая и нефтехимическая промышленность    (Производители упаковки и пакетов)";5153
37.788230330688;55.943250971493;Энертекс;141017, г. Мытищи, ул. Чернышевского, д. 28.;"Машиностроение и металлообработка    (Трансформаторные заводы)";7368
37.772227606679;55.706184962383;Мегапласт 2000;г. Москва, пр-т Волгоградский, дом 135, корпус 3;"Химическая и нефтехимическая промышленность    (Производители упаковки и пакетов)";5153
37.605483717793;55.609562858312;Мебельстаф;Москва, улица Кировоградская, 15;"Лесная промышленность    (Мебельные фабрики)";4239
37.772377810383;55.706148614634;Мосполимер;109443, г. Москва, пр-т Волгоградский, дом 135, корпус 3, помещение VI, комната 13а, РМ 1 Д;"Химическая и нефтехимическая промышленность    (Производители упаковки и пакетов)";5153
37.843950268056;55.928619772078;Мебель Импэкс Опт;г. Королев, мкр. Юбилейный, ул. Маяковского, д.2;"Лесная промышленность    (Мебельные фабрики)";7208
37.362220479695;55.633459054527;Coca-Cola HBC Россия;ул. Новоорловская, 7;"Пищевая и с/х промышленность    (Производители безалкогольных напитков)";4467
37.605483717793;55.609562858312;Мебельстаф;Москва, улица Кировоградская, 15;"Лесная промышленность    (Мебельные фабрики)";4239
37.843950268056;55.928619772078;Мебель Импэкс Опт;г. Королев, мкр. Юбилейный, ул. Маяковского, д.2;"Лесная промышленность    (Мебельные фабрики)";7208
37.362220479695;55.633459054527;Coca-Cola HBC Россия;ул. Новоорловская, 7;"Пищевая и с/х промышленность    (Производители безалкогольных напитков)";4467
37.646901310383;55.607828671282;Кайто;г. Москва, 6-я Радиальная, 17с1;"Химическая и нефтехимическая промышленность    (Производители упаковки и пакетов)";4242
37.772003938571;55.916382878947;Сдсвет;Олимпийский пр-т, д. 10;"Машиностроение и металлообработка    (Светотехнические заводы)";7121
37.072041293187;55.213178159168;Нетканика;Москва, пос. Рогово, уч.№30;"Легкая промышленность    (Производители нетканых материалов)";593
37.646901310383;55.607828671282;Кайто;г. Москва, 6-я Радиальная, 17с1;"Химическая и нефтехимическая промышленность    (Производители упаковки и пакетов)";4242
37.947541084052;55.832139746928;Барракуда механикс;г. Балашиха, ул. Звездная, 13;"Промышленное оборудование    (Производители фасовочно-упаковочного оборудования)";6313
37.772003938571;55.916382878947;Сдсвет;Олимпийский пр-т, д. 10;"Машиностроение и металлообработка    (Светотехнические заводы)";7121
37.072041293187;55.213178159168;Нетканика;Москва, пос. Рогово, уч.№30;"Легкая промышленность    (Производители нетканых материалов)";593
37.947541084052;55.832139746928;Барракуда механикс;г. Балашиха, ул. Звездная, 13;"Промышленное оборудование    (Производители фасовочно-упаковочного оборудования)";6313
37.563056180354;55.697298635542;ФосАгро;119333, Россия, Москва, Ленинский проспект, д. 55/1, стр. 1;"Химическая и нефтехимическая промышленность    (Производители удобрений)";5056
37.343001310383;55.837486887323;Депо Компьютерс;Московская область, Красногорский район, г. Красногорск, территория коммунальная зона «Красногорск-Митино», д.12;"Машиностроение и металлообработка    (Производители бытовой техники и электроники)";6352
37.581935522228;55.788856475569;Инженерный центр Темп;улица Правды, 23;"Машиностроение и металлообработка    (Агрегатные заводы)";5877
37.563056180354;55.697298635542;ФосАгро;119333, Россия, Москва, Ленинский проспект, д. 55/1, стр. 1;"Химическая и нефтехимическая промышленность    (Производители удобрений)";5056
37.683888023945;55.768052000941;Московская вентиляционная компания;Москва, Старокирочный пер. д. 16/2, стр. 1, пом. 2, ком.5б, оф.2м;"Промышленное оборудование    (Производители вентиляционного оборудования)";5720
37.343001310383;55.837486887323;Депо Компьютерс;Московская область, Красногорский район, г. Красногорск, территория коммунальная зона «Красногорск-Митино», д.12;"Машиностроение и металлообработка    (Производители бытовой техники и электроники)";6352
37.581935522228;55.788856475569;Инженерный центр Темп;улица Правды, 23;"Машиностроение и металлообработка    (Агрегатные заводы)";5877
37.683888023945;55.768052000941;Московская вентиляционная компания;Москва, Старокирочный пер. д. 16/2, стр. 1, пом. 2, ком.5б, оф.2м;"Промышленное оборудование    (Производители вентиляционного оборудования)";5720
37.566498435649;55.49953307582;Динамо Энерго;Железнодорожная улица, 24;"Промышленное оборудование    (Производители горно-шахтного оборудования)";3252
37.66320709359;55.73473211377;Голден Блюз;Москва, ул. Марксистская, дом 34 корп 11;"Прочие промышленные производства    (Ювелирные заводы)";5391
37.619474020632;55.848378541827;Водные технологии;г. Москва, Берёзовая аллея, д.5А, стр.6;"Промышленное оборудование    (Производители емкостного оборудования)";6454
37.566498435649;55.49953307582;Динамо Энерго;Железнодорожная улица, 24;"Промышленное оборудование    (Производители горно-шахтного оборудования)";3252
37.45330956885;55.885597112804;PopcornOptom;МО, Химки, Кирова ул., 24;"Пищевая и с/х промышленность    (Производители бакалеи)";6770
37.66320709359;55.73473211377;Голден Блюз;Москва, ул. Марксистская, дом 34 корп 11;"Прочие промышленные производства    (Ювелирные заводы)";5391
37.890462977977;55.662245722346;ПТК Крепеж;г. Люберцы Котельнический проезд 25 Б;"Металлургия    (Метизные заводы)";4751
37.619474020632;55.848378541827;Водные технологии;г. Москва, Берёзовая аллея, д.5А, стр.6;"Промышленное оборудование    (Производители емкостного оборудования)";6454
37.83978885582;55.647085667532;СтальЭнерго-96 (филиал Москва);Дзержинское шоссе, 13;"Машиностроение и металлообработка    (Заводы металлоконструкций и металлоизделий)";4665
37.45330956885;55.885597112804;PopcornOptom;МО, Химки, Кирова ул., 24;"Пищевая и с/х промышленность    (Производители бакалеи)";6770
37.965554000937;55.557230442248;Атлант;Московская область, г. Лыткарино, промзона Тураево, ул. Центральная;"Промышленное оборудование    (Производители подъемно-транспортного оборудования)";3854
37.890462977977;55.662245722346;ПТК Крепеж;г. Люберцы Котельнический проезд 25 Б;"Металлургия    (Метизные заводы)";4751
37.68747846078;55.86786311826;Монолит-Сити 1;129327, г.Москва, ул.Шушенская, дом 3, корпус 1, офис 4;"Химическая и нефтехимическая промышленность    (Заводы пластмасс)";6623
37.83978885582;55.647085667532;СтальЭнерго-96 (филиал Москва);Дзержинское шоссе, 13;"Машиностроение и металлообработка    (Заводы металлоконструкций и металлоизделий)";4665
37.954864045436;55.813789009387;Реам-РТИ;143902, ул. Советская, д.36;"Химическая и нефтехимическая промышленность    (Заводы РТИ)";6150
37.965554000937;55.557230442248;Атлант;Московская область, г. Лыткарино, промзона Тураево, ул. Центральная;"Промышленное оборудование    (Производители подъемно-транспортного оборудования)";3854
37.68747846078;55.86786311826;Монолит-Сити 1;129327, г.Москва, ул.Шушенская, дом 3, корпус 1, офис 4;"Химическая и нефтехимическая промышленность    (Заводы пластмасс)";6623
37.598893070567;55.788591163973;Машиностроительное объединение Алиал;г. Москва туп. Тихвинский, д. 5-7;"Машиностроение и металлообработка    (Арматурные заводы)";5878
37.954864045436;55.813789009387;Реам-РТИ;143902, ул. Советская, д.36;"Химическая и нефтехимическая промышленность    (Заводы РТИ)";6150
37.399241858928;55.726075228498;ВайтПак;Москва, Горбунва 2, стрн. 3;"Химическая и нефтехимическая промышленность    (Производители упаковки и пакетов)";5290
37.489242935649;55.738943261969;KonstArtStudio;121096, Москва, Олеко Дундича ул, д. 21к2;"Строительные и отделочные материалы    (Производители электромонтажных изделий)";5460
37.598893070567;55.788591163973;Машиностроительное объединение Алиал;г. Москва туп. Тихвинский, д. 5-7;"Машиностроение и металлообработка    (Арматурные заводы)";5878
37.068645681682;55.53408403715;Кейсинг и Ко;Россия, 143360, г. Апрелевка, ул. Апрелевская, дом 79а;"Пищевая и с/х промышленность    (Мясоперерабатывающие заводы)";3544
37.399241858928;55.726075228498;ВайтПак;Москва, Горбунва 2, стрн. 3;"Химическая и нефтехимическая промышленность    (Производители упаковки и пакетов)";5290
37.489242935649;55.738943261969;KonstArtStudio;121096, Москва, Олеко Дундича ул, д. 21к2;"Строительные и отделочные материалы    (Производители электромонтажных изделий)";5460
37.7758553166;55.913414307754;ООО РотопластиК;Московская обл., г. Мытищи, Олимпийский пр-т, д.2;"Промышленное оборудование    (Производители емкостного оборудования)";7039
37.068645681682;55.53408403715;Кейсинг и Ко;Россия, 143360, г. Апрелевка, ул. Апрелевская, дом 79а;"Пищевая и с/х промышленность    (Мясоперерабатывающие заводы)";3544
37.7758553166;55.913414307754;ООО РотопластиК;Московская обл., г. Мытищи, Олимпийский пр-т, д.2;"Промышленное оборудование    (Производители емкостного оборудования)";7039
37.466572476259;55.156526195651;ЖБИ 50;;"Строительные и отделочные материалы    (Заводы ЖБИ)";129
37.791738241798;55.915062458304;Иллиум;Пионерская, 1, корп.1;"Машиностроение и металлообработка    (Заводы металлоконструкций и металлоизделий)";7040
37.466572476259;55.156526195651;ЖБИ 50;;"Строительные и отделочные материалы    (Заводы ЖБИ)";129
37.791738241798;55.915062458304;Иллиум;Пионерская, 1, корп.1;"Машиностроение и металлообработка    (Заводы металлоконструкций и металлоизделий)";7040
37.258336900159;55.981101155107;Сумма Технологий Очистки Воды;Москва, Зеленоград, проезд 4807, дом 1, стр. 2, Офис 302;"Промышленное оборудование    (Производители емкостного оборудования)";7658
37.444031858928;55.710618885466;Компания Инновационных Технологий;Московская область, Москва, 121357, ул. Верейская, дом 17, эт/пом/ком 2/1/7;"Медицинская промышленность    (Производители медицинских расходников)";5211
37.258336900159;55.981101155107;Сумма Технологий Очистки Воды;Москва, Зеленоград, проезд 4807, дом 1, стр. 2, Офис 302;"Промышленное оборудование    (Производители емкостного оборудования)";7658
37.756584231944;55.754565899154;Фарм-Глобал;г. Москва, ул. Плеханова, дом 4А;"Медицинская промышленность    (Производители медицинских расходников)";5643
37.444031858928;55.710618885466;Компания Инновационных Технологий;Московская область, Москва, 121357, ул. Верейская, дом 17, эт/пом/ком 2/1/7;"Медицинская промышленность    (Производители медицинских расходников)";5211
37.708655774272;55.792240554538;Московская фабрика ортопедической обуви;Московская область, Москва, 107023, г. Москва, ул. Электрозаводская, д. 46, с. 2;"Медицинская промышленность    (Производители реабилитационных товаров)";5968
37.756584231944;55.754565899154;Фарм-Глобал;г. Москва, ул. Плеханова, дом 4А;"Медицинская промышленность    (Производители медицинских расходников)";5643
37.741392097026;55.721223666329;НПО Андроидная техника;Москва, Грайвороновская улица, дом 23;"Прочие промышленные производства    (Производители роботов)";5314
37.708655774272;55.792240554538;Московская фабрика ортопедической обуви;Московская область, Москва, 107023, г. Москва, ул. Электрозаводская, д. 46, с. 2;"Медицинская промышленность    (Производители реабилитационных товаров)";5968
37.218890104961;55.983751706771;Пикасо 3Д;Москва, город Зеленоград, 4922-й проезд, дом 4/3;Прочие промышленные производства    (Производители 3D-принтеров);7655
37.741392097026;55.721223666329;НПО Андроидная техника;Москва, Грайвороновская улица, дом 23;"Прочие промышленные производства    (Производители роботов)";5314
37.236090097026;55.782331631268;АГК-1;143421, Московская область, Красногорский район, автодорога Балтия, территория 26 км бизнес-центр Рига-Ленд, строение а, помещение 14 часть комнаты 3;"Энергетика и коммунальное хозяйство    (Компании альтернативной энергетики)";5852
37.218890104961;55.983751706771;Пикасо 3Д;Москва, город Зеленоград, 4922-й проезд, дом 4/3;Прочие промышленные производства    (Производители 3D-принтеров);7655
37.67930822401;55.776602999994;Виоти-Проект;г. Москва, Спартаковская пл. 14 стр.3;"Энергетика и коммунальное хозяйство    (Компании альтернативной энергетики)";5802
37.236090097026;55.782331631268;АГК-1;143421, Московская область, Красногорский район, автодорога Балтия, территория 26 км бизнес-центр Рига-Ленд, строение а, помещение 14 часть комнаты 3;"Энергетика и коммунальное хозяйство    (Компании альтернативной энергетики)";5852
37.67930822401;55.776602999994;Виоти-Проект;г. Москва, Спартаковская пл. 14 стр.3;"Энергетика и коммунальное хозяйство    (Компании альтернативной энергетики)";5802
37.615204935649;55.740394999994;ЛЛК-Интернешнл;119180, РФ, г. Москва, ул. Малая Якиманка, д. 6;"Химическая и нефтехимическая промышленность    (Производители ГСМ)";5469
37.540112589092;55.650144999994;Газпромнефть–СМ;Россия, 117342 Москва, ул. Бутлерова, д.17, БЦ «Нео Гео»;"Химическая и нефтехимическая промышленность    (Производители ГСМ)";4644
37.615204935649;55.740394999994;ЛЛК-Интернешнл;119180, РФ, г. Москва, ул. Малая Якиманка, д. 6;"Химическая и нефтехимическая промышленность    (Производители ГСМ)";5469
37.540112589092;55.650144999994;Газпромнефть–СМ;Россия, 117342 Москва, ул. Бутлерова, д.17, БЦ «Нео Гео»;"Химическая и нефтехимическая промышленность    (Производители ГСМ)";4644
37.784749477977;55.715631870494;РЭТ;ул. 1-я Новокузьминская, 10, Москва, Россия, 109377;"Химическая и нефтехимическая промышленность    (Производители пестицидов и гербицидов)";5235
37.784749477977;55.715631870494;РЭТ;ул. 1-я Новокузьминская, 10, Москва, Россия, 109377;"Химическая и нефтехимическая промышленность    (Производители пестицидов и гербицидов)";5235
37.632856935649;55.812784335422;Белуга;129085 г. Москва Проспект Мира, д. 101В, стр. 1;"Пищевая и с/х промышленность    (Рыбоводческие хозяйства)";6127
37.728094350993;55.659493217386;Сельские Технологии;109382, г. Москва, ул. Нижние Поля, дом 20, корп. 1;"Пищевая и с/х промышленность    (Производители меда)";4739
37.384719104961;55.903338891103;ПК Транспортные системы;Москва, Соколово-Мещерская улица, дом 25;"Транспорт и спецтехника    (Трамвайные и троллейбусные заводы)";6929
37.866258097026;55.67436360486;Веломоторс;Московская область, город Люберцы, Шоссейная улица, дом 42А;"Транспорт и спецтехника    (Мотоциклетные заводы)";4913
37.203199139354;55.98258597029;Ангстрем-Телеком;124527, Москва, Зеленоград, Солнечная аллея, дом 6;"Промышленное оборудование    (Производители телекоммуникационного оборудования)";7654
37.137414091234;55.623525459071;Позитрон ПК;143022, Московская область, город Одинцово, деревня Ликино, дом 2А, офис 33;"Прочие промышленные производства    (Другие производители)";4369
37.520419766338;55.819008999994;Обезвреживание отходов;Москва, улица Клары Цеткин, дом 4;"Промышленное оборудование    (Производители оборудования для переработки мусора)";6201
37.602673435649;55.76516964405;ПостельноеОптом;г. Москва, Малый Палешевский переулок, дом 6;"Легкая промышленность    (Швейные фабрики)";5714
37.63152601237;55.6552443412;Красин;115201, РФ, Москва, Каширский проезд, 17с12;"Лесная промышленность    (Производители деревянных изделий)";4733
37.720970160019;55.708555233766;Компания Инновационных Технологий;121357, г. Москва, ул. Верейская, дом 17, эт/пом/ком 2/1/1;"Легкая промышленность    (Производители СИЗов и спецодежды)";5149
37.743891893321;55.663931374131;Spirula;ТК «Садовод» 14-ый км МКАД (внутренняя сторона) ул. Верхние поля корпус А 1Б-29;"Легкая промышленность    (Трикотажные фабрики)";4741
37.889831;55.665983;Люберецкий бетонный завод;г. Люберцы, Котельнический пр-д, 25-б;"Цементные заводы    (Строительные и отделочные материалы)";4833
37.961189;55.80211;Завод металлических дверей;г. Балашиха, проспект Ленина, д. 65;"Строительные и отделочные материалы    (Производители дверей)";6068
37.926059;55.689894;Московский Свечной Заводик;г. Москва, Люберцы (Некрасовка), 2-я Вольская д. 11, кор. 3;"Легкая промышленность    (Предприятия художественных промыслов)";4999
37.606133;55.718172;Швейная фабрика Велес;г. Москва, ул. Шаболовка, д. 34, стр. 5;"Швейные фабрики    (Легкая промышленность)";5305
37.58605;55.671465;Чебоксарская паркетная фабрика;г. Москва, м. Профсоюзная, Нахимовский проспект д.24, ТВК \u0022Экспострой\u0022, 2 павильон, стенд №124 (представительство);"Строительные и отделочные материалы    (Производители отделочных материалов)";4811
37.631953;55.734128;Южуралкондитер;г. Москва, 2-ой Новокузнецкий пер. (головной офис);"Пищевая и с/х промышленность    (Кондитерские фабрики)";5389
37.705537;55.795947;Mystery Furs;г. Москва, Преображенская улица, 5/7 (офис);"Легкая промышленность    (Меховые фабрики)";5968
37.834048;55.638953;КОРФ;Россия, Московская область, Дзержинский, улица Энергетиков, 1;"Промышленное оборудование    (Производители вентиляционного оборудования)";4583
37.898799;55.72161;Мебельная фабрика Монолит;Россия, Москва, Лухмановская улица, 17;"Мебельные фабрики    (Лесная промышленность)";5326
37.124029;55.825295;Армпласт-ГЕО;Россия, Московская область, городской округ Истра, деревня Лобаново, 260;"Легкая промышленность    (Производители нетканых материалов)";6172
37.885477;55.772294;Владимирская фабрика дверей;Россия, Московская область, Балашиха, микрорайон Никольско-Архангельский, улица 8-я Линия, 18;"Строительные и отделочные материалы    (Производители дверей)";5817
37.519863;55.805245;Хемпель;Россия, Москва, Ленинградский проспект, 72к4;"Химические заводы    (Химическая и нефтехимическая промышленность)";6037
37.73977;55.658825;Меховая фабрика ELENA FURS;Люблинская ул., 92, корп. 2, Москва, Россия;"Меховые фабрики    (Легкая промышленность)";4740
37.610323;55.720814;Премиум кофе Паулиг;115162 г. Москва, ул.Шаболовка, д. 31Г, подъезд №3;"Пищевая и с/х промышленность    (Производители кофе)";5305
37.514051;55.81039;Завод Эталон;Россия, Москва, Балтийская улица, 13;"Машиностроение и металлообработка    (Электромеханические заводы)";6118
37.547755;55.433527;Завод готовых теплиц;Россия, Московская область, Подольск, проспект Ленина, 150А;"Машиностроение и металлообработка    (Заводы металлоконструкций и металлоизделий)";2677
37.661162;55.854314;Камышловский электротехнический завод;г. Москва, ул. Сибиряковская, д. 5;"Электромеханические заводы    (Машиностроение и металлообработка)";6539
37.598005;55.81322;Хлебпром;г. Екатеринбург ул. Руставели, д. 14, строение 6;"Пищевая и с/х промышленность    (Хлебокомбинаты)";6124
37.583356;55.670889;Rondini;Московская область,Москва,Нахимовский проспект,24;"Мебельные фабрики    (Лесная промышленность)";4811
37.769972;55.447234;Домодедовский завод ЖБИ (Домодедовский завод железобетонных изделий);142000, Россия, Московская область, город Домодедово, улица Промышленная, дом 9.;"Заводы ЖБИ    (Строительные и отделочные материалы)";2774
37.721373;55.6157;Бетонный завод Extra Beton;Россия, Москва, улица Генерала Белова, 27с1;"Строительные и отделочные материалы    (Заводы ЖБИ)";4329
37.622792;55.701166;Завод Сезон;117105, г. Москва Варшавское шоссе д.5 офис 21;"Промышленное оборудование    (Производители вентиляционного оборудования)";5142
37.60028;55.809727;Завод Промышленные Энергетические Машины (ЗПЭМ);Московская область,Москва,Добролюбова пр-д,6а;"Машиностроение и металлообработка    (Производители генераторов)";6124
37.762138;55.811948;Экспериментальный завод объемных инженерных сооружений ЭЗОИС;107143 г. Москва, 2-ой Иртышский пр-д, д. 6 стр. 3;"Энергетика и коммунальное хозяйство    (Заводы электрощитового оборудования)";6136
37.572172;55.427816;Завод современного промышленного оборудования ЗСПО;Московская область, г. Подольск, ул. Рощинская, д.3;"Промышленное оборудование    (Производители гидравлического оборудования)";2596
37.85762;55.718476;Золотой Гусь;г. Москва, ул. Большая Косинская, д. 27;"Трикотажные фабрики    (Легкая промышленность)";5323
37.566647;55.864156;Завод слуховых аппаратов РИТМ;Адрес: 127540, г. Москва, ул. Дубнинская, д. 12А;"Медицинская промышленность    (Медицинские заводы)";6614
37.895107;55.971068;Завод металлических конструкций МАМИ;г. Ивантеевка ул. Ленина д. 44;"Заводы металлоконструкций и металлоизделий    (Машиностроение и металлообработка)";7621
37.775757;55.461676;Домодедовский завод изоляции труб;142000, Московская область, г. Домодедово, ул. Промышленная, д.23;"Производители пленок и труб из полимерных материалов    (Химическая и нефтехимическая промышленность)";2939
37.595321;55.709155;Московский станкостроительный завод им. Орджоникидзе;Россия., г. Москва, ул. Орджоникидзе, д.11;"Станкостроительные заводы    (Промышленное оборудование)";5222
37.703577;55.711711;Завод Квентр;Россия, Москва,3-й Угрешский проезд, 21с2;"Промышленное оборудование    (Производители вентиляционного оборудования)";5230
37.553648;55.433287;Производственный комбинат ЖБИ 24/7;142116, Московская область, Подольск, ул. Карла Маркса, д. 3/48;"Заводы ЖБИ    (Строительные и отделочные материалы)";2677
37.706622;55.866662;Фабрика стекла и зеркал;Москва, Ярославское шоссе, д. 114 Д;"Стекольные заводы    (Строительные и отделочные материалы)";6624
37.532304;55.417041;Подольская Зеркальная Фабрика;Московская область, Подольск, ул. Свердлова д.45, пом.1;"Стекольные заводы    (Строительные и отделочные материалы)";2511
37.340343;55.823621;Красногорский завод Зенит-техсервис;143402, Московская область, город Красногорск, Оптический переулок, дом 7а, этаж 2 комната 4;"Машиностроение и металлообработка    (Приборостроительные заводы)";6188
37.583086;56.009034;Завод Керамических Изделий;дер. Новосельцево, ул. Центральная, вл. 88, стр.1 гор. округ Мытищи, МО, Россия;"Керамические заводы    (Строительные и отделочные материалы)";7927
37.175386;55.582813;Завод ТМК;143350, Россия, г. Москва, Новомосковский административный округ, поселение Марушкинское, вблизи деревни Шарапово, Боровское шоссе, 19 км от МКАД.;"Заводы металлоконструкций и металлоизделий    (Машиностроение и металлообработка)";3962
37.510322;55.738024;Завод ГШО;121170, г. Москва, ул. Неверовского, дом 9;"Промышленное оборудование    (Производители горно-шахтного оборудования)";5462
37.053439;55.596559;Завод грузоподьемного оборудования Атлант;143090, Московская область, Краснознаменск, ул. Связистов, 9;"Заводы металлоконструкций и металлоизделий    (Машиностроение и металлообработка)";4117
37.915993;55.973673;Завод кабелей для специальной техники;141280, Московская обл., г.Ивантеевка,проезд Фабричный, 1;"Кабельные заводы    (Машиностроение и металлообработка)";7623
37.135186;55.620159;Завод КРИСТАЛЛ;143020 Московская обл. Одинцовский р-н, д. Ликино, ул. Промышленная, д. 1;"Энергетика и коммунальное хозяйство    (Заводы электрощитового оборудования)";4369
37.561149;55.367244;Завод нестандартных изделий;Московская обл., г. Климовск ул. Заводская, д. 2Н 142181, Россия;"Заводы металлоконструкций и металлоизделий    (Машиностроение и металлообработка)";2104
37.571803;55.437955;Завод Грузоподъемных Механизмов;ул. Лобачева, д.13, Подольск, Московская обл., 142116;"Промышленное оборудование    (Производители подъемно-транспортного оборудования)";2678
37.553136;55.66046;Завод Победа;117420, г. Москва, ул. Наметкина, д. 10 б.;"Литейные заводы    (Машиностроение и металлообработка)";4727
37.931983;55.962528;Бетонный завод РБУ ИВАНТЕЕВКА;Россия, Московская область, Ивантеевка, улица Толмачёва, 27;"Заводы ЖБИ    (Строительные и отделочные материалы)";7542
37.514356;55.327777;Завод алюминиевых сплавов;142155, г.о. Подольск, мкрн Львовский, Металлургов пр-д, д. 3;"Алюминиевые заводы    (Металлургия)";1690
37.63871;55.649809;Стекольный завод Акма;115201, Москва, ул. 1-й Котляковский переулок, дом 3, офис 49;"Стекольные заводы    (Строительные и отделочные материалы)";4651
37.76407;55.759886;Аквариумный завод АкваМир-М;ш. Энтузиастов, 56 строение 32, Москва, Россия, 111123;"Другие производители    (Прочие промышленные производства)";5644
37.547639;55.421159;Фабрика шоколада Вуаля;ул. Бол. Серпуховская, 43, Подольск, Московская обл., 142104;"Кондитерские фабрики    (Пищевая и с/х промышленность)";2595
37.275171;55.43085;Фабрика Плитки;142150, г. Москва, Красная Пахра, Калужское шоссе 47й км, владение 6 строение 1.;"Строительные и отделочные материалы    (Производители тротуарной плитки)";2657
37.929593;55.794745;Волоколамский завод клееных конструкций;Россия, Московская область, Балашиха, шоссе Энтузиастов, 3/2;"Деревообрабатывающие комбинаты    (Лесная промышленность)";5984
37.77325;55.92143;Мытищинский Завод Военный Знак;141009, Московская область, г. Мытищи, ул. Коминтерна, д. 15А;"Заводы металлоконструкций и металлоизделий    (Машиностроение и металлообработка)";7121
37.951126;55.747459;Завод ГИДРОМАШ;Московская область, Балашиха, Южная, 1.;"Инструментальные заводы    (Машиностроение и металлообработка)";5575
37.877976;55.622904;Угрешский завод трубопроводной арматуры;140093, Московская область, г.Дзержинский, ул. Лесная, д. 34;"Арматурные заводы    (Машиностроение и металлообработка)";4422
37.807521;55.913565;Завод Умное Оборудование;141070, Московская область, г. Королев, Пионерская ул., д.4;"Заводы металлоконструкций и металлоизделий    (Машиностроение и металлообработка)";7041
37.616988;55.414291;Фабрика БЭЛЛА;142116, Московская обл, Подольский р-н, п Александровка, улица Центральная;"Текстильные фабрики    (Легкая промышленность)";2517
37.915993;55.973673;Фабрика Ивантеевский трикотаж;г. Ивантеевка (Московская обл.) ул. Фабричный проезд д. 1;"Трикотажные фабрики    (Легкая промышленность)";7623
37.431989;55.63378;Национальная компьютерная корпорация;108811, Москва, Киевское шоссе, Румянцево, БЦ \u0022Комcити\u0022, д. 6, стр. 1;"Машиностроение и металлообработка    (Производители бытовой техники и электроники)";4472
37.724652;55.487882;Мебельная фабрика фанеровки Венеция;142030 Моск.обл., Домодедовский р-н, д.Павловское, ул. Вокзальная, д.21а;"Мебельные фабрики    (Лесная промышленность)";3181
37.918526;55.959636;Пивоваренный завод Victory Art Brew;Россия, Московская область, Ивантеевка, улица Толмачёва, 49;"Пивоваренные заводы    (Пищевая и с/х промышленность)";7459
37.532574;55.6394;Завод пластичных смазок ХимПром;117342, г.Москва, ул. Миклухо-Маклая , дом 34, пом IV ком 26 оф 6;"Химическая и нефтехимическая промышленность    (Производители ГСМ)";4561
37.628226;55.901455;Завод ВИСТА/Vista;Московская область, Мытищинский район, п. Нагорное, ул. Центральная, вл.3, стр. 3;"Заводы металлоконструкций и металлоизделий    (Машиностроение и металлообработка)";6946
37.621947;55.684503;Веломотозавод Янтарь;Московская область, Москва, Варшавское шоссе, д.26;"Прочие промышленные производства    (Производители спортивного оборудования)";4978
37.288232;55.671935;Внуковский завод огнеупорных изделий;143000 Московская Область, г. Одинцово, ул. Союзная, д.7.;"Металлургия    (Производители огнеупоров)";4790
37.755006;55.562317;Завод весового оборудования ЗВО;42700, Московская область, Ленинский район г. Видное, Территория ГИАП, офис 147;"Промышленное оборудование    (Производители весового оборудования)";3839
37.29284;55.671686;Завод Фасадных Термопанелей Аляска;Россия, Московская область, Одинцово, Транспортная улица, 2;"Производители композитных материалов и утеплителей    (Строительные и отделочные материалы)";4790
37.544018;55.890749;Фабрика Вентиляции Техностройальянс;127411, Россия, г. Москва, Дмитровское шоссе, д.110. Территория завода ЛЭМЗ;"Промышленное оборудование    (Производители вентиляционного оборудования)";6858
37.444566;55.883454;Завод спецавтотехники Транслес;141400, Московская обл., г. Химки, ул. Ленинградская д.1 офис 1425;"Транспорт и спецтехника    (Заводы автофургонов и прицепов)";6769
37.646327;55.714648;Кондитерская фабрика Тореро;г. Москва, Павелецкая набережная, д.2, стр.5;"Кондитерские фабрики    (Пищевая и с/х промышленность)";5226
37.772307;55.706168;Фабрика Требити;г. Москва, ул. Волгоградский проспект, д.135, корп.3;"Строительные и отделочные материалы    (Производители отделочных материалов)";5153
37.566746;55.811017;Кондитерская фабрика Тортарик;Москва, ул.Тимирязевская, д.17;"Кондитерские фабрики    (Пищевая и с/х промышленность)";6122
37.394709;55.726299;Универсалзавод;г. Москва, м. Молодежная , ул. Горбунова 2, стр 46;"Крановые заводы    (Машиностроение и металлообработка)";5290
37.525989;55.922313;Производственное объединение Тонкий Органический Синтез;141700, Московская обл., Долгопрудный г, Лихачевский проезд, дом 5;"Химические заводы    (Химическая и нефтехимическая промышленность)";7103
37.30804;55.492956;Троицкая камвольная фабрика;108841, Россия, г.Москва, г.Троицк, Фабричная площадь, дом 1;"Легкая промышленность    (Производители пряжи, тканей, ниток)";3151
37.539635;55.900658;Союз Заводов;127411, г . Москва , Дмитровское шоссе, д. 157 стр. 9 офис 9279;"Производители бумажной и картонной тары    (Лесная промышленность)";6940
37.5501;55.427882;Швейная фабрика Новая Звезда;Московская область, Подольск, ул. Комсомольская, 1;"Швейные фабрики    (Легкая промышленность)";2595
37.703209;55.73038;Таганский мясокомбинат;109029, г.Москва, Автомобильный проезд, д.8;"Мясоперерабатывающие заводы    (Пищевая и с/х промышленность)";5394
37.820547;55.92488;Калининградская трикотажная фабрика-М;Россия, Московская область, Королёв, улица Карла Маркса, 1А;"Трикотажные фабрики    (Легкая промышленность)";7124
37.703209;55.73038;Таганский мясокомбинат;109029, г.Москва, Автомобильный проезд, д.8;"Мясоперерабатывающие заводы    (Пищевая и с/х промышленность)";5394
37.633194;55.629531;Царицыно;115516, Россия, г. Москва, Кавказский бульвар, д. 58 стр. 1;"Мясоперерабатывающие заводы    (Пищевая и с/х промышленность)";4487
37.942224;55.561466;Тураевский Завод Специальных Конструкций ТЗСК;140080, Московская обл. г.Лыткарино, промзона Тураево, стр.12;"Заводы металлоконструкций и металлоизделий    (Машиностроение и металлообработка)";3853
37.74852;55.753772;Торговый Дом Челябинский Инструментальный Завод;111524, г. Москва, ул. Электродная, дом 2, строение 7, этаж 4, помещение XI, ком. 17;"Инструментальные заводы    (Машиностроение и металлообработка)";5561
36.857607;55.915094;Истринский Опытный завод Углемаш;143500, Московская область г. Истра, пл. Революции, д.6;"Угольные компании    (Полезные ископаемые)";6973
37.693588;55.899325;Бетонный завод ТД Эксперт;МО Мытищи, улица Центральная, 20Б, офис 114, Бизнес-центр “Quadrum”;"Заводы ЖБИ    (Строительные и отделочные материалы)";6951
37.367859;55.81565;Завод упаковки UpakExpress;Московская область, Красногорск, Павшинский бульвар, 20;"Производители бумажной и картонной тары    (Лесная промышленность)";6108
37.439203;55.900637;Фабрика сладкого декора;141400, Московская область, г. Химки, ул. Рабочая, д. 2а, строение 1. офис 8;"Кондитерские фабрики    (Пищевая и с/х промышленность)";6933
37.071495;55.551084;Завод технической керамики;143360, Московская обл., г.Апрелевка, Наро-Фоминский р-н, ул.Августовская, д.1;"Инструментальные заводы    (Машиностроение и металлообработка)";3709
37.769981;55.81827;Фабрика тары;107497, Россия, г. Москва, ул. Монтажная, д.3.;"Лесная промышленность    (Производители деревянных изделий)";6218
37.697999;55.690324;ТентКар.ру;г. Москва, ул. Нагатинская набережная, вл. 74 (метро Коломенская);"Текстильные фабрики    (Легкая промышленность)";4983
37.699633;55.778335;СтеклоМолл;г. Москва, ул. Б. Почтовая, д. 26 В, стр. 2, 3 этаж, помещение II;"Стекольные заводы    (Строительные и отделочные материалы)";5803
37.40778;55.161121;Сухарный Комбинат;142305 Московская область, район Чеховский, деревня Сергеево, улица Промышленная, дом 1;"Пищевая и с/х промышленность    (Хлебокомбинаты)";207
36.820749;55.908898;Бильярдная фабрика Игра;Московская область, Истринский район;"Прочие промышленные производства    (Производители спортивного оборудования)";6971
37.451654;55.56927;Хлебокомбинат Собинский;Москва, п. Сосенское, Калужское ш., 23-й км, домовл., 14, стр. 3, «К2 Бизнес-парк», корпус А, офис 2-2;"Хлебокомбинаты    (Пищевая и с/х промышленность)";3900
37.576519;55.430712;Подольский Завод Строительных Конструкций;142100, Московская область г.Подольск, ул. Бронницкая, д. 14;"Заводы металлоконструкций и металлоизделий    (Машиностроение и металлообработка)";2679
37.41785;55.984526;Завода Металлических Конструкций;Посёлок аэропорта Шереметьево городской округ Химки, Московская обл;"Машиностроение и металлообработка    (Заводы металлоконструкций и металлоизделий)";7669
37.846625;55.646589;Святозар;Россия, Московская обл., г.Котельники, мкр. \u0022Силикат\u0022, ПРОМЗОНА, стр. 5;"Лакокрасочные заводы    (Химическая и нефтехимическая промышленность)";4666
36.969959;55.627504;Фабрика светопрозрачных конструкций Альтиниум;г. Голицыно, Промышленный проезд, д. 2;"Алюминиевые заводы    (Металлургия)";4357
37.815884;55.331275;ТЕРМОПЛАСТ;142046, Московская область, г. Домодедово, м-он \u0022Белые Столбы\u0022, владение \u0022Новэра\u0022;"Производители композитных материалов и утеплителей    (Строительные и отделочные материалы)";1794
37.307133;55.954818;Мебельная фабрика StArt furniture;141421, Россия, Московская область, г. Химки, мкр. Сходня, ул. Первомайская, вл. 28а;"Мебельные фабрики    (Лесная промышленность)";7415
37.681227;55.72815;Фабрика свадебных платьев Союзком;г. Москва, ул. Талалихина, д. 41, стр. 16;"Легкая промышленность    (Швейные фабрики)";5392
37.778595;55.726026;Сварзавод;Москва, Россия 1-й Институтский пр., д.1;"Промышленное оборудование    (Производители сварочного оборудования)";5317
37.0992;55.974438;СИБПРОМСТРОЙ;Московская область, Солнечногорский район, д. Голубое, ул. Трехсвятская, д. 13;"Строительные и отделочные материалы    (Заводы ЖБИ)";7565
37.63261;55.888816;Семикс;127282, г. Москва, Чермянский проезд, 7.;"Заводы ЖБИ    (Строительные и отделочные материалы)";6783
37.899374;55.78936;СГМ-вибро;Московская область, г. Балашиха, Шоссе Энтузиастов, д.2;"Строительные и отделочные материалы    (Производители композитных материалов и утеплителей)";5900
37.389292;55.724099;Московский мясоперерабатывающий завод Сетунь (Сетунь);Москва, ул. Горбунова, 4, стр. 3;"Мясоперерабатывающие заводы    (Пищевая и с/х промышленность)";5289
37.63261;55.888816;Щелковский металлопрокатный завод;г.Москва, Чермянский проезд д.7, эт.3, оф.3308;"Заводы металлоконструкций и металлоизделий    (Машиностроение и металлообработка)";6783
37.786941;55.943159;Фабрика мягкой мебели Швецинтерком;Россия, Московская область, Мытищи, улица Щорса, 19;"Мебельные фабрики    (Лесная промышленность)";7368
37.497495;55.704823;Сибирская фабрика здоровья;Россия, Москва, Мосфильмовская улица, 53;"Производители бакалеи    (Пищевая и с/х промышленность)";5133
37.65479;55.804562;Ювелирный завод СААВ;107014, г. Москва, 2-ой Лучевой просек 5В стр.1;"Ювелирные заводы    (Прочие промышленные производства)";6046
37.679772;55.702957;Кондитерская фабрика Сладпром;Московская область, Москва, ул. Трофимова д.27;"Кондитерские фабрики    (Пищевая и с/х промышленность)";5146
37.765651;55.620997;Завод Уралочка;РоссияМосковская областьМоскваЛенинский р-н, Бесединское шоссе, Картино, СНТ Картинская Гора;"Производители пленок и труб из полимерных материалов    (Химическая и нефтехимическая промышленность)";4414
37.536499;55.880833;Смиловичский кожевенный завод;Москва, Дмитровское шоссе 107/13;"Кожевенные заводы    (Легкая промышленность)";6776
37.671938;55.775753;Московский завод счетно-аналитических машин имени В.Д.Калмыкова;105066, г. Москва, ул. Красносельская Нижн, д. 35;"Машиностроительные заводы    (Машиностроение и металлообработка)";5801
37.601205;55.58696;Завод Эталон;117405, Москва, ул. Кирпичные Выемки, 2к1;"Строительные и отделочные материалы    (Производители дверей)";4074
37.591503;55.694368;Завод Полимерных Изделий СОУЛСБЕРРИ;г. Москва, ул. Карьер, д. 2а, стр. 1, оф. 325;"Производители пленок и труб из полимерных материалов    (Химическая и нефтехимическая промышленность)";5058
37.595393;55.797205;Завод теплотехнического оборудования Сатэкс;127018, г. Москва ул. Двинцев 3;"Промышленное оборудование    (Производители теплового оборудования)";5960
37.772325;55.811432;Завод САНТЕХПРОМ;107497, г. Москва, ул. Амурская, д. 9/6;"Промышленное оборудование    (Производители теплообменного оборудования)";6137
37.574139;55.441836;Подольский мукомольный завод;142116 Московская область, г. Подольск, ул. Лобачёва, д. 24;"Мукомольные заводы    (Пищевая и с/х промышленность)";2760
37.574139;55.441836;Подольский экспериментальный мукомольный завод;142116 Московская область, г. Подольск, ул. Лобачёва, д. 24;"Мукомольные заводы    (Пищевая и с/х промышленность)";2760
37.764231;55.914897;Фабрика РУССКАЯ ДЕРЕВЯННАЯ ИГРУШКА;141009, Московская область, г.Мытищи, улица Колонцова 5;"Фабрики игрушек    (Легкая промышленность)";7038
37.720474;55.824971;Русская лента;107150, Москва, Лосиноостровская улица, 30А, стр.15;"Легкая промышленность    (Производители веревочных изделий)";6215
37.644333;55.894354;Фабрика Просумки;Россия, Москва, Полярная ул. 41;"Легкая промышленность    (Производители галантерейных изделий)";6865
37.104922;55.879157;Ресурс;Россия, Московская область, городской округ Истра, деревня Талицы;"Заводы ЖБИ    (Строительные и отделочные материалы)";6663
37.552786;55.891067;Первый профильный завод;127591, г. Москва, ул. Дубнинская, д. 81А стр.3;"Строительные и отделочные материалы    (Производители фасадных материалов)";6859
37.812489;55.921016;Завод холодильного и технологического оборудования Простор Л;141070, Россия, Московская область, г. Королев, ул. Циолковского, 2а;"Промышленное оборудование    (Производители холодильного оборудования)";7123
37.116807;55.860241;Завод теплиц РосТеплица;г. Москва, г. Дедовск, ул. Гагарина, д. 18;"Химическая и нефтехимическая промышленность    (Производители пленок и труб из полимерных материалов)";6500
37.779745;55.464769;Бетонный завод Спец Русь-Бетон;Россия, Московская область, Домодедово, Промышленная улица, 31;"Заводы ЖБИ    (Строительные и отделочные материалы)";2939
37.731218;55.683447;Rubaska;г. Москва, Полбина 3С1;"Трикотажные фабрики    (Легкая промышленность)";4986
37.256728;55.656473;Московский комбинат строительных материалов МКСМ;Московская область, г.Одинцово, ул. Железнодорожная д. 19;"Заводы ЖБИ    (Строительные и отделочные материалы)";4706
37.774813;55.654681;Фабрика Русская пуговица;109469 , Москва , Перервинский б-р, д.27, корп. 1;"Химическая и нефтехимическая промышленность    (Заводы пластмасс)";4661
37.785782;55.944415;Завод строительных материалов Автострой;г. Мытищи, ул. Силикатная д. 42;"Заводы ЖБИ    (Строительные и отделочные материалы)";7368
37.181503;55.353622;Русский рыбный мир;142138, г. Москва, поселение Щаповское, пос. Курилово, ул. Центральная, д. 15, пом. 1;"Консервные заводы    (Пищевая и с/х промышленность)";1912
37.573474;55.43275;Подольская трикотажная фабрика ПТФ;Россия, Московская область, Подольск, Бронницкая улица, 1;"Трикотажные фабрики    (Легкая промышленность)";2678
37.547639;55.421159;Подольский электромеханический завод ПЭМЗ;Россия, Московская область, г. Подольск, ул. Большая Серпуховская, вл. 43;"Электромеханические заводы    (Машиностроение и металлообработка)";2595
37.572504;55.505424;Подольская Фабрика Окон;г.Москва, г.Щербинка, Симферопольское шоссе, Д.6/10 1 Этаж;"Строительные и отделочные материалы    (Производители окон)";3334
37.72387;55.712589;Фабрика офисных перегородок;г. Москва, Волгоградский пр-т, 47, офис 307;"Заводы металлоконструкций и металлоизделий    (Машиностроение и металлообработка)";5231
37.259189;55.664578;Одинцовский завод легких конструкций ОЗЛК;Россия, Московская область, Одинцово, улица Старое Яскино, 75А;"Строительные и отделочные материалы    (Производители фасадных материалов)";4788
37.5501;55.427882;Фабрика межкомнатных дверей Оникс;ул. Комсомольская, 1, Подольск, Московская область, 142100;"Строительные и отделочные материалы    (Производители дверей)";2595
37.726044;55.598044;Московская обувная фабрика имени Г.В. Муханова;115583, г.Москва, Каширское шоссе д.65;"Обувные фабрики    (Легкая промышленность)";4165
37.571749;55.441014;Подольскхлеб;Россия, 142100, Московская обл., г. Подольск ул. Лобачева, 19;"Хлебокомбинаты    (Пищевая и с/х промышленность)";2760
37.544944;55.435202;Подольская фабрика офсетной печати;142100, Московская область, Подольск, Революционный проспект, 80/42;"Прочие промышленные производства    (Типографии/полиграфии)";2676
37.067857;55.538259;ПИНГОНС;143362, Россия, Московская область, г.Апрелевка, ул. Апрелевская, д.65, оф. 213;"Трикотажные фабрики    (Легкая промышленность)";3626
37.573016;55.456694;Подольский завод оборудования;Россия, Московская область, Подольск, Плещеевская улица, 34;"Промышленное оборудование    (Производители нефтегазового оборудования)";2842
37.313906;55.666701;Мясокомбинат Очаково;143000, Московская обл., Одинцовский р-н, д. Вырубово, д. 160, стр. 1;"Мясоперерабатывающие заводы    (Пищевая и с/х промышленность)";4792
37.702041;55.777545;Коломенский завод тепловых труб;Россия, Москва, Рубцовская набережная, 3;"Трубные заводы    (Металлургия)";5804
37.560556;55.473179;Кондитерская фабрика Би-энд-Би (B\u0026B);142111, Московская обл., г. Подольск, Рязановское шоссе, д.1;"Кондитерские фабрики    (Пищевая и с/х промышленность)";3005
37.808743;55.791435;Компания СтройПрокат;105187, Нижняя Первомайская, д. 47, Москва, Россия;"Строительные и отделочные материалы    (Производители кровельных материалов)";5975
37.427121;55.692957;Очаковский комбинат пищевых ингредиентов;121471, г. Москва, ул. Рябиновая д.53;"Пищевая и с/х промышленность    (Производители бакалеи)";5046
37.593659;55.821871;Останкинский пивоваренный завод;127322 Москва, Огородный проезд, дом 20;"Пивоваренные заводы    (Пищевая и с/х промышленность)";6206
37.734596;55.885943;Перловский завод энергетического оборудования;Россия, 141 011, г. Мытищи, Московская обл., ул. Коммунистическая, д. 23.;"Энергетические компании    (Энергетика и коммунальное хозяйство)";6790
37.960001;55.73924;Обойная фабрика ПАЛИТРА;143983, Российская Федерация, Московская область, г. Балашиха, микрорайон «Керамик», улица Керамическая, строение 1-Ж;"Строительные и отделочные материалы    (Производители отделочных материалов)";5494
37.77599;55.91353;Мытищинский завод Мосводоканалстрой;Московская область, г.Мытищи, Олимпийский проспект 2,, помещение 1 инд. 141009;"Водоканалы    (Энергетика и коммунальное хозяйство)";7039
37.279923;55.66601;Одинцовская Зеркальная Фабрика;ул. Маковского, 3, Одинцово, Московская обл., 143006;"Стекольные заводы    (Строительные и отделочные материалы)";4789
37.677921;55.325175;Истринская фабрика спортивного оборудования;Россия, Московская область, ГО Подольск, д.Валищево, 15в;"Прочие промышленные производства    (Производители спортивного оборудования)";1702
36.979885;55.514045;Опытный завод Гидромонтаж;143345, Московская область, Наро-фоминский район, пос. Селятино, территория завода ‹‹Гидромонтаж››;"Заводы металлоконструкций и металлоизделий    (Машиностроение и металлообработка)";3374
37.543219;55.432168;Подольский оконный завод;Подольск, Комсомольская ул., д. 59;"Строительные и отделочные материалы    (Производители окон)";2676
37.496758;55.916537;ПАНТЕЛЕМОНЕ;Московская обл., г. Долгопрудный, Лихачевский проспект, дом 18, стр.1;"Трикотажные фабрики    (Легкая промышленность)";7101
37.124254;55.854279;Дедовский Комбинат Окон;143530, РФ, Московская область, Истринский район, г. Дедовск, ул. Больничная, д. 8А.;"Строительные и отделочные материалы    (Производители окон)";6500
37.958699;55.636504;Пехорский текстиль;140072, Россия, Московская область, Люберецкий район поселок Жилино-2, д.1 \u0022А\u0022;"Текстильные фабрики    (Легкая промышленность)";4510
37.436948;55.856573;Окна Эверест;Москва, ул. Героев Панфиловцев, 10;"Строительные и отделочные материалы    (Производители окон)";6523
37.84464;56.009044;Мебельная фабрика NOTA;г. Пушкино, Писаревский проезд, д. 5;"Мебельные фабрики    (Лесная промышленность)";7946
37.417212;55.692277;Фасадные системы АФКОН;г. Москва, Рябиновая, 28А;"Строительные и отделочные материалы    (Производители фасадных материалов)";5045
37.540982;55.901046;Литейный Завод Пресс-Форм;Московская область,Москва,Дмитровское шоссе,157с7;"Заводы пластмасс    (Химическая и нефтехимическая промышленность)";6940
37.951205393321;55.747417849658;Кучинский опытно-керамический завод;ОБЛАСТЬ МОСКОВСКАЯ, БАЛАШИХА, ЮЖНАЯ (КУЧИНО МКР.) ДОМ 1 КОРПУС АДМ-НЫЙ ПОМЕЩЕНИЕ 48;"Строительные и отделочные материалы    (Керамические заводы)";5575
37.568282;55.850646;Владыкинский механический завод;127238, г. Москва, шоссе Дмитровское, д. 58;"Механические заводы    (Машиностроение и металлообработка)";6450
37.930105;55.960256;НСТ;141282 Московская обл., г. Ивантеевка, ул. Толмачева, д. 104, стр. 1, пом. 25;"Заводы ЖБИ    (Строительные и отделочные материалы)";7460
37.924985;55.970932;Завод Вентмаш;141281, Московская обл., г. Ивантеевка, ул. Заречная д. 1;"Промышленное оборудование    (Производители вентиляционного оборудования)";7623
37.675235;55.72055;Московский шинный завод Таганка;115088, Россия, город Москва, улица Шарикоподшипниковская, дом 11;"Шинные заводы    (Химическая и нефтехимическая промышленность)";5310
37.803173;55.619198;НЗК;Московская Область, Дзержинский городской округ, Алексеевская, 5;"Производители композитных материалов и утеплителей    (Строительные и отделочные материалы)";4417
37.335681;55.695961;Одинцовская швейная фабрика;143005, Московская область, Одинцовский район, п. Трехгорка, ул. Трехгорная, д. 4, офис 311;"Швейные фабрики    (Легкая промышленность)";5039
37.539078;55.747115;Уральский Ювелирный Завод;Москва, Пресненская набережная, 8, стр.1, МФК город столиц, башня Москва;"Ювелирные заводы    (Прочие промышленные производства)";5546
37.938504;55.9754;Завод опытного моделирования Магнат;Московская область, г. Ивантеевка, ул. Бережок, д. 7, помещение 31;"Заводы металлоконструкций и металлоизделий    (Машиностроение и металлообработка)";7624
37.499884;55.916895;Московский Камнеобрабатывающий Комбинат;г.Долгопрудный (МО) 141700, Московская обл., Транспортный проезд 5;"Обогатительные комбинаты (ГОК)    (Полезные ископаемые)";7101
37.782458;55.438915;Завод металлоконструкций Цех;Московская область, г. Домодедово, Станционная 26;"Заводы металлоконструкций и металлоизделий    (Машиностроение и металлообработка)";2693
37.292427;55.665055;Московский завод электронного приборостроения МЗЭП;143006, РФ, г. Одинцово Московской обл., ул. Сосновая, д. 28.;"Машиностроение и металлообработка    (Приборостроительные заводы)";4790
37.333238;55.808407;Невский энергомеханический завод NEMZ;143402, Московская обл., г. Красногорск, Ильинское шоссе, д. 1А;"Энергетика и коммунальное хозяйство    (Заводы электрощитового оборудования)";6105
37.691162;55.746993;Московский завод по модернизации и строительству вагонов имени Войтовича;Россия, Москва, шоссе Энтузиастов, 4с32;"Транспорт и спецтехника    (Вагоностроительные заводы)";5557
37.181503;55.353622;Машиностроительный завод ПОТОК;108830, г. Москва, поселение Вороновское, квартал 16, влд.1;"Промышленное оборудование    (Производители сельхозтехники)";1912
37.926728;55.670397;Люберецкий завод мостостроительного оборудования;Люберцы, ул. Железнодорожная, 4;"Промышленное оборудование    (Производители бурового оборудования)";4836
36.888634;55.904856;Завод детского питания Нутриция;Россия, Московская область, Истра, Московская улица, 48;"Пищевая и с/х промышленность    (Производители детского питания)";6894
37.721822;55.440309;Фабрика МИДЕЛЬ;Московская область, г. Домодедово, территория Промзона Текстильщик, с9 микрорайон Западный;"Мебельные фабрики    (Лесная промышленность)";2771
37.138025;55.81302;Кондитерская фабрика МАЛВИКЪ;143581, Московская область, Истринский район, Павло-Cлободское с/п, деревня Новинки, д. 91;"Кондитерские фабрики    (Пищевая и с/х промышленность)";6091
37.288232;55.671935;Швейная фабрика Мантис;Россия, Московская область, Одинцово, Союзная улица, 7;"Легкая промышленность    (Швейные фабрики)";4790
37.866181;55.565936;Молоковская картонажно-полиграфическая фабрика;142714, МО, Ленинский р-он, с Молоково, Школьная, 23Ю;"Производители бумажной и картонной тары    (Лесная промышленность)";3929
37.670286;55.722299;Меховая фабрика Марина Фурс;г. Москва, ул Шарикоподшипниковская 11с1, торговый комплекс \u0022Дубровка\u0022 ряд 7, магазин 157;"Меховые фабрики    (Легкая промышленность)";5309
37.438107;55.89349;Фабрика резиновых покрытий Мастерфайбр;141400 г. Химки, ул. Энгельса д. 10/19, помещение 005;"Заводы РТИ    (Химическая и нефтехимическая промышленность)";6851
37.780661;55.941496;Мебельная фабрика МДВМ;Московская область, Мытищи, ул. Силикатная, д.36;"Мебельные фабрики    (Лесная промышленность)";7285
37.739177;55.668214;Люблинский литейно-механический завод;109382, г. Москва, ул. Люблинская, 72;"Машиностроительные заводы    (Машиностроение и металлообработка)";4822
37.369083016806;55.589506808362;Агрокомбинат Московский;Москва, город Московский, ул. Солнечная 32;"Пищевая и с/х промышленность    (Фермерские предприятия)";4058
37.849616;55.630939;ЛМЗ Луч;Московская область, г.Дзержинский;"Заводы металлоконструкций и металлоизделий    (Машиностроение и металлообработка)";4502
37.731048;55.676697;Часовой завод Мактайм;"""Москва, Кузнечный тупик, 1а";;"Часовые заводы    (Прочие промышленные производства)";4904
37.635754;55.880914;Лосиноостровский завод строительных материалов и конструкций;127081, г Москва, ул Полярная, 25;"Кирпичные заводы    (Строительные и отделочные материалы)";6783
37.759048;55.617037;Кожгалантерейная фабрика Медведково;Россия, Москва, Ореховый бульвар, 63;"Кожевенные заводы    (Легкая промышленность)";4332
37.767366;55.816318;Московский завод вакуумных электропечей МЭВЗ;107497, РФ, г. Москва, ул. Монтажная, д. 2А, каб. 402.;"Промышленное оборудование    (Производители промышленных печей)";6136
37.91222;55.582014;Лыткаринский пищевой комбинат;140080, Московская область, г. Лыткарино, ул. Парковая, д. 1, здание литер Б;"Производители бакалеи    (Пищевая и с/х промышленность)";4015
37.708248;55.753787;Светотехнический завод МЭИ-МЭК;Россия, Москва, Красноказарменная улица, 14;"Светотехнические заводы    (Машиностроение и металлообработка)";5558
37.64648;55.716022;Машиностроительный завод Лепта;115114 г. Москва, Павелецкая набережная, д. 2;"Промышленное оборудование    (Станкостроительные заводы)";5226
37.912202;55.67124;Люберецкий хлебокомбинат;140000, Московская область, г. Люберцы, ул. Хлебозаводская., д. 9;"Хлебокомбинаты    (Пищевая и с/х промышленность)";4835
37.686392;55.860959;Меленковский консервный завод;129337, Россия, Москва, Хибинский проезд, д.20;"Консервные заводы    (Пищевая и с/х промышленность)";6540
37.524192;55.770983;Московский мельничный комбинат № 3 (Мелькомбинат № 3);123007 г. Москва, ул. Магистральная 1-я, дом 14, стр.9;"Мукомольные заводы    (Пищевая и с/х промышленность)";5709
37.067094;55.714359;Московский конный завод №1;143030, Московская область, Одинцовский район, с. Успенское, д. 51А;"Пищевая и с/х промышленность    (Конезаводы)";5184
37.648861;55.760276;Металлообрабатывающий завод Металлоконструкция;105062 г Москва, ул. Покровка 29, строение 1, помещение 16;"Машиностроение и металлообработка    (Заводы металлоконструкций и металлоизделий)";5636
37.631173;55.785564;Композитная черепица ТЕХНОНИКОЛЬ;129110, Россия, г. Москва, ул. Гиляровского, д.47, стр.5;"Строительные и отделочные материалы    (Производители композитных материалов и утеплителей)";5880
37.922191;55.6746;Люберецкий завод металлоконструкций;ул, пр-д Проектируемый 4296, строение 4, Люберцы, Московская обл., 140070;"Заводы металлоконструкций и металлоизделий    (Машиностроение и металлообработка)";4917
37.912364;55.670828;Lonax;Хлебозаводская ул., 8, Люберцы, Московская обл., 140014;"Легкая промышленность    (Производители матрасов)";4835
37.931543;55.968287;Королевский свайный завод;МО, г.Ивантеевка, ул.Трудовая, 3;"Заводы металлоконструкций и металлоизделий    (Машиностроение и металлообработка)";7542
37.581855;55.848513;Торговый дом СФЗ;Москва, Алтуфьевское шоссе, д.1;"Фанерные комбинаты    (Лесная промышленность)";6451
37.737372;55.466524;Завод LEVART;Россия, Московская область, Домодедово, Индустриальная улица, 1;"Строительные и отделочные материалы    (Производители тротуарной плитки)";3018
37.487649;55.662308;Апрелевский Экспериментальный Завод;г. Москва, пр-т Вернадского, дом 105, кор.2, офис 12;"Машиностроение и металлообработка    (Заводы металлоконструкций и металлоизделий)";4722
37.838845;55.564796;Лисна;Россия, Московская область, Ленинский городской округ, деревня Мисайлово, 2;"Легкая промышленность    (Производители матрасов)";3845
37.011335;55.595496;Кобяковская фабрика по лозоплетению;Московская область, Одинцово, д.Кобяково ул. Лесная 31;"Мебельные фабрики    (Лесная промышленность)";4114
37.351896;55.593868;Торговый Дом ЗТМ;142784, г. Москва, ул. Хабарова, д.2, офис 319А;"Транспорт и спецтехника    (Производители спецтехники)";4139
37.629906;55.628113;Фабрика матрасов Laneve;Москва, Кавказский бульвар, дом 59;"Легкая промышленность    (Производители матрасов)";4486
37.444566;55.883454;Завод абразивного инструмента Корунд;Россия, 141402, Московская область, г. Химки, ул. Ленинградская, д.1, литер Г, офис 5;"Инструментальные заводы    (Машиностроение и металлообработка)";6769
37.539302;55.905447;Мебельная фабрика Кондор;127411, г.Москва, Дмитровское ш., 161 Б. Мебельный центр «Империя», 3 этаж, «Кондор»;"Мебельные фабрики    (Лесная промышленность)";6940
37.22155;55.519243;Крановый завод Лемменс;108807, г.Москва, п.Птичное, ул. Центральная, 103;"Крановые заводы    (Машиностроение и металлообработка)";3391
37.658104;55.786561;Кондитерская фабрика Красный Октябрь;07140, г. Москва, ул. Малая Красносельская, 7;"Кондитерские фабрики    (Пищевая и с/х промышленность)";5882
37.863109;55.758914;Ликсин.ру;Россия, г. Реутов, ул. Победы, дом 1;"Мебельные фабрики    (Лесная промышленность)";5651
37.783464;55.814836;Кузнецкий кожзавод КожСоюз;Москва, ул. Иркутская, д. 3;"Кожевенные заводы    (Легкая промышленность)";6137
37.744774;55.672417;Комбинат Промышленных Емкостей;109382, г.Москва, ул.Судакова, дом 10;"Заводы пластмасс    (Химическая и нефтехимическая промышленность)";4823
37.784003;55.723465;Фабрика женской одежды KRISTY;109428, г. Москва 1-й Институтский проезд, дом 14;"Трикотажные фабрики    (Легкая промышленность)";5317
37.484882;55.785539;Фабрика деревянных окон Largo-Group;Россия, Москва, улица Народного Ополчения, 34с1;"Строительные и отделочные материалы    (Производители окон)";5870
37.340343;55.80742;Кнауф Гипс;143405, Московская обл., г. Красногорск, ул. Центральная, д. 139;"Строительные и отделочные материалы    (Гипсовые заводы)";6024
37.053439;55.596559;Краснознаменский завод полупроводниковых приборов Арсенал;143090, Московская область, г. Краснознаменск, ул. Связистов, д.9;"Электромеханические заводы    (Машиностроение и металлообработка)";4117
37.513727;55.61055;Фабрика рамок;Москва ул. Голубинская, влад. 4А, стр.1.;"Металлургия    (Алюминиевые заводы)";4314
37.769837;55.809722;Кондитерская фабрика Черемушки;Россия, 105122, г. Москва, ул. Амурская, д.22А;"Кондитерские фабрики    (Пищевая и с/х промышленность)";6136
37.393443;55.736904;Хлебозавод №22;121359, Москва, ул. Академика Павлова, д. 4;"Хлебокомбинаты    (Пищевая и с/х промышленность)";5454
37.038698;55.582502;Краснознаменская Фабрика Модульных Конструкций;143090, Россия, Московская область, г. Краснознаменск, ул. Строителей д.22;"Заводы металлоконструкций и металлоизделий    (Машиностроение и металлообработка)";3952
37.162746;56.013226;Хлебозавод № 28;124460, Москва, Зеленоград, Проспект Генерала Алексеева, д. 44, стр. 1;"Хлебокомбинаты    (Пищевая и с/х промышленность)";7897
37.638853;55.643134;Кондитерская фабрика Хлебный Спас;115201, г. Москва, ул. Котляковская, д. 6, стр. 8 (метро Каширская);"Кондитерские фабрики    (Пищевая и с/х промышленность)";4569
36.825618;55.917183;ВНИИЭТО;143502, г. Истра Московской обл., ул. Почтовая,31;"Промышленное оборудование    (Производители промышленных печей)";7053
37.559469;55.737897;Фабрика HARD-PUNCH;Московская область, Москва, Бережковская набережная, д. 12а;"Прочие промышленные производства    (Производители спортивного оборудования)";5465
37.580993;55.782861;Завод HICOLD;3-я Ямского Поля ул., 2, к. 1, Москва, 125040;"Промышленное оборудование    (Производители холодильного оборудования)";5877
37.896778;55.669488;Фабрика кованых изделий Идиллия металла;Московская область, г. Люберцы,ул. Южная, д.31А;"Заводы металлоконструкций и металлоизделий    (Машиностроение и металлообработка)";4833
37.684847;55.550738;ИМС (IMS);142703, г. Видное, Ленинский р-н, Московская область, Донбасская, дом № 2, строение 10, комната 611;"Промышленное оборудование    (Производители нефтегазового оборудования)";3752
36.986111;55.618664;ГОЛИЦЫНСКИЙ ОПЫТНЫЙ ЗАВОД СРЕДСТВ АВТОМАТИЗАЦИИ;Московская область, Одинцовский район, г. Голицыно Звенигородское шоссе 15а;"Промышленное оборудование    (Производители сельхозтехники)";4277
37.780302;55.678961;ZAIN;Московская область,Москва,Тихорецкий бульвар,1;"Обувные фабрики    (Легкая промышленность)";4907
37.613961;55.720895;Подшипниковый Завод ГПЗ-2;115162, Россия, г. Москва, ул. Шаболовка, д. 31;"Подшипниковые заводы    (Машиностроение и металлообработка)";5305
36.818135;55.91578;Истринский завод металлических конструкций;Московская область, г. Истра, Заводская улица, д. 5;"Заводы металлоконструкций и металлоизделий    (Машиностроение и металлообработка)";6971
37.753829;55.805766;Кондитерская фабрика Русское драже;Россия,г. Москва, 105122, ул. Амурская д.2;"Пищевая и с/х промышленность    (Кондитерские фабрики)";6053
37.687659;55.772689;Фабрика елок ГринТриз;105082, г. Москва, ул. Б. Почтовая, д. 26В, стр. 2, помещение I, офис 14;"Прочие промышленные производства    (Другие производители)";5803
36.82445;55.881909;Истринский Экспериментальный Механический Завод (ИЭМЗ);143550, Московская область, Истринский район, д.Буньково Лучинского с/о.;"Механические заводы    (Машиностроение и металлообработка)";6725
37.232123;55.673595;Хладокомбинат Западный;143002, Московская область, г. Одинцово, ул. Западная, 22;"Пищевая и с/х промышленность    (Хладокомбинаты)";4868
37.764411;55.929505;Завод Интеркафе;г. Мытищи, Московской обл., проезд Воронина, строение 5, офис 28;"Пищевая и с/х промышленность    (Производители кофе)";7202
37.936879;55.675839;Новоладожский завод теплиц;Россия, Москва, Проектируемый проезд № 4296;"Заводы металлоконструкций и металлоизделий    (Машиностроение и металлообработка)";4918
37.559397;55.40592;Подольский тарный комбинат;142108, Московская область г. Подольск, ул. Правды д.28;"Заводы металлоконструкций и металлоизделий    (Машиностроение и металлообработка)";2431
37.067291;55.555026;Завод светотехники Искра;Московская обл., г. Апрелевка, ул. Парковая 1, оф. 319;"Машиностроение и металлообработка    (Светотехнические заводы)";3708
37.654331;55.794158;Завода Навесного Оборудования ХардКов;107113, г. Москва, ул. Сокольнический вал, д.37;"Экскаваторные заводы    (Транспорт и спецтехника)";5964
37.848421;55.91357;Калининградхлеб;ул. Калининградская, д.7, г. Королев, Московская область, 141080, Россия;"Хлебокомбинаты    (Пищевая и с/х промышленность)";7044
37.755733;55.73592;Деревообрабатывающий комбинат №3;Московская область,Москва,ул.1-ая Карачаровская,8;"Лесная промышленность    (Деревообрабатывающие комбинаты)";5397
37.444566;55.883454;Металлотканый завод Haver By;г. Химки (Московская область), ул. Ленинградская д. 1;"Заводы металлоконструкций и металлоизделий    (Машиностроение и металлообработка)";6769
37.554825;55.379961;Феттеръ;Адрес: 142181, Московская обл., г. Подольск, мкр. Климовск, ул. Заводская, дом 2, корпус 8;"Другие производители    (Прочие промышленные производства)";2185
37.50822;55.758397;Московский завод железобетонных изделий и труб;123995, Россия, г. Москва, Береговой проезд, д. 2;"Заводы ЖБИ    (Строительные и отделочные материалы)";5626
37.473671;56.007946;Завод строительного фарфора Фарфор;141730, Лобня, ул. Силикатная, д. 2, корпус 33, помещение 10;"Строительные и отделочные материалы    (Производители сантехники)";7919
37.712533;55.703515;Бетонный завод ФОРАС;Россия, Москва, Южнопортовая улица, 21, стр. 8;"Заводы ЖБИ    (Строительные и отделочные материалы)";5148
37.696876;55.781474;Фабрика Компрессоров;Россия Московская область Москваул. Большая Почтовая, 38;"Машиностроение и металлообработка    (Заводы радиоаппаратуры и радиодеталей)";5885
37.734515;55.891199;Швейная фабрика Фортуна;г.Мытищи, станция Перловская, ул. 1-я Вокзальная 21;"Швейные фабрики    (Легкая промышленность)";6872
37.726412;55.81996;Федор Сумкин;107150, г. Москва, ул. 4-ый проезд Подбельского, дом 3, стр 3;"Швейные фабрики    (Легкая промышленность)";6215
37.530301;55.771418;Фабрика театральной косметики;Москва, 2-ой Хорошевский проезд, д.7, стр.1А.;"Химическая и нефтехимическая промышленность    (Производители косметики и парфюмерии)";5709
37.769486;55.912703;Фабрика стильной мебели;141009, М.О. г. Мытищи, Бояринова 20.;"Мебельные фабрики    (Лесная промышленность)";7038
37.713072;55.895807;Фабрика натяжных потолков Флагман;Москва, Мытищи, ул Веры Волошиной, 46;"Строительные и отделочные материалы    (Производители строительных материалов)";6870
37.728649;55.701318;Фабрика торгового оборудования;г. Москва, ул. Шоссейная д. 1н;"Мебельные фабрики    (Лесная промышленность)";5149
37.645402;55.729224;Фабрика стендов;г.Москва, Кожевническая ул., 10, стр. 1, БЦ \u0022Спутник\u0022;"Заводы металлоконструкций и металлоизделий    (Машиностроение и металлообработка)";5390
37.752264604961;55.759140541452;Фабрика СВ;Москва, Шоссе Энтузиастов, дом 31 строение 38 ТЦ 31;"Лесная промышленность    (Мебельные фабрики)";5643
37.410592;55.383239;Чулковский Мясоперерабатывающий Комбинат;142138, г. Москва, п. Щаповское, дер. Троицкое, дом. 66, корп. 2;"Пищевая и с/х промышленность    (Мясоперерабатывающие заводы)";2175
37.412011;55.68937;Швейная фабрика Фактория Стиля;121471, Россия, Московская область, гор. Москва, 51-й км МКАД, владение 2;"Швейные фабрики    (Легкая промышленность)";4963
37.710791;55.582009;Фабрика люков;г. Москва, 25 км МКАД, вл.4;"Заводы металлоконструкций и металлоизделий    (Машиностроение и металлообработка)";4000
37.677364;55.734785;Фабрика Спецодежды;109316 г. Москва, ул. Талалихина, д. 41, строение 9, этаж 3, помещение VIII , комната 18, офис 35/3.;"Легкая промышленность    (Производители СИЗов и спецодежды)";5392
37.490497;55.83566;Фабрика МАЖИНО;Россия, Москва, улица Адмирала Макарова, 6с13;"Заводы ЖБИ    (Строительные и отделочные материалы)";6362
37.067291;55.555026;Завод агрегатов;Российская Федерация, 143363 Московская область, Наро-Фоминский район, город Апрелевка, улица Парковая 1;"Машиностроение и металлообработка    (Агрегатные заводы)";3708
37.944927;55.743933;Салтыковская меховая фабрика;Россия, Московская область, Балашиха, микрорайон Салтыковка, Институтская улица, 30;"Меховые фабрики    (Легкая промышленность)";5493
37.245131;55.661933;Фабрика офисной мебели MODER;141190, Московская область, г. Одинцово, ул.Акуловская, д. 2;"Мебельные фабрики    (Лесная промышленность)";4705
37.406477;55.894354;Экспериментально-механический завод;141400, Московская область, г. Химки, Нагорное шоссе, д.2;"Машиностроение и металлообработка    (Электромеханические заводы)";6848
37.770987;55.81087;Фабрика пледов №1;107497, г. Москва, ул. Амурская 9/6, стр.9;"Текстильные фабрики    (Легкая промышленность)";6136
37.453783;55.83799;Производитель теплового оборудования Эван;125362, Москва, ул. Свободы, д.31, стр. 1;"Промышленное оборудование    (Производители теплового оборудования)";6360
37.404231;55.7668;Фабрика систем безопасности;Москва, ул. Осенняя дом 23, офис 70.;"Другие производители    (Прочие промышленные производства)";5700
37.808159;55.659754;Фабрика сумок;Москва, ул. Чагинская, д.13, стр.6.;"Швейные фабрики    (Легкая промышленность)";4745
37.774652;55.519804;Фабрика камня;Московская обл., пгт. Горки Ленинские, ул. Западная вл. 15, Территория Технопарк \u0022М-4\u0022;"Строительные и отделочные материалы    (Камнеобрабатывающие заводы)";3431
37.770987;55.81087;Фабрика трикотажа №1;107497,г. Москва, ул. Амурская 9/6, стр.9;"Трикотажные фабрики    (Легкая промышленность)";6136
37.691396;55.778542;Текстильная фабрика №1;Москва, ул. Бакунинская, д. 74;"Текстильные фабрики    (Легкая промышленность)";5803
37.774652;55.519804;Фабрика Камня;Московская обл., пгт. Горки Ленинские, ул. Западная вл. 15, Территория Технопарк \u0022М-4\u0022;"Строительные и отделочные материалы    (Камнеобрабатывающие заводы)";3431
37.625575752767;55.747948230448;Фабрика Форм;Московская область, Москва;"Машиностроение и металлообработка    (Производители проволоки)";5552
37.490497;55.83566;Фабрика Готика;125212, Россия, Москва, ул. Адмирала Макарова, 6;"Строительные и отделочные материалы    (Производители тротуарной плитки)";6362
37.067857;55.538259;Фабрика КИТ;143362, Россия, Московская обл., Наро-Фоминский р-н, г. Апрелевка, ул. Апрелевская, д. 65;"Трикотажные фабрики    (Легкая промышленность)";3626
37.44638;55.704915;Фабрика Лепнины;г. Москва, ул. Генерала Дорохова, д. 6 c. 21;"Строительные и отделочные материалы    (Производители фасадных материалов)";5129
37.752023;55.760175;Фабрика Рапана;Россия, Москва, шоссе Энтузиастов, 31с37;"Обувные фабрики    (Легкая промышленность)";5643
37.625181;55.67292;FABRIKALITE;Г. Москва, Варшавской шоссе, дом 46 офис 545;"Текстильные фабрики    (Легкая промышленность)";4814
37.66229;55.747936;ЭКСПЕРИМЕНТАЛЬНЫЙ ОПТИКО-МЕХАНИЧЕСКИЙ ЗАВОД;109004, г. Москва, Шелапутинский пер. д.6 стр.3;"Промышленное оборудование    (Производители испытательного оборудования)";5555
37.871616;55.942544;Фабрика Мальцева;Московская область, Королёв, микрорайон Первомайский, Советская улица, 41А;"Деревообрабатывающие комбинаты    (Лесная промышленность)";7292
37.556307;55.885807;Компания Фабрика;Москва, Улица Дубнинская, дом 75с1А (территория предприятия \u0022Висти\u0022).;"Текстильные фабрики    (Легкая промышленность)";6777
37.621938;55.851879;Фабрика ПОПОШИВУ.РУ;Московская область, Москва, ул.Сельскохозяйственная, д.35, а;"Швейные фабрики    (Легкая промышленность)";6454
37.551411;55.371915;Фабрика Лестниц Эйфель;М.О., г.Климовск, ул. Ленина, д. 1;"Заводы металлоконструкций и металлоизделий    (Машиностроение и металлообработка)";2103
37.633167;55.681686;Фабрика швейных изделий №3;117105, г.Москва, 1-й Нагатинский проезд, д.4;"Легкая промышленность    (Швейные фабрики)";4897
37.775757;55.461676;Домодедовский завод изоляции труб;142000, г.Домодедово, Московская область, ул.Промышленная, дом 23;"Производители пленок и труб из полимерных материалов    (Химическая и нефтехимическая промышленность)";2939
37.837004;55.637794;Завод ЖБИ;Мос. Область г. Дзержинский ул. Академика Жукова д.2;"Заводы ЖБИ    (Строительные и отделочные материалы)";4583
37.305561;55.484842;Завод котельного оборудования ЭНЕРГОПРОМСТРОЙ;г. Троицк, п. Краснопахорское вблизи деревни Софьино;"Машиностроение и металлообработка    (Котельные заводы)";3151
37.669378;55.467509;Фабрика матрасов Дамаск;деревня Макарово, г/о Подольск, Московская обл., д. 1, стр. 1;"Легкая промышленность    (Производители матрасов)";3013
37.617941;55.682803;Обувная фабрика Элегантная пара;Варшавское ш., 28А, Москва, 117105;"Обувные фабрики    (Легкая промышленность)";4978
37.893795;55.661714;Завод изготовитель спецтехники Элефант Сервис;Россия, Московская область, Люберцы, Котельнический проезд, 27А;"Транспорт и спецтехника    (Производители спецтехники)";4751
37.476663;55.926877;Мебельная фабрика Декорн;г.Химки, квартал Терехово, ул.Радужная 27;"Мебельные фабрики    (Лесная промышленность)";7181
37.939618;55.935965;Фабрика мягкой мебели Экодизайн;Московская область, Щелковский район, пос. Краснознаменский, ул. Мальцево, 30 А;"Мебельные фабрики    (Лесная промышленность)";7296
37.518758;55.668635;Московский Завод Архитектурного Декора ЭКОЛЕПНИНА;г. Москва, Ленинский проспект дом 99.;"Строительные и отделочные материалы    (Производители фасадных материалов)";4806
37.769954;55.94086;Фабрика мебели Империал;Московская обл., г. Мытищи, ул. Силикатная, д. 39 Ж;"Мебельные фабрики    (Лесная промышленность)";7284
37.773664;55.947616;Кондитерская фабрика Экуш;Московская область, Мытищи, ул. Силикатная, 53, Корпус 3;"Кондитерские фабрики    (Пищевая и с/х промышленность)";7367
37.735027;55.443118;Стекольная мастерская;г. Домодедово, 5-й Южный проезд, дом 27;"Стекольные заводы    (Строительные и отделочные материалы)";2772
37.763692;55.720281;Экспериментальный Механический Завод;109428 Россия, г. Москва, 1-ый Вязовский проезд, д.7;"Автомобильные заводы    (Транспорт и спецтехника)";5316
37.859848;55.672565;Московский Завод Бассейнов;Московская область, г. Котельники, мкрн. Опытное поле д.9;"Другие производители    (Прочие промышленные производства)";4831
37.923744925936;55.641956647529;Фабрика дверей Легенда;Московская область, Люберецкий район, мкр.Птицефабрика, лит. П46, ком. 1;"Строительные и отделочные материалы    (Производители дверей)";4589
37.588296;55.428352;Завод Электропровод;142103, МО, г. Подольск, Бронницкая, д.13а.;"Машиностроение и металлообработка    (Кабельные заводы)";2597
37.572172;55.427816;Подольский завод полимерных изделий;Московская область,Подольск,ул.Рощинская,3;"Заводы пластмасс    (Химическая и нефтехимическая промышленность)";2596
37.444674;55.900027;Бетонный завод Химкинский;Россия, Московская область, Химки, Заводская улица, дом 1;"Заводы ЖБИ    (Строительные и отделочные материалы)";6933
37.647235;55.83704;Фабрика деревянных игрушек Биланик;Москва, Сельскохозяйственная ул. 12А;"Фабрики игрушек    (Легкая промышленность)";6374
37.537245;55.883833;ПОШИВ.ОРГ;Московская область,Москва,ул.Учинская,6;"Швейные фабрики    (Легкая промышленность)";6776
37.761276;55.54018;Видновский бетонный завод МетроБетон;987654, г. Видное, Ленинский район, Видное, Южная промзона, вл.7;"Заводы ЖБИ    (Строительные и отделочные материалы)";3676
37.691701;55.782866;Фабрика блокнотов;г. Москва, ул. Матросская Тишина, д. 1а (открытые ворота со шлагбаумом);"Прочие промышленные производства    (Типографии/полиграфии)";5885
37.783347;55.440074;Преображенский;Московская область,Домодедово,ул.Станционная,20;"Молочные заводы    (Пищевая и с/х промышленность)";2775
37.709578;55.923332;Бетонный завод БРУ Мытищи;141006,Россия, Московская обл., г. Мытищи, Волковское шоссе, промзона №1;"Заводы ЖБИ    (Строительные и отделочные материалы)";7116
37.570519;55.479965;ПРОЕКТРЕСУРС;Московская область,Подольск,ул.8-ого Марта,2;"Заводы металлоконструкций и металлоизделий    (Машиностроение и металлообработка)";3088
37.655526;55.840442;Мясной Комбинат Богатырь;129226, г. Москва, ул.Докукина, д.10 стр.11;"Мясоперерабатывающие заводы    (Пищевая и с/х промышленность)";6374
37.555795;55.661013;Торговый Дом ЭЛЕКТРОКАБЕЛЬНЫЙ ЗАВОД;17420,г Москва, ул Наметкина, д14, корпус2, офис 605;"Машиностроение и металлообработка    (Кабельные заводы)";4727
37.670465;55.717726;Пролетарец;Московская область,Москва,ул.Новоостаповская,12;"Хлебокомбинаты    (Пищевая и с/х промышленность)";5227
37.728523;55.818736;Рестфабрика;Московская область,Москва,4-й проезд Подбельского,3;"Мебельные фабрики    (Лесная промышленность)";6215
37.589446;55.796081;Компрессорный завод БОРЕЦ;"""127018, Москва, ул. Складочная, д.1";;"Компрессорные заводы    (Машиностроение и металлообработка)";5960
37.268074;55.678443;БетонБаза;ул. Маршала Неделина, 6, Одинцово, Московская обл., 143003;"Заводы ЖБИ    (Строительные и отделочные материалы)";4871
37.784668;55.724961;BRELOK MAGNIT;109428, г. Москва, 1-й Институтский проезд, дом 5, стр. 1, комн. 22-28;"Другие производители    (Прочие промышленные производства)";5317
37.725056;55.441351;Бетонный завод Домодедово;Россия, Московская область, Домодедово, улица Текстильщиков, 1Б;"Заводы ЖБИ    (Строительные и отделочные материалы)";2771
37.853964;55.98714;Ликероводочный завод Топаз;141201 Россия, Московская область, г. Пушкино, ул. Октябрьская, д. 46;"Ликеро-водочные заводы    (Пищевая и с/х промышленность)";7700
37.899122;55.665675;Комбинат строительных изделий;Московская область, г. Люберцы, Котельнический проезд, дом № 14А, литера Р, офис 207;"Заводы ЖБИ    (Строительные и отделочные материалы)";4834
37.697415;55.707618;Бетонный Завод CEMBI;Россия, Москва, Южнопортовая улица, 9;"Заводы ЖБИ    (Строительные и отделочные материалы)";5147
37.07269;55.815018;Новорижский бетон;г/о Истра, с.Павловская слобода, ул.Ленина (третий съезд с круга, прямо 150 м.);"Заводы ЖБИ    (Строительные и отделочные материалы)";6087
37.582152;55.843646;Швейная фабрика Чехлы-России;г. Москва, ул. Гостиничная д. 4а;"Швейные фабрики    (Легкая промышленность)";6369
37.048849;55.543781;Бетонный завод Апрелевский;Московская область, Наро-Фоминский район, г. Апрелевка, ул. 1-я Кетрица, 12;"Заводы ЖБИ    (Строительные и отделочные материалы)";3625
37.401465;55.920028;Производственный комбинат Натуральные напитки;Вашутинское ш., д. 4Б, Химки, Московская обл., 125466;"Производители безалкогольных напитков    (Пищевая и с/х промышленность)";7094
37.469216;55.142833;Чеховский регенератный завод ЧРЗ;Россия, Московская область, Чехов, улица Чехова, 20Б;"Шинные заводы    (Химическая и нефтехимическая промышленность)";47
37.845286;55.276431;КОАЛКО-Агро;142062, Московская область, г. Домодедово, с. Растуново, ул. Заря, стр. 58;"Пищевая и с/х промышленность    (Фермерские предприятия)";1222
37.421838;55.695575;ПОБЕДА;Московская область,Москва,ул.Рябиновая,26с2;"Кондитерские фабрики    (Пищевая и с/х промышленность)";5046
37.439131;55.896277;Химкинский бетонный завод;987654, г. Химки, Союзная улица, 11;"Заводы ЖБИ    (Строительные и отделочные материалы)";6851
37.63668;55.603593;МОНТЕМ;Московская область,Москва,ул.Подольских курсантов,15;"Текстильные фабрики    (Легкая промышленность)";4241
37.427121;55.692957;Московский Межреспубликанский Винодельческий Завод;Московская область,Москва,ул.Рябиновая,53;"Винные заводы    (Пищевая и с/х промышленность)";5046
37.766306;55.753585;Перовский Завод Эластомеров;Московская область,Москва,2-й проезд Перова Поля;"Заводы пластмасс    (Химическая и нефтехимическая промышленность)";5562
37.593354;55.805467;МосБетонТорг;Московская область,Москва,ул.Складочная,3с3;"Заводы ЖБИ    (Строительные и отделочные материалы)";6042
37.524192;55.770983;Московский мельничный комбинат №3;Московская область,Москва,ул.Магистральная 1-я,14с9;"Мукомольные заводы    (Пищевая и с/х промышленность)";5709
37.470581;55.694449;Перспектива;Московская область,Москва,ул.Лобачевского,118к2;"Заводы ЖБИ    (Строительные и отделочные материалы)";5049
37.704134;55.786505;Мосинтермет;Московская область,Москва,ул.Электрозаводская,21;"Заводы металлоконструкций и металлоизделий    (Машиностроение и металлообработка)";5886
37.65152;55.805093;Производственный комбинат музыкальных инструментов фонда П.И. Чайковского;Московская область,Москва,ул.3-я Мытищинская,16с32;"Другие производители    (Прочие промышленные производства)";6046
37.519036;55.895833;ПК ВАРЯГ;Московская область,Москва,ул.Лобненская,21;"Заводы металлоконструкций и металлоизделий    (Машиностроение и металлообработка)";6857
37.715785;55.745027;Москабель-Фуджикура;Московская область,Москва,ул.2-я Кабельная,2с2;"Производители пленок и труб из полимерных материалов    (Химическая и нефтехимическая промышленность)";5477
37.570078;55.773024;Кросна-электра;Московская область,Москва,ул.Пресненский Вал,27;"Электромеханические заводы    (Машиностроение и металлообработка)";5794
37.605858;55.679285;Московская Зеркальная Фабрика;Московская область,Москва,ул.Нагорная,17к1;"Стекольные заводы    (Строительные и отделочные материалы)";4895
37.42686;55.69626;Московский хладокомбинат № 14;Московская область,Москва,ул.Рябиновая,47;"Хладокомбинаты    (Пищевая и с/х промышленность)";5046
37.774867;55.81864;МЭЛ;Московская область,Москва,2-ой Иртышский проезд,11;"Энергетика и коммунальное хозяйство    (Заводы электрощитового оборудования)";6219
37.533652;55.655097;Московская специализированная фабрика шелкотрафаретной печати №1;Московская область,Москва,ул. Профсоюзная,84/32;"Швейные фабрики    (Легкая промышленность)";4726
37.798475;55.725037;НПП Завод Коннектор;Московская область,Москва,Аллея Первой Маевки,15с1;"Машиностроение и металлообработка    (Электромеханические заводы)";5318
37.603361;55.586171;Московская фабрика мебели;Московская область,Москва,ул.Кирпичные Выемки,2с1;"Мебельные фабрики    (Лесная промышленность)";4075
37.690327;55.713035;Обувная фабрика Romer;Московская область,Москва,ул.Угрешская,2с23;"Обувные фабрики    (Легкая промышленность)";5229
37.783464;55.814836;Московский экспериментальный завод №1;Московская область,Москва,ул.Иркутская,3;"Машиностроение и металлообработка    (Электромеханические заводы)";6137
37.708769;55.792301;Московская фабрика ортопедической обуви;Московская область,Москва,ул.Электрозаводская,46;"Обувные фабрики    (Легкая промышленность)";5968
37.71088;55.756336;Опытный завод;Московская область,Москва,ул.Красноказарменная,17Гс3;"Электромеханические заводы    (Машиностроение и металлообработка)";5640
37.62996;55.634181;Московский Подшипниковый Завод №7;Московская область,Москва,ул.Промышленная,11;"Машиностроение и металлообработка    (Подшипниковые заводы)";4486
37.72378;55.739792;Московская фабрика сеток;Московская область,Москва,ул.Авиамоторная,57с9;"Заводы пластмасс    (Химическая и нефтехимическая промышленность)";5477
37.626106;55.584578;БИРСС;Московская область,Москва,ул.Мелитопольская,11к2;"Цементные заводы    (Строительные и отделочные материалы)";4076
37.535502;55.845638;Московский Завод Торгового Оборудования;Московская область,Москва,2-й Лихачевский пер.,7;"Промышленное оборудование    (Производители торгового оборудования)";6448
37.698897;55.660262;Технопарк;Московская область,Москва,Курьяновский пр-д,15с54;"Стекольные заводы    (Строительные и отделочные материалы)";4737
37.607448;55.878571;Отрадное;Московская область,Москва,ул.Римского-Корсакова,15;"Мясоперерабатывающие заводы    (Пищевая и с/х промышленность)";6699
37.600316;55.810425;Молмаш;Московская область,Москва,проезд Добролюбова,8а;"Промышленное оборудование    (Производители пищевого оборудования)";6124
37.52439;56.0032;Мытищинский дервообрабатывающий комбинат (МДК);Московская область,д. Аббакумово;"Деревообрабатывающие комбинаты    (Лесная промышленность)";7841
37.427121;55.692957;Очаковский комбинат пищевых ингредиентов;Московская область,Москва,ул.Рябиновая,53;"Производители бакалеи    (Пищевая и с/х промышленность)";5046
37.701879;55.707319;Мосазервинзавод;Московская область,Москва,ул.Южнопортовая,30;"Пищевая и с/х промышленность    (Винные заводы)";5148
37.512335;55.829006;Пневмоаппарат;Московская область,Москва,ул.Клары Цеткин,33;"Механические заводы    (Машиностроение и металлообработка)";6282
37.756919;55.814826;Палитра;Московская область,Москва,ул.Тагильская,6с2;"Мебельные фабрики    (Лесная промышленность)";6135
37.602535;55.812251;Останкинский завод бараночных изделий;Московская область,Москва,Огородный проезд,11;"Пищевая и с/х промышленность    (Хлебокомбинаты)";6124
37.409487;55.833703;Московский Завод Композитных Материалов;Московская область,Москва,Походный проезд,4с2;"Производители композитных материалов и утеплителей    (Строительные и отделочные материалы)";6275
37.641324;55.885241;Пеко;Московская область,Москва,ул.Полярная,29;"Хлебокомбинаты    (Пищевая и с/х промышленность)";6783
37.713719;55.773084;Московская чайная фабрика;Московская область,Москва,ул.Боровая,3;"Пищевая и с/х промышленность    (Чайные фабрики)";5804
37.706191;55.789279;Мех-экспо;Московская область,Москва,ул.Электрозаводская,21с21;"Меховые фабрики    (Легкая промышленность)";5886
37.657485;55.700638;Московский завод сычужного фермента;Московская область,Москва,2-ой Кожуховский проезд,27с2;"Молочные заводы    (Пищевая и с/х промышленность)";5144
37.136318;55.622685;Первая Фабрика Ковки;Московская область,д. Ликино,1А;"Заводы металлоконструкций и металлоизделий    (Машиностроение и металлообработка)";4369
37.483508;55.625481;Оконный завод;Московская область,Москва,ул.Генерала Тюленева,4А;"Строительные и отделочные материалы    (Производители окон)";4394
37.525252;55.770978;Микаелло;Московская область,Москва,ул.5-ая Магистральная,6;"Кондитерские фабрики    (Пищевая и с/х промышленность)";5709
37.724759;55.743679;Московский завод электромеханической аппаратуры;Московская область,Москва,Авиамоторная ул.,55;"Приборостроительные заводы    (Машиностроение и металлообработка)";5477
37.631622;55.672016;Первая Фабрика Манекенов;Московская область,Москва,Каширское шоссе,3к2с9;"Заводы пластмасс    (Химическая и нефтехимическая промышленность)";4815
37.246487;55.511644;Veka;Московская область,д. Губцево,ул.Дорожная,10;"Строительные и отделочные материалы    (Производители окон)";3393
37.627616;55.880354;Мокон;Московская область,Москва,ул.Молодцова,16с1;"Заводы ЖБИ    (Строительные и отделочные материалы)";6782
37.559415;55.798854;Московский Комбинат Центрэнерготеплоизоляция;Московская область,Москва,ул.Мишина,57;"Производители композитных материалов и утеплителей    (Строительные и отделочные материалы)";5957
37.552786;55.891067;Первый Профильный Завод;Московская область,Москва,ул.Дубнинская,81Ас3;"Заводы пластмасс    (Химическая и нефтехимическая промышленность)";6859
37.895107;55.971068;Завод Ограждающих Конструкций;Московская область,Ивантеевка,ул.Ленина,44;"Заводы металлоконструкций и металлоизделий    (Машиностроение и металлообработка)";7621
37.805817;55.634391;КОНЭКС;Московская область,Москва,Капотня,3-й квартал,26;"Консервные заводы    (Пищевая и с/х промышленность)";4499
37.803757;55.795767;МЕГАФОКС;Московская область,Москва,Средняя Первомайская,3;"Меховые фабрики    (Легкая промышленность)";5975
37.556379;55.884711;Завод полипропиленовых изделий;Московская область,Москва,ул.Дубнинская,75;"Производители пленок и труб из полимерных материалов    (Химическая и нефтехимическая промышленность)";6777
37.778748;55.824415;Котлоочистка;Московская область,Москва,ул.Вербная,6;"Ремонтные заводы    (Машиностроение и металлообработка)";6219
37.854629;55.677763;МеТра;Московская область,Москва,ул.Привольная,70/1;"Мебельные фабрики    (Лесная промышленность)";4912
37.779745;55.464769;Бетон-24;Московская область, г. Домодедово, ул. Промышленная, д. 33а (промзона);"Заводы ЖБИ    (Строительные и отделочные материалы)";2939
37.661913;55.682651;Крановый завод 1974;Московская область,Москва,проспект Андропова,22;"Крановые заводы    (Машиностроение и металлообработка)";4981
37.497153;55.753564;Завод медицинской техники и товаров народного потребления (Завод МТ и ТНП);Московская область,Москва,ул.Новозаводская,18;"Медицинская промышленность    (Медицинские заводы)";5543
37.711608;55.789841;Завод Спецстанмаш;Московская область,Москва,ул.Суворовская,6с5;"Заводы металлоконструкций и металлоизделий    (Машиностроение и металлообработка)";5886
37.651071;55.750474;Красильно-отделочная фабрика;Московская область,Москва,Тессинский переулок,5;"Лакокрасочные заводы    (Химическая и нефтехимическая промышленность)";5554
37.597917;55.706518;Завод Станкоконструкция;Московская область,Москва,5-й Донской проезд,15с1;"Заводы металлоконструкций и металлоизделий    (Машиностроение и металлообработка)";5140
37.965265;55.6621;Кремлина;Московская область,пгт. Томилино,ул.Гаршина,11;"Кондитерские фабрики    (Пищевая и с/х промышленность)";4756
37.719926;55.759755;Корона;Московская область,Москва,проезд Энтузиастов,5;"Лесная промышленность    (Целлюлозно-бумажные комбинаты)";5641
37.595995;55.856442;Завод электронного оборудования;Московская область,Москва,ул.Хачатуряна,14Ас3;"Заводы радиоаппаратуры и радиодеталей    (Машиностроение и металлообработка)";6534
37.70682;55.649916;Круг;Московская область,Москва,ул.Подольская,18;"Кондитерские фабрики    (Пищевая и с/х промышленность)";4656
37.620743;55.586436;Завод Патриот;Московская область,Москва,ул.Никопольская,4с1;"Промышленное оборудование    (Производители холодильного оборудования)";4076
37.88845;55.681651;ЗаводЗаборов;Московская область,Люберцы,ул.Красная,1;"Заводы металлоконструкций и металлоизделий    (Машиностроение и металлообработка)";4915
37.402255;55.7344;Кунцево-Электро;Московская область,Москва,ул.Молодогвардейская,52;"Электромеханические заводы    (Машиностроение и металлообработка)";5372
37.678227;55.722259;Конвертор;Московская область,Москва,ул.Новоостаповская,13с58;"Энергетика и коммунальное хозяйство    (Заводы электрощитового оборудования)";5310
37.603181;55.791456;Истоминский ЖБК;Московская область,Москва,ул.Новосущёвская,19б;"Заводы ЖБИ    (Строительные и отделочные материалы)";5960
37.754035;55.73591;Завод Энергомаш;Московская область,Москва,ул.1-ая Карачаровская,8с1;"Машиностроение и металлообработка    (Заводы металлоконструкций и металлоизделий)";5397
37.769244;55.735677;Камот;Московская область,Москва,Кусковский туп.,1А;"Легкая промышленность    (Трикотажные фабрики)";5398
37.726754;55.717021;ЛейблПро;Московская область,Москва,ул.Грайвороновская,4;"Текстильные фабрики    (Легкая промышленность)";5231
37.740004;55.741556;Завод Туманит;Московская область,Москва,1-я Фрезерная улица,2/1с1;"Энергетика и коммунальное хозяйство    (Заводы электрощитового оборудования)";5478
37.745798;55.778072;Караваево;Московская область,Москва,1-я улица Измайловского зверинца,19Ас1;"Кондитерские фабрики    (Пищевая и с/х промышленность)";5807
37.541539;55.904892;Лианозовский Колбасный Завод;Московская область,Москва,Дмитровское шоссе,159;"Мясоперерабатывающие заводы    (Пищевая и с/х промышленность)";6940
37.703829;55.703297;Мехзавод ГПО;Московская область,Москва,ул.Южнопортовая,32с2;"Машиностроение и металлообработка    (Механические заводы)";5148
37.756084;55.726015;Кардинал;Московская область,Москва,Рязанский проспект,8А;"Текстильные фабрики    (Легкая промышленность)";5315
37.872065;55.784212;Бетонный завод Титан;г. Балашиха , шоссе Энтузиастов вл1 с2;"Заводы ЖБИ    (Строительные и отделочные материалы)";5898
37.71848;55.718486;Кермет;Московская область,Москва,Остаповский проезд,13;"Машиностроение и металлообработка    (Инструментальные заводы)";5313
37.63076;55.720443;Завод металлических конструкций и железобетонных изделий;Московская область,Москва,Партийный переулок,1/58;"Заводы ЖБИ    (Строительные и отделочные материалы)";5306
37.547656;55.88198;КерамикЪ;Московская область,Москва,Дмитровское шоссе,100с2;"Электромеханические заводы    (Машиностроение и металлообработка)";6777
37.767366;55.816318;М1;Московская область,Москва,ул.Монтажная,2Ас1;"Мебельные фабрики    (Лесная промышленность)";6136
37.54065;55.662242;Завод Спецпищемаш;Московская область,Москва,ул.Архитектора Власова,57;"Промышленное оборудование    (Производители емкостного оборудования)";4726
37.772217;55.751411;Завод металлических лестниц;Московская область,Москва,3-й пр-д Перова Поля,8с1;"Заводы металлоконструкций и металлоизделий    (Машиностроение и металлообработка)";5563
37.585206;55.671575;Киреевская паркетная фабрика;Московская область,Москва,Нахимовский проспект,24с1;"Деревообрабатывающие комбинаты    (Лесная промышленность)";4811
37.631254;55.655305;Карандашная фабрика Красина;Московская область,Москва,Каширский проезд,17с12;"Лесная промышленность    (Производители деревянных изделий)";4732
37.636617;55.658058;Завод металлической мебели;Московская область,Москва,Каширское шоссе,22к3с13;"Заводы металлоконструкций и металлоизделий    (Машиностроение и металлообработка)";4733
37.632089;55.592464;Клубничка;Московская область,Москва,ул.Подольских курсантов,26с1;"Кондитерские фабрики    (Пищевая и с/х промышленность)";4159
37.613934;55.669463;Манометр;Московская область,Москва,Криворожская улица,6Ас2;"Приборостроительные заводы    (Машиностроение и металлообработка)";4813
37.74852;55.753772;Завод Микрон;Московская область,Москва,ул.Электродная,2с7;"Приборостроительные заводы    (Машиностроение и металлообработка)";5561
37.63164;55.669194;БКК Коломенский;Московская область,Москва,Хлебозаводский проезд,7;"Кондитерские фабрики    (Пищевая и с/х промышленность)";4815
37.641405;55.586883;Масконти Лтд;Московская область,Москва,ул.Харьковская,1А;"Кондитерские фабрики    (Пищевая и с/х промышленность)";4077
37.692663;55.700562;Завод Мобильных Зданий и Сооружений;Московская область,Москва,2-й Южнопортовый проезд,26Ас1;"Заводы металлоконструкций и металлоизделий    (Машиностроение и металлообработка)";5147
37.58508;55.757333;Кондитерская Рената Агзамова;Московская область,Москва,Новинский бульвар,28/35с1А;"Кондитерские фабрики    (Пищевая и с/х промышленность)";5631
37.707584;55.664274;Мебельная фабрика №8;Московская область,Москва,ул.Шоссейная,90;"Мебельные фабрики    (Лесная промышленность)";4820
37.259189;55.664578;Бетонный завод РБУ Одинцово;Россия, Московская область, Одинцово, ул. Старое Яскино, 75а;"Заводы ЖБИ    (Строительные и отделочные материалы)";4788
37.571165;55.537256;Бутовский комбинат;Московская область,Москва,ул.2-Мелитопольская,4а;"Производители композитных материалов и утеплителей    (Строительные и отделочные материалы)";3580
37.681299;55.725706;Авто Февраль;Московская область,Москва,проспект Волгоградский,28А;"Автомобильные заводы    (Транспорт и спецтехника)";5310
37.732099;55.791865;Вегус;Московская область,Москва,ул.Мироновская,33/23;"Мясоперерабатывающие заводы    (Пищевая и с/х промышленность)";5970
37.773628;55.751447;Завод железобетонных изделий-3;Московская область,Москва,3-й Перова Поля пр-д,8;"Заводы ЖБИ    (Строительные и отделочные материалы)";5563
37.662785;55.692308;Академия моды;Московская область,Москва,пр.Андропова,18/5;"Швейные фабрики    (Легкая промышленность)";5063
37.717205;55.717939;Веконика;Московская область,Москва,Остаповский проезд,24/1;"Мебельные фабрики    (Лесная промышленность)";5231
37.27323;55.431948;Завод лестниц на металлическом каркасе;Московская область,с. Красная Пахра,ул.Заводская,28;"Заводы металлоконструкций и металлоизделий    (Машиностроение и металлообработка)";2657
37.63553;55.723531;АКБ ДИЗАЙН;Московская область,Москва,ул.Щипок,28;"Заводы металлоконструкций и металлоизделий    (Машиностроение и металлообработка)";5307
37.624705;55.660856;ВМФ;Московская область,Москва,Каширский проезд,5;"Мебельные фабрики    (Лесная промышленность)";4732
37.612892;55.673935;АЛДЕЗ;Московская область,Москва,Электролитный проезд,5Б;"Фармацевтические фабрики    (Медицинская промышленность)";4895
37.441224;55.823328;Аквакрат;Московская область,Москва,Волоколамское шоссе,88;"Электромеханические заводы    (Машиностроение и металлообработка)";6195
37.5501;55.427882;Двери-Кредо;Московская область,Подольск,ул.Комсомольская,1;"Строительные и отделочные материалы    (Производители дверей)";2595
37.572136;55.695865;АКРОН;Московская область,Москва,ул.Вавилова,25/1;"Электромеханические заводы    (Машиностроение и металлообработка)";5056
37.731048;55.676697;Восток дизайн;Московская область,Москва,Кузнечный тупик,1А;"Заводы металлоконструкций и металлоизделий    (Машиностроение и металлообработка)";4904
37.76345;55.754644;ГалВент;Московская область,Москва,шоссе Энтузиастов,56/47;"Промышленное оборудование    (Производители вентиляционного оборудования)";5644
37.771256;55.754709;Альфа Мебель;Московская область,Москва,2-й Перова Поля пр-д,5;"Мебельные фабрики    (Лесная промышленность)";5644
37.753676;55.811872;Восход-Метиз;Московская область,Москва,1-й Иртышский проезд,4/3;"Заводы металлоконструкций и металлоизделий    (Машиностроение и металлообработка)";6135
37.760036;55.750226;АВИАНОР;Московская область,Москва,ул.Плеханова,10;"Металлургия    (Метизные заводы)";5562
37.540587;55.85194;Завод АЛЮР;Московская область,Москва,Лихоборская набережная,18;"Производители композитных материалов и утеплителей    (Строительные и отделочные материалы)";6448
37.365146;55.944122;Гартлекс;Московская область,Москва,Ленинградское шоссе,300А/34;"Мебельные фабрики    (Лесная промышленность)";7338
37.604071;55.812879;АРЕНАСПОРТ. Московский завод металлоконструкций. Московский завод металлоконструкций;Московская область,Москва,Огородный проезд,8;"Прочие промышленные производства    (Производители спортивного оборудования)";6125
37.581343;55.888745;Армикон;Московская область,Москва,ул.Илимская,5/2;"Заводы металлоконструкций и металлоизделий    (Машиностроение и металлообработка)";6779
37.686383;55.728418;Да Винчи групп;Московская область,Москва,ул.Талалихина,41с5;"Мебельные фабрики    (Лесная промышленность)";5392
37.760036;55.750226;АВТ;Московская область,Москва,ул.Плеханова,10;"Строительные и отделочные материалы    (Производители кровельных материалов)";5562
37.519422;55.328924;Артёмовский завод по обработке цветных металлов;Московская область, пгт Львовский, пр.Металлургов, 8;"Заводы металлоконструкций и металлоизделий    (Машиностроение и металлообработка)";1691
37.709102;55.739341;Диамех 2000;Московская область,Москва,ул.Подъемная,14с5;"Приборостроительные заводы    (Машиностроение и металлообработка)";5476
37.736626;55.757886;ВОЗРОЖДЕНИЕ;Московская область,Москва,ул.Буракова,27;"Полезные ископаемые    (Гранитные карьеры)";5642
37.489392;55.82801;Tivoli;Московская область,Москва,Ленинградское шоссе,25;"Мебельные фабрики    (Лесная промышленность)";6280
37.445249;55.708663;Асфальтобетонный завод (АБЗ);Московская область,Мосва,ул.Генерала Дорохова,2А;"Асфальтовые заводы    (Строительные и отделочные материалы)";5129
37.685907;55.858534;Диваны77.РУ;Московская область,Москва,Ярославское шоссе,19/1;"Мебельные фабрики    (Лесная промышленность)";6540
37.713378;55.744961;Дикарт;Московская область,Москва,2-я кабельная,2/3;"Строительные и отделочные материалы    (Гипсовые заводы)";5476
37.665803;55.75168;TortoFF;Московская область,Москва,Костомаровский пер.,3с8;"Кондитерские фабрики    (Пищевая и с/х промышленность)";5555
37.542159;55.898447;АТЛАС-БЕТОН;Московская область,Мосrва,Дмитровское шоссе,157;"Заводы ЖБИ    (Строительные и отделочные материалы)";6940
37.574606;55.563203;Диель;Московская область,Москва,б-р Дмитрия Донского,17А;"Кондитерские фабрики    (Пищевая и с/х промышленность)";3826
37.743301;55.817795;TortoRosso;Московская область,Москва,Открытое шоссе,15;"Кондитерские фабрики    (Пищевая и с/х промышленность)";6216
37.542159;55.898447;Баллер;Московская область,Москва,Дмитровское ш.,157с1;"Заводы металлоконструкций и металлоизделий    (Машиностроение и металлообработка)";6940
37.623313;55.703144;Дятьковский теплоизоляционный завод;Московская область,Москва,Варшавское шоссе,1;"Производители композитных материалов и утеплителей    (Строительные и отделочные материалы)";5142
37.671184;55.752242;Unice;Московская область,Москва,Нижняя Сыромятническая,10/2;"Мебельные фабрики    (Лесная промышленность)";5555
37.568345;55.847786;Бетон Сервис;Московская область,Москва,Дмитровское ш.,54/1;"Заводы ЖБИ    (Строительные и отделочные материалы)";6450
37.418137;55.749881;Завод Бриджхем;Московская область,Москва,ул.Рублевское шоссе,36/2;"Лакокрасочные заводы    (Химическая и нефтехимическая промышленность)";5537
37.595555;55.647534;Wol`ff;Московская область,Москва,ул.Азовская,24/3;"Меховые фабрики    (Легкая промышленность)";4648
37.418694;55.82531;Бетонный завод № 222;Московская область,Москва,ул.Летная,98;"Заводы ЖБИ    (Строительные и отделочные материалы)";6193
37.776053;55.722421;Завод вентиляционных изделий РУСИЧ;Московская область,Москва,2-я Институтская улица,6с11;"Электромеханические заводы    (Машиностроение и металлообработка)";5317
37.533212;55.395292;Wood Land;Московская область,Подольск,ул.Кутузовская,3;"Мебельные фабрики    (Лесная промышленность)";2348
37.718669;55.674808;Бриск;Московская область,Москва,ул.Гурьянова,83/1;"Мебельные фабрики    (Лесная промышленность)";4903
37.642626;55.724824;Завод Водоприбор;Московская область,Москва,ул.Летниковская,10с4;"Приборостроительные заводы    (Машиностроение и металлообработка)";5307
37.82776;55.640665;KupeRu;Московская область,Дзержинский,ул.Энергетиков,18/2;"Мебельные фабрики    (Лесная промышленность)";4582
37.646256;55.810789;Fine Jewellery;Московская область,Москва,ул.Староалексеевская,7;"Ювелирные заводы    (Прочие промышленные производства)";6128
37.430893;55.729138;Spacefabrics;Московская область,Москва,Коцюбинского,4/3;"Легкая промышленность    (Производители пряжи, тканей, ниток)";5374
37.253045;55.980649;Фабрика головных уборов Niki;Московская область,Зеленоград,Сосновая аллея,10/1;"Текстильные фабрики    (Легкая промышленность)";7658
37.382717;55.863358;HEMIS;Московская область,д. Путилково,23;"Мебельные фабрики    (Лесная промышленность)";6601
37.583356;55.670889;Altado;Московская область,Москва,Нахимовский проспект,24;"Строительные и отделочные материалы    (Производители дверей)";4811
37.19452;56.007765;Азбука шоколада;Московская область,Зеленоград,2-й Западный проезд,1;"Кондитерские фабрики    (Пищевая и с/х промышленность)";7899
37.613063;55.716859;ILikeDesign;Московская область,Москва,ул.Шухова,14;"Мебельные фабрики    (Лесная промышленность)";5223
37.808509;55.662654;Ellada Porte;Московская область,Москва,ул.Чагинская,4;"Строительные и отделочные материалы    (Производители дверей)";4745
37.198275;55.971335;Антураж;Московская область,Зеленоград,ул.Заводская,21А/3;"Мебельные фабрики    (Лесная промышленность)";7572
37.743112;55.818523;Iris Delicia;Московская область,Москва,Открытое шоссе,15/16;"Кондитерские фабрики    (Пищевая и с/х промышленность)";6216
37.197529;55.968176;Зеленоградский завод вентиляционного оборудования (ЗЗВО);Московская область,Зеленоград,ул.Заводская,25/1;"Промышленное оборудование    (Производители вентиляционного оборудования)";7490
37.201221;56.01315;Завод электронной техники (ЗЭТ);Московская область,Зеленоград,Панфиловский проспект,10/1;"Приборостроительные заводы    (Машиностроение и металлообработка)";7900
37.773259;55.811255;JSK;Московская область,Москва,Амурская,96;"Швейные фабрики    (Легкая промышленность)";6137
37.617941;55.682803;LIFT-OFF;Московская область,Москва,Варшавское шоссе,28А;"Промышленное оборудование    (Производители подъемно-транспортного оборудования)";4978
37.159387;55.996777;Производство асфальтобетонных смесей Маренго;Московская область,Зеленоград,ул.Алабушевская,8/1;"Асфальтовые заводы    (Строительные и отделочные материалы)";7733
37.781335;55.814871;Lola`s Cake;Московская область,Москва,ул.Бирюсинка,7/5;"Кондитерские фабрики    (Пищевая и с/х промышленность)";6137
37.592581;55.796198;boraboru;Московская область,Москва,Сущевский Вал,5/12;"Прочие промышленные производства    (Производители спортивного оборудования)";5960
37.780302;55.678961;Maratti;Московская область,Москва,Тихорецкий б-р,1;"Обувные фабрики    (Легкая промышленность)";4907
37.198436;55.967537;Статус;Московская область,Зеленоград,ул.Заводская,25;"Строительные и отделочные материалы    (Производители дверей)";7490
37.205731;55.982346;Протон;Московская область,Зеленоград,пл.Шокина,1/6;"Электромеханические заводы    (Машиностроение и металлообработка)";7654
37.71009;55.788555;OrthoSleep;Московская область,Москва,ул.Суворовская,2/1;"Мебельные фабрики    (Лесная промышленность)";5886
37.427121;55.692957;Confelle;Московская область,Москва,ул.Рябиновая,53;"Легкая промышленность    (Производители матрасов)";5046
37.217247;55.991032;Сокол-Т;Московская область,Зеленоград,Савёлкинский проезд,4;"Мебельные фабрики    (Лесная промышленность)";7737
36.986263;55.525914;Бетонный завод РБУ Апрелевка;Россия, Московская область, Селятино, ул. Профессиональная, д.4;"Заводы ЖБИ    (Строительные и отделочные материалы)";3457
37.183093;55.97542;Финнко-Мебель;Московская область,Зеленоград,ул.Заводская,18/1;"Мебельные фабрики    (Лесная промышленность)";7571
37.547656;55.88198;Rooman;Московская область,Москва,ул.Дмитровское шоссе,100с2;"Обувные фабрики    (Легкая промышленность)";6777
37.183093;55.97542;Эдельвейс;Московская область,Зеленоград,ул.Заводская,18/1;"Мебельные фабрики    (Лесная промышленность)";7571
37.640138;55.703814;SappFire;Московская область,Москва,ул.Автозаводская,23/7;"Электромеханические заводы    (Машиностроение и металлообработка)";5143
37.194008;55.971053;Зеленоградская мебельная фабрика;Московская область,Зеленоград,ул.Заводская,21А;"Мебельные фабрики    (Лесная промышленность)";7571
37.529358;55.901041;Selfmade Brewery;Московская область,Москва,ул.Вагоноремонтная,10;"Пивоваренные заводы    (Пищевая и с/х промышленность)";6939
37.772801;55.808543;106 экспериментальный оптико-механический завод;Московская область,Москва,Щелковское шоссе,23;"Электромеханические заводы    (Машиностроение и металлообработка)";6137
37.701349;55.7238;SewLab;Московская область,Москва,ул.Остаповский проезд,3/5;"Швейные фабрики    (Легкая промышленность)";5311
37.61786;55.741009;Alitte;Московская область,Москва,ул.Полянка Б.,7/10;"Текстильные фабрики    (Легкая промышленность)";5470
37.531954;55.766131;Swiss Trafo;Московская область,Москва,1-й Магистральный туп.,5а;"Трансформаторные заводы    (Машиностроение и металлообработка)";5709
37.485421;55.786085;Dolston;Московская область,Москва,ул.Народного Ополчения,34/3;"Кирпичные заводы    (Строительные и отделочные материалы)";5870
37.606191;55.588857;Poly Group;Московская область,Москва,ул.Варшавское шоссе,141/80;"Химическая и нефтехимическая промышленность    (Производители пленок и труб из полимерных материалов)";4075
37.442859;55.901066;Бетонный завод Монолит-Химки;г. Химки, ул. Заводская д.3, Московская область;"Заводы ЖБИ    (Строительные и отделочные материалы)";6933
37.850254;55.635869;BERGER Group;г. Дзержинский, ул. Угрешская, д. 15а, оф. 511;"Машиностроение и металлообработка    (Заводы металлоконструкций и металлоизделий)";4502
37.291646;55.949561;БетонХимкиСтрой;Московская обл.,г.Химки, мкр.Сходня, ул.Вишневая, д.14., оф.187;"Заводы ЖБИ    (Строительные и отделочные материалы)";7332
37.763117;55.929929;Мытищинский бетонный завод;987654, г. Мытищи, 4537-й проезд, 5;"Заводы ЖБИ    (Строительные и отделочные материалы)";7202
37.707781;55.781388;Меховая фабрика Бари;Россия, 105023, город Москва, улица Большая Семеновская, дом 32, строение 3;"Меховые фабрики    (Легкая промышленность)";5886
37.952725;55.819095;Балашихинский деревообрабатывающий завод БДОЗ;143909, Россия, Московская область, г. Балашиха, ул. Советская, 35;"Деревообрабатывающие комбинаты    (Лесная промышленность)";6231
37.334855;55.809535;Машиностроительный завод Бецема;143 405, Россия, Московская область, г. Красногорск, Ильинское ш., дом 15A.;"Транспорт и спецтехника    (Производители спецтехники)";6105
37.873763;55.653299;Тепличный Комбинат;140054, Московская область, Люберецкий район, г. Котельники, ул. Малая Колхозная, д.1а.;"Пищевая и с/х промышленность    (Цветоводческие хозяйства)";4668
37.625936;55.66929;Фабрика отделочных материалов TRIMIC;115230, Москва, Варшавское шоссе д. 65, корп.1.;"Заводы ЖБИ    (Строительные и отделочные материалы)";4814
37.453567;55.830498;Обувная фабрика Каприз-ТМ Каприз-ТМ;125362, Россия, Московская область, г. Москва, ул. Свободы, 12/8;"Обувные фабрики    (Легкая промышленность)";6278
37.5501;55.427882;ARS luxury interiors factory;Россия, Московская область, Подольск, Комсомольская улица, 1;"Мебельные фабрики    (Лесная промышленность)";2595
37.438421;55.902485;Химкинская фабрика стекла и зеркал;г.Химки, ул.Заводская д.15;"Стекольные заводы    (Строительные и отделочные материалы)";6933
37.760575;55.933691;АБЗ ОЛИМП;141006, Московская область, г. Мытищи, ул. Олимпийский проспект, д. 52А;"Заводы ЖБИ    (Строительные и отделочные материалы)";7202
37.183345;55.849605;Нахабинская трикотажная фабрика;Московская обл., Красногорский р-н, пгт Нахабино, ул. Красноармейская, д. 1а;"Легкая промышленность    (Трикотажные фабрики)";6423
37.837857;55.949637;Передовая текстильщица;Россия, 141068, Московская область, город Королев, ул. Фабричная (Текстильщик мкр.), д.10;"Текстильные фабрики    (Легкая промышленность)";7371
37.662731;55.761695;Мебельная фабрика Амадей;105064, Россия, Московская область, г. Москва, Сусальный Нижний переулок, 4, стр. 3;"Мебельные фабрики    (Лесная промышленность)";5637
37.066995;55.553625;Фабрика авторской мебели Апрели;Московская область, Наро-Фоминский район, г. Апрелевка, ул. Парковая, д.1, стр.17.;"Мебельные фабрики    (Лесная промышленность)";3708
37.067291;55.555026;Апрелевский Завод Теплоизделий;143360 г. Апрелевка, ул. Парковая, д. 1;"Производители композитных материалов и утеплителей    (Строительные и отделочные материалы)";3708
37.539626;55.650145;Московский станкостроительный завод им. А. И. Ефремова Красный пролетарий;Москва, ул.Бутлерова 17;"Станкостроительные заводы    (Промышленное оборудование)";4644
37.069834;55.547545;Апрелевский завод рентгенотехники;143360, г. Апрелевка, Московская обл., ул. Ленина, д. 4.;"Медицинские заводы    (Медицинская промышленность)";3709
37.714644;55.810375;Меховая фабрика LADY FOX;Москва, 4-я Гражданская ул., д.33 корп.1;"Меховые фабрики    (Легкая промышленность)";6132
37.781605;55.920179;Мытищинская фабрика стекла и зеркал;г.Мытищи, ул.Академика Каргина д.35;"Стекольные заводы    (Строительные и отделочные материалы)";7121
37.855141;55.760515;Завод огнезащитных материалов Химпарк НОРД;г. Реутов, 143960;"Химические заводы    (Химическая и нефтехимическая промышленность)";5650
37.773304;55.542492;Завод Сикмо;Московская область, Ленинский район, пгт. Горки Ленинские, 30 км Каширского шоссе, квартал \u0022Пронино\u0022 владение 1, с.1;"Химические заводы    (Химическая и нефтехимическая промышленность)";3677
37.778281;55.814578;ООО Фабрика шоколадных масс;107497, г. Москва, ул. Бирюсинка 6, кор. 1;"Пищевая и с/х промышленность    (Кондитерские фабрики)";6137
37.95736;55.808705;ДРИМЛАЙН;Московская область, Балашиха, улица Текстильщиков, д. 16;"Мебельные фабрики    (Лесная промышленность)";6150
37.51026;55.741206;Тульский завод грузоподъемных механизмов;г. Москва, ул. Промышленный проезд, дом 5;"Механические заводы    (Машиностроение и металлообработка)";5462
37.503361;55.885585;Московский завод металлоконструкций;г. Москва, Ижорская ул., дом 5,стр. 1, этаж 3, пом. 1;"Заводы металлоконструкций и металлоизделий    (Машиностроение и металлообработка)";6773
37.736932;55.453544;МОСКОВСКИЙ ЗЕРКАЛЬНО СТЕКОЛЬНЫЙ ЗАВОД № 1;Московская область, Домодедово, Энергетиков, 12;"Стекольные заводы    (Строительные и отделочные материалы)";2854
37.560996;55.374058;Завод Специальной Промышленной Арматуры ЗСПА;Московская область, Климовск, Бережковский проезд, дом 4.;"Арматурные заводы    (Машиностроение и металлообработка)";2103
37.944793;55.833294;Балашихинский опытный химический завод;143900,Россия, Московская область, городской округ Балашиха, ул. Звездная, дом 17;"Химические заводы    (Химическая и нефтехимическая промышленность)";6313
37.832656;55.960694;Фабрика тиснения;Московская область, Пушкинский городской округ, с. Тарасовка, ул. Б. Тарасовская, 39 а;"Заводы металлоконструкций и металлоизделий    (Машиностроение и металлообработка)";7453
37.52775;55.513183;99 завод авиационного технологического оборудования;108852, г. Москва, г. Щербинка, ул. Дорожная, д. 5;"Авиационные заводы    (Транспорт и спецтехника)";3413
37.233165;55.672727;4 Сезона;143002, Россия, МО, г. Одинцово, ул. Западная 22 стр. 3;"Пищевая и с/х промышленность    (Хладокомбинаты)";4786
37.25459;55.664365;Одинцовский завод композитных материалов;Железнодорожная ул., 3А, Одинцово, Московская обл., 143006;"Производители композитных материалов и утеплителей    (Строительные и отделочные материалы)";4788
37.852706;55.9929;Завод бетона СтройГрадБетон;Россия, Московская область, Пушкино, Кудринское шоссе, 6;"Заводы ЖБИ    (Строительные и отделочные материалы)";7782
37.767726;55.449618;342 Механический завод;142000, Московская область, г.Домодедово, ул.Промышленная, д.11;"Механические заводы    (Машиностроение и металлообработка)";2856
37.436210343059;55.75185685436;Первый Комбинат Детского Питания;Крылатская, 2, строение 2, Москва, Россия, 121552;"Пищевая и с/х промышленность    (Производители детского питания)";5539
37.116807;55.860241;Завод теплиц РОСТЕПЛИЦА;Дедовск, ул. Гагарина, д. 18;"Заводы металлоконструкций и металлоизделий    (Машиностроение и металлообработка)";6500
37.384566792796;55.627919568469;Уральские Электрические Трансформаторные Машины;Россия, Москва, Киевское шоссе, 22-й километр, дв4с1кА;"Машиностроение и металлообработка    (Трансформаторные заводы)";4387
37.577637647289;55.486066252652;Аквабрайт;Россия, Московская область, Подольск, Вишнёвая улица, 11В;"Прочие промышленные производства    (Другие производители)";3171
37.946888112895;55.923052012459;ТПК \u0022Вилон\u0022;141102, Россия, Московская область, Щелковский район, г. Щелково, ул. Поварская, вл. 1.;"Пищевая и с/х промышленность    (Хладокомбинаты)";7133
37.780359935649;55.679157414708;Маитино.РФ;город Москва, Тихорецкий бульвар, 1;"Легкая промышленность    (Обувные фабрики)";4907
37.422036477977;55.900881601166;ТД \u0022Вип Сервис\u0022;г.Химки , ул. Репина 2/27;"Химическая и нефтехимическая промышленность    (Заводы пластмасс)";6932
37.687469604961;55.724145623417;Теплица-рус;г. Москва, Волгоградский проспект, дом 32 строение 21;"Химическая и нефтехимическая промышленность    (Производители пленок и труб из полимерных материалов)";5311
37.736346604961;55.686100482306;Авенкар;Москва, ул. Люблинская, д.40, офис 209, 2й этаж;"Лесная промышленность    (Мебельные фабрики)";4986
37.843222830025;55.701279928798;Двери металл-М;109145, Москва, ул. Пронская, д. 6к2;"Машиностроение и металлообработка    (Заводы металлоконструкций и металлоизделий)";5158
37.806560689617;55.829196648229;ШИК;107065, г. Москва, ул. Курганская 3А строение 1;"Машиностроение и металлообработка    (Заводы металлоконструкций и металлоизделий)";6303
37.708263731944;55.710282043597;Завод ГорЦемМаш;Москва, Волгоградский пр., д. 42, корп.23;"Промышленное оборудование    (Станкостроительные заводы)";5230
37.506151282207;55.774893231621;БВБ-Альянс-Москва;пр-т Маршала Жукова 1, к.1 оф 428;"Металлургия    (Металлургические заводы)";5790
37.069444208671;55.552997233724;Завод агрегатов;РФ, МО, Наро-Фоминский р-н, г.Апрелевка, ул.Парковая 1 с.14;"Машиностроение и металлообработка    (Агрегатные заводы)";3708
37.87792703128;55.62288311591;Угрешский завод трубопроводной арматуры;Московская область, г. Дзержинский, ул. Лесная, 34;"Промышленное оборудование    (Производители теплообменного оборудования)";4422
37.900741584656;55.671971820465;Российский завод трубопроводной арматуры;Московская область, г. Люберцы, ул. Котельническая д. 8а;"Металлургия    (Трубные заводы)";4834
37.629909779762;55.720149800783;Giotto;г. Москва, Партийный переулок, дом 1, корпус 58, строение 2;"Легкая промышленность    (Обувные фабрики)";5306
37.724282788361;55.707771424368;Медплант;г. Москва, Волгоградский пр-кт, д.42, корп.5, эт. 2, пом. I, ком. 296-318;"Медицинская промышленность    (Медицинские заводы)";5149
37.572966619049;55.457293239767;Опытный завод резино-технических изделий;г. Подольск, ул. Плещеевская, д. 15А;"Химическая и нефтехимическая промышленность    (Заводы АТИ)";2924
37.625026771164;55.676134449916;ТИРЭН;115230, г.Москва Варшавское шоссе, д.42;"Энергетика и коммунальное хозяйство    (Энергетические компании)";4896
37.4340645;55.55816746411;А СКЛАД;Калужское шоссе 114;"Машиностроение и металлообработка    (Заводы металлоконструкций и металлоизделий)";3816
37.5967;55.7514;Научно-производственная корпорация «Объединенная Вагонная Компания» (НПК ОВК);119002, г. Москва, ул. Арбат, д. 10;"Транспорт и спецтехника    (Вагоностроительные заводы)";5550
37.4065;55.8944;Компонента Сервис;141407, Россия, Московская область, г. Химки, Нагорное шоссе, стр. 2;"Промышленное оборудование    (Производители гидравлического оборудования)";6848
37.81;55.9487;Деметра;141220, Россия, Московская область, Пушкинский р-н, пос. Челюскинский, ул. Б. Тарасовская, 108;"Промышленное оборудование    (Производители пищевого оборудования)";7369
37.5929;55.7625;НПО Серпуховский механический завод;123001, г. Москва, Большой Патриарший пер., д.8, стр.2, к.208;"Механические заводы    (Машиностроение и металлообработка)";5632
37.7297;55.9787;Мытищинский деревообрабатывающий завод (МДОЗ);141033, Россия, Московская область, пос. Пирогово, ул. Труда, 2;"Лесная промышленность    (Производители топливных брикетов)";7610
37.1034;55.8813;Мебельная фабрика Асгард;143532, Московская область, Истринский район, город Дедовск, Изумрудная улица, дом 1а;"Мебельные фабрики    (Лесная промышленность)";6745
37.8892;55.6469;Люберецкий горно-обогатительный комбинат (ЛГОК);140054, Россия, Московская область, Люберецкий район, Котельники, ул. Карьерная, 13;"Полезные ископаемые    (Гравийные карьеры)";4669
37.832;56.0105;Мебельная фабрика Коралл;141200, Россия, Московская область, г. Пушкино, ул. Льва Толстого, 14;"Мебельные фабрики    (Лесная промышленность)";7945
37.872;55.5628;МетМебельГрупп (ММГ);142714, Россия, Московская область, п. Молоково, ул. Школьная, 179;"Мебельные фабрики    (Лесная промышленность)";3848
37.5501;55.4279;Подольский завод металлоизделий «Промкомплектрезерв» (ПКР);142100, Россия, Московская область, г. Подольск, ул. Комсомольская, 1;"Метизные заводы    (Металлургия)";2595
37.1859;55.8596;Мебельная фабрика ДАНА (DANA);143430, Россия, Московская область, Красногорский район, п. Нахабино, ул. Володарского, 1-А;"Мебельные фабрики    (Лесная промышленность)";6505
37.5548;55.4202;Подольский трансформаторный завод (Трансформер);142100, Россия, Московская область, г. Подольск, ул. Б.Серпуховская, 43, корп. 101, помещ. N1;"Трансформаторные заводы    (Машиностроение и металлообработка)";2513
37.9288;55.6746;Люберецкий электромеханический завод (ЛЭМЗ);140004, Россия, Московская область, г. Люберцы, ул. Транспортная, 6;"Промышленное оборудование    (Производители горно-шахтного оборудования)";4918
37.7711;55.9295;Премьер Лазер;141013, Россия, Московская область, г. Мытищи, 1-й Силикатный переулок, 12Б/1;"Машиностроение и металлообработка    (Заводы металлоконструкций и металлоизделий)";7202
37.925746491623;55.583187845746;Мануфактура;140081, Россия, Московская область, г. Лыткарино, Парковая улица, 13;"Химическая и нефтехимическая промышленность    (Заводы РТИ)";4097
37.2483;55.6772;Магна;143005, Россия, Московская область, г. Одинцово, ул. Садовая, 28, пом. 6;"Швейные фабрики    (Легкая промышленность)";4869
37.891113290863;55.66941212733;Люберецкий завод Монтажавтоматика;140000, Россия, Московская область, г. Люберцы, ул. Котельническая, 22;"Машиностроение и металлообработка    (Трансформаторные заводы)";4833
37.2743;55.6578;Одинцовская мебельная фабрика (ОМФ);143000, Россия, Московская область, г. Одинцово, ул. Берёзовая, 2;"Мебельные фабрики    (Лесная промышленность)";4707
37.7777;55.5262;Конструкторское бюро «КБ-71»;142712, Московская область, Ленинский район, п. Горки Ленинские, ул. Промзона Технопарк улица Восточная, владение 5;"Светотехнические заводы    (Машиностроение и металлообработка)";3513
37.5697;55.4377;Подольский завод строительных материалов (ПЗСМ);142116, Россия, Московская область, г. Подольск, Ремонтный проезд, 6;"Химическая и нефтехимическая промышленность    (Лакокрасочные заводы)";2678
37.014;55.6309;Одинцовская шоколадная фабрика (А. Коркунов);143040, Россия, Московская область, Одинцовский район, Малые Вяземы, 20;"Кондитерские фабрики    (Пищевая и с/х промышленность)";4443
37.9499;55.6631;Московское производственное объединение по выпуску алмазного инструмента (МПО по ВАИ);140072, Россия, Московская область, Люберецкий район, пгт. Томилино;"Абразивные заводы    (Машиностроение и металлообработка)";4755
37.7486;55.9138;ГК Объединенные Металлозаводы (ОМЕЗА);141002, Россия, Московская область, г. Мытищи, ул. Колпакова, 2, стр. 13;"Заводы металлоконструкций и металлоизделий    (Машиностроение и металлообработка)";7037
37.7922;55.9064;МЕГА-Сталь;141067, Россия, Московская область, г. Мытищи, Ярославский проезд, вл. 5;"Трубные заводы    (Металлургия)";6958
37.560556082572;55.473196870958;Кондитерская фабрика Би-энд-Би (B\u0026B);142111, Россия, Московская область, г. Подольск, Рязановское шоссе, 1;"Пищевая и с/х промышленность    (Кондитерские фабрики)";3005
37.7705;55.9106;Трикотажная фабрика «Знамя труда»;141009, Россия, Московская область, г. Мытищи, 1-й проезд Карла Маркса, 3;"Трикотажные фабрики    (Легкая промышленность)";7038
37.5748;55.4704;Кондитерская фабрика К-Артель;142111, Россия, Московская область, г. Подольск, Художественный проезд, 2;"Кондитерские фабрики    (Пищевая и с/х промышленность)";3006
37.7577;55.9412;Химстаб;141002, Россия, Московская область, г. Мытищи, Проектируемый проезд 4529, владение 5, строение 1;"Химические заводы    (Химическая и нефтехимическая промышленность)";7284
37.5729;55.4694;Мясоперерабатывающий завод Ремит;142111, Россия, Московская область, г. Подольск, Художественный проезд, 2;"Мясоперерабатывающие заводы    (Пищевая и с/х промышленность)";3006
37.6448;55.7167;Ювелирный завод Титан;141006, Россия, Московская область, г. Мытищи, Олимпийский проспект, 38;"Ювелирные заводы    (Прочие промышленные производства)";5225
37.5779;55.4083;Подольская мебельная фабрика (Подольск);142111, Россия, Московская область, г. Подольск, ул. Машиностроителей, 11-А;"Мебельные фабрики    (Лесная промышленность)";2433
37.9233;55.5836;Астрон;140080, Россия, Московская область, г. Лыткарино, ул. Парковая, 1;"Прочие промышленные производства    (Производители оптики)";4097
37.9233;55.5836;Лыткаринский завод оптического стекла (ЛЗОС);140080, Россия, Московская область, г. Лыткарино, ул. Парковая, 1;"Прочие промышленные производства    (Производители оптики)";4097
37.3316;55.8319;ХК Спецтехноткань;143401, Россия, Московская область, г. Красногорск, ул. Речная, 8;"Легкая промышленность    (Производители нетканых материалов)";6269
37.9233;55.5836;АИЗ;140080, Россия, Московская область, г. Лыткарино, ул. Парковая, 1;"Энергетика и коммунальное хозяйство    (Заводы электрощитового оборудования)";4097
37.9275;55.9588;Совокрим;141282, Россия, Московская область, г. Ивантеевка, ул. Толмачева, 82;"Промышленное оборудование    (Производители пищевого оборудования)";7460
37.5016;55.9302;Джениуспарк;141700, Россия, Московская область, г. Долгопрудный, ул. Лётная, 1;"Мебельные фабрики    (Лесная промышленность)";7183
37.4976;55.9197;Научно-производственное объединение «Курс»;141700, Россия, Московская область, г. Долгопрудный, Лихачевский пр-д, 26;"Насосные заводы    (Машиностроение и металлообработка)";7101
37.925;55.9709;Фабрика мягкой мебели Авангард;141281, Московская обл., г. Ивантеевка, ул. Заречная, д. 1, территория ООО «ИВНИТЬ»;"Мебельные фабрики    (Лесная промышленность)";7623
37.7238;55.9735;Фабрика мягкой мебели Алина;141033, Россия, Московская область, Мытищинский район, д. Пирогово, ул. Совхозная, 2а;"Мебельные фабрики    (Лесная промышленность)";7609
37.8635;55.9381;Фабрика мягкой мебели Аллегро-Классика;141090, Россия, Московская область, г. Королев, пос. Болшево, ул. Московская, 1;"Мебельные фабрики    (Лесная промышленность)";7291
37.1841;56.0117;Кондитерская фабрика Богатырь;124460, Москва,Зеленоград,ул. Конструктора Гуськова, д. 8, стр. 10;"Пищевая и с/х промышленность    (Кондитерские фабрики)";7899
37.3291;55.809;Дедовская обувная фабрика (ДЕФО);143530, Московская область, г. Красногорск, ул. Строительная, д. 6,стр. 3;"Обувные фабрики    (Легкая промышленность)";6105
37.9278;55.9837;Ивантеевский асфальтобетонный завод АБЗ ЛИНТ (АБЗ ЛИНТ);141282, Россия, Московская область, г. Ивантеевка, Санаторный проезд, 4;"Асфальтовые заводы    (Строительные и отделочные материалы)";7706
37.9149;55.9743;ОКБ «Гамма»;141280, Россия, Московская область, г. Ивантеевка, проезд Фабричный, 1;"Кабельные заводы    (Машиностроение и металлообработка)";7623
37.8359;55.6244;Федеральный центр двойных технологий «Союз»;140090, Россия, Московская область, г. Дзержинский, ул. Академика Жукова, 42;"Химические заводы    (Химическая и нефтехимическая промышленность)";4419
37.5082;55.3458;Предприятие народных художественных промыслов Климо;Россия, 142180 Московская область, г. Подольск, микрорайон Климовск, Фабричный проезд, д. 2.;"Легкая промышленность    (Предприятия художественных промыслов)";1854
37.744;55.8172;Обувная фабрика Ralf Ringer (Ральф Рингер);107023, Россия, г. Москва, Открытое шоссе, 18 с1;"Обувные фабрики    (Легкая промышленность)";6217
37.0606;55.5387;Спортивно-экипировочное предприятие Луч (СЭП ЛУЧ);143362, Россия, Московская область, г. Апрелевка, ул. Школьная, 1;"Швейные фабрики    (Легкая промышленность)";3626
37.6239;55.6796;Фабрика торговой мебели Vica (Вика);115230, Россия, г. Москва, Варшавское шоссе, 36 (3-й этаж);"Промышленное оборудование    (Производители торгового оборудования)";4896
37.7466;55.82;Преображенский молочный комбинат (ПМК);107370, Россия, г. Москва, Открытое шоссе, 15, стр. 8;"Молочные заводы    (Пищевая и с/х промышленность)";6217
37.9523;55.8281;АкзоНобель;143900, Россия, Московская область, г. Балашиха, проезд Покровский, 9;"Лакокрасочные заводы    (Химическая и нефтехимическая промышленность)";6313
37.2131;55.9841;Научно-исследовательский институт технологии и автоматизации производства (НИИТАП);124460, Россия, г. Москва, Зеленоград, пр-кт Георгиевский, 5;"Машиностроение и металлообработка    (Производители микроэлектроники)";7655
37.6983;55.7303;Пьезус (PIEZUS);109029, г. Москва, пр-д Автомобильный, д. 4;"Приборостроительные заводы    (Машиностроение и металлообработка)";5393
37.716;55.6567;Атлант-кран;Москва, ул. Перерва, дом 1, строение 1;"Крановые заводы    (Машиностроение и металлообработка)";4739
37.2158;55.9846;Научно-исследовательский институт материаловедения им. А.Ю. Малинина (НИИ МВ);124498, Россия, г. Москва, Зеленоград, пр-кт Георгиевский, 5, стр. 2;"Машиностроение и металлообработка    (Производители микроэлектроники)";7655
37.6819;55.7384;Меховая фабрика MaryBelle;127055, Россия, Москва,ул. Нижегородская, дом 9г;"Меховые фабрики    (Легкая промышленность)";5474
37.3893;55.7241;Рублевский мясоперерабатывающий завод (Рублевский);121596, Россия, г. Москва, ул. Горбунова, 4, стр. 4;"Мясоперерабатывающие заводы    (Пищевая и с/х промышленность)";5289
37.7596;55.563;КабельЭлектроСвязь;142700, Россия, Московская область, Ленинский район, г. Видное, территория Северная Промзона;"Кабельные заводы    (Машиностроение и металлообработка)";3840
37.5678;55.6792;Московский завод навесного оборудования (МЗНО);117218, Россия, г. Москва, ул. Кржижановского, 14 корп.2;"Промышленное оборудование    (Производители навесного оборудования)";4892
37.4565;55.6795;Миалт;119361 г. Москва, ул. Озёрная, д 42, эт.3, ком.16, вн.3095;"Швейные фабрики    (Легкая промышленность)";4884
37.6921;55.7885;Сокольнический вагоноремонтно-строительный завод (СВАРЗ);107014, Россия, г. Москва, ул. Матросская тишина, 15/17;"Транспорт и спецтехника    (Вагоноремонтные заводы)";5885
37.2172;55.991;Авентин;г. Зеленоград, Савелкинский проезд, дом 4;"Пищевая и с/х промышленность    (Мясоперерабатывающие заводы)";7737
37.6965;55.7484;Многопрофильный завод европолимеров (МЗЕП);111024, Россия, г. Москва, ш. Энтузиастов, 5, стр. 3;"Заводы РТИ    (Химическая и нефтехимическая промышленность)";5557
37.1974;56.0089;Специализированное конструкторское бюро радиоэлектронной аппаратуры «Радэл»;124460, Россия, г. Москва, пр-кт Генерала Алексеева, 2;"Машиностроение и металлообработка    (Заводы радиоаппаратуры и радиодеталей)";7900
37.6747;55.7679;Московска обувная фабрика (Заря свободы);105005, Россия, г. Москва, Аптекарский переулок, 4;"Обувные фабрики    (Легкая промышленность)";5720
37.7048;55.6617;Трест «ЖБИ»;109383, г. Москва, Батюнинский проезд, д. 11, стр. 1;"Заводы ЖБИ    (Строительные и отделочные материалы)";4738
37.647;55.7279;Московская экспериментальная трикотажная фабрика (МЭТФ);115114, Россия, г. Москва, ул. Кожевническая, 16;"Трикотажные фабрики    (Легкая промышленность)";5390
37.6334;55.8889;Тритон Пластик;127282, Россия, г. Москва, Чермянский проезд, 7, 3 подъезд;"Заводы пластмасс    (Химическая и нефтехимическая промышленность)";6783
37.6073;55.8028;Московский лакокрасочный завод (Оливеста);127521, Россия, г. Москва, Анненский проезд, 1;"Лакокрасочные заводы    (Химическая и нефтехимическая промышленность)";6043
37.2172;55.991;Фабрика мебели Маркел-М;г. Москва, г. Зеленоград, Савёлкинский пр-д, д. 4;"Лесная промышленность    (Мебельные фабрики)";7737
37.6527;55.8062;Московский опытный светотехнический завод ТелеМеханики (МОСЗ ТМ);129626, Москва, 1-й Рижский пер., д.6. стр.2;"Светотехнические заводы    (Машиностроение и металлообработка)";6046
37.6418;55.6248;Химэкси;Москва, Кавказский бульвар, д.51 с.26;"Химические заводы    (Химическая и нефтехимическая промышленность)";4405
37.4892;55.8699;Стальтекс;125475 г. Москва, ул. Петрозаводская д.28, корпус 4;"Заводы металлоконструкций и металлоизделий    (Машиностроение и металлообработка)";6608
37.5039;55.7407;Московский трубный завод «Филит»;121087, Россия, г. Москва, ул. Барклая, 6;"Трубные заводы    (Металлургия)";5461
37.5451;55.8849;Царицынский молочный комбинат (ЦМК);127591, Россия, г. Москва, Дмитровское шоссе, 108;"Молочные заводы    (Пищевая и с/х промышленность)";6776
37.4566;55.7288;Московский ювелирный завод Элит (МЮЗ Элит);121108, г. Москва, ул. Ивана Франко, д. 4, к. 10;"Ювелирные заводы    (Прочие промышленные производства)";5376
37.5885;55.8072;Швейная фабрика Арион;Москва, ул. Новодмитровская, д.5А стр.2 4-й этаж;"Швейные фабрики    (Легкая промышленность)";6041
37.7155;55.7806;МСЗ-Салют;105094, Россия, г. Москва, ул. Семёновская Б., 42, стр. 3;"Станкостроительные заводы    (Промышленное оборудование)";5804
37.6504;55.8412;МПШО Смена;129226, Россия, г. Москва, ул. Докукина, 16 стр. 3;"Швейные фабрики    (Легкая промышленность)";6374
37.5527;55.8603;Швейная фабрика Космос;127238, Россия, г. Москва, Дмитровское шоссе, 79;"Швейные фабрики    (Легкая промышленность)";6531
37.4172;55.7428;НПО Юмас;121552, Россия, г. Москва, ул. Ярцевская, 29, корп. 2;"Приборостроительные заводы    (Машиностроение и металлообработка)";5455
37.4496;55.8414;Швейная фабрика Milana Style;г. Москва, ул. Свободы, д.35 стр.4 офис 43;"Швейные фабрики    (Легкая промышленность)";6360
37.7852;55.7409;Обувная фабрика (Зебра);Россия, 111141, г. Москва, ул. Кусковская, д. 20 А, корпус А, офис А209;"Обувные фабрики    (Легкая промышленность)";5481
37.5657;55.4936;Щербинский завод электроплавленных огнеупоров (ЭПО);108851, Россия, г. Москва, г. Щербинка, ул. Южная, 2;"Металлургия    (Производители огнеупоров)";3252
37.4496;55.8414;Милана (Milana Style);125362, Россия, г. Москва, ул. Свободы, 35, стр. 4;"Легкая промышленность    (Швейные фабрики)";6360
37.7265;55.7656;Обувная фабрика Антилопа Про;105118, Россия, г. Москва, ул. Буракова, 6;"Обувные фабрики    (Легкая промышленность)";5723
37.2208;55.9836;Электронные технологии и метрологические системы (ЭТМС);124498, Россия, г. Москва, г. Зеленоград, проезд 4922, дом 4, стр. 5;"Машиностроение и металлообработка    (Приборостроительные заводы)";7655
37.7032;55.8031;Институт химических реактивов и особо чистых химических веществ Национального исследовательского центра «Курчатовский институт» (НИЦ Курчатовский институт - ИРЕА);107076, Россия, г. Москва, ул. Богородский Вал, 3;"Химические заводы    (Химическая и нефтехимическая промышленность)";6050
37.6274;55.583;Завод испытательного климатического оборудования (ЗИКО);117403, Россия, г. Москва, ул. Булатниковская, 20;"Промышленное оборудование    (Производители теплового оборудования)";3994
37.707;55.7908;Комбинат мучнисто-кондитерских изделий «Добрынинский»;107023, Россия, г. Москва, ул. Электрозаводская, 27, стр. 1;"Кондитерские фабрики    (Пищевая и с/х промышленность)";5968
37.2939;55.4598;Инженерно-технический центр «Комплексные исследования»;142190, Россия, г. Москва, г. Троицк, ул. Физическая, 11;"Машиностроение и металлообработка    (Арматурные заводы)";2904
37.6314;55.6442;Кондитерская фабрика Бастион;115201, Россия, г. Москва, ул. Котляковская, 3, стр. 13;"Кондитерские фабрики    (Пищевая и с/х промышленность)";4569
37.5203;55.819;Инновационно-техническое предприятие «Промбиофит»;127299, Россия, г. Москва, ул. К. Цеткин, 4;"Промышленное оборудование    (Производители фасовочно-упаковочного оборудования)";6201
37.4426;55.7101;Кондитерская фабрика Верность качеству;121357, Россия, г. Москва, ул. Верейская, 29, стр. 154;"Кондитерские фабрики    (Пищевая и с/х промышленность)";5211
37.6467;55.7283;Кондитерская фабрика Сокол;115114, Россия, г. Москва, ул. Кожевническая, 16;"Кондитерские фабрики    (Пищевая и с/х промышленность)";5390
37.6122;55.7248;Кондитерская фабрика Ударница;119049, Россия, г. Москва, ул. Шаболовка, 13;"Кондитерские фабрики    (Пищевая и с/х промышленность)";5305
37.7972;55.7105;Кондитерско-булочный комбинат Черемушки;Россия, 109377, г. Москва, ул. Академика Скрябина, д. 9, корп. 2;"Хлебокомбинаты    (Пищевая и с/х промышленность)";5236
37.2143;55.9822;Ангстрем;124460, Россия, г. Москва, Зеленоград, пл. Шокина, 2, стр. 3;"Машиностроение и металлообработка    (Заводы радиоаппаратуры и радиодеталей)";7655
37.6424;55.7514;Лианозовский молочный комбинат (ЛМК);109028, Россия, г. Москва, ул. Солянка, 13, стр. 2;"Молочные заводы    (Пищевая и с/х промышленность)";5553
37.4973;55.8898;Асфальтобетонный завод «Евроасфальт»;125599, Россия, г. Москва, 79-й километр МКАД, 2А, строение 2, помещение 10;"Асфальтовые заводы    (Строительные и отделочные материалы)";6855
37.2656;55.9747;Мебельная фабрика Артис-XXI век;124460, Россия, Московская обл., Солнечногорский район, д. Елино, ул. Летняя, стр. 1;"Мебельные фабрики    (Лесная промышленность)";7576
37.8206;55.6513;Асфальтобетонный Завод № 4 Капотня (АБЗ-4 Капотня);109429, Россия, г. Москва, ул. Верхние Поля, 54;"Асфальтовые заводы    (Строительные и отделочные материалы)";4664
37.443823274272;55.708680693517;Мебельная фабрика Виста;121357, г. Москва, ул. Верейская, д.29, стр. 151, пом. 2, ком. 1А.;"Лесная промышленность    (Мебельные фабрики)";5129
37.7041;55.7865;Вайбос;107023, Россия, г. Москва, ул. Электрозаводская, 21;"Электромеханические заводы    (Машиностроение и металлообработка)";5886
37.5354;55.8508;Мебельная фабрика Anderssen;125438, Россия, г. Москва, ул. Автомоторная, 6Б, стр. 8;"Мебельные фабрики    (Лесная промышленность)";6448
37.7156;55.7817;Всероссийский научно-исследовательский инструментальный институт (ВНИИИНСТРУМЕНТ);107023, Россия, г. Москва, ул. Большая Семёновская, 49;"Инструментальные заводы    (Машиностроение и металлообработка)";5887
37.5397;55.8466;Мебельная фабрика Britannica;125438, Россия, г. Москва, ул. Автомоторная, 1/3;"Мебельные фабрики    (Лесная промышленность)";6448
37.2791;55.4341;Домотека;108828, г. Москва, поселение Краснопахорское, с. Красная Пахра, ул. Калужское ш., 7;"Лесная промышленность    (Мебельные фабрики)";2657
37.566023097026;55.898000056111;Мебельная фабрика STOLLINE;127572, Россия, г. Москва, ул. Череповецкая, 4а;"Лесная промышленность    (Мебельные фабрики)";6860
37.7513;55.7613;Завод «Мобильная энергия»;111123, Россия, г. Москва, Шоссе Энтузиастов, 31/35;"Электромеханические заводы    (Машиностроение и металлообработка)";5643
37.5005;55.7758;Меховая фабрика Русский мех;Россия, 123308, г. Москва, проспект Маршала Жукова, 3;"Меховые фабрики    (Легкая промышленность)";5789
37.6876;55.8679;Завод пластмасс Монолит-Сити;129327, Россия, г. Москва, ул. Шушенская, 3, корпус 1, офис 4;"Заводы пластмасс    (Химическая и нефтехимическая промышленность)";6623
37.203;55.9826;Зеленоградский нанотехнологический центр (ЗНТЦ);124527, Россия, г. Москва, Зеленоград, ул. Солнечная аллея, 6;"Машиностроение и металлообработка    (Производители микроэлектроники)";7654
37.1875;56.0119;Зеленоградский электродный завод (ЗЭЛЗ);124460, Россия, г. Москва, г. Зеленоград, ул. Конструктора Гуськова, 14;"Металлургия    (Электродные заводы)";7899
37.218;55.984;Группа компаний «Электронинвест»;124498, Россия, г. Москва, г. Зеленоград, проезд 4922-й, 4, стр. 2;"Машиностроение и металлообработка    (Электромеханические заводы)";7655
37.426155391603;55.992894220497;Центр снабжения промышленности;Московская обл., Солнечногорский р-н, деревня Носово, ул. Электромонтажная с3;"Промышленное оборудование    (Производители емкостного оборудования)";7752
37.514232084656;55.922480517457;Инпласт;Москва, Лихачёвский пр., 4, стр. 1, Долгопрудный;"Промышленное оборудование    (Производители вентиляционного оборудования)";7102
37.728254421461;55.624895010196;Oxaden;г. Москва, Борисовский проезд, 17/1, стр. 2, эт.1, ком.1а;"Химическая и нефтехимическая промышленность    (Заводы бытовой химии)";4411
37.6527;55.7084;Кухонный Завод (КУХЗАВОД МСК);МОСКВА. ул. Ленинская Слобода, д. 19;"Мебельные фабрики    (Лесная промышленность)";5144
37.446;55.6796;Очаковский комбинат ЖБИ;119361, г.Москва, ул.Наташи Ковшовой, д.14, стр. 2;"Заводы ЖБИ    (Строительные и отделочные материалы)";4883
37.7225;55.7849;Московский машиностроительный завод Вымпел (ММЗ ВЫМПЕЛ);г. Москва, ул. Вельяминовская, д. 34;"Промышленное оборудование    (Производители нестандартного оборудования)";5887
37.7571;55.7537;Научно-производственное предприятие «Салют» (НПП «Салют»);Москва, ул. Плеханова, 6;"Заводы радиоаппаратуры и радиодеталей    (Машиностроение и металлообработка)";5561
37.637;55.7596;Объединенные композитные технологии (ОКТ);Москва, 101000, Армянский переулок, 9;"Производители композитных материалов и утеплителей    (Строительные и отделочные материалы)";5635
37.6974;55.7076;Московский Бетонный Завод (МБЗ);г. Москва ул. Южнопортова, дом 9 Расстворный Узел \u0022РУ Южный порт\u0022;"Строительные и отделочные материалы    (Бетонные заводы)";5147
37.4972;55.7536;Государственный космический научно-производственный центр имени М.В.Хруничева (ГКНПЦ имени М.В.Хруничева);Москва, ул. Новозаводская, д.18;"Авиационные заводы    (Транспорт и спецтехника)";5543
37.7325;55.7903;Московский завод тепловой автоматики (МЗТА);Москва, ул. Мироновская, д.33;"Приборостроительные заводы    (Машиностроение и металлообработка)";5970
37.7134;55.7124;«Рено Россия»;109316, город Москва, Волгоградский проспект, дом 42 корпус 36;"Автомобильные заводы    (Транспорт и спецтехника)";5230
37.4406;55.7029;Завод РТИ-КАУЧУК;г. Москва, ул. Генерала Дорохова, д.6, стр. 32;"Заводы РТИ    (Химическая и нефтехимическая промышленность)";5129
37.6547;55.7038;Московский компрессорный завод (\u0022МКЗ\u0022);г. Москва, ул. Автозаводская, д.17, к.3;"Компрессорные заводы    (Машиностроение и металлообработка)";5144
37.3994;55.7263;Всероссийский институт легких сплавов (ВИЛС);г. Москва, ул. Горбунова, д. 2, стр. 153;"Заводы цветных металлов    (Металлургия)";5290
37.4596;55.8683;Московский винно-коньячный завод «КиН» (МВКЗ «КиН»);Москва, Ленинградское шоссе, д. 67;"Винные заводы    (Пищевая и с/х промышленность)";6606
37.6355;55.7375;Опытный завод «Авиаль» («ОЗА»);Москва, ул Большая Татарская, д.35, стр.3;"Машиностроение и металлообработка    (Производители проволоки)";5471
37.5292;55.944;Чистая линия;Московская область, г. Долгопрудный, ул. Виноградная, д.9, стр.В;"Молочные заводы    (Пищевая и с/х промышленность)";7349
37.7513;55.7399;Московский локомотиворемонтный завод (Московский ЛРЗ);Москва, Перовское шоссе, 43;"Вагоноремонтные заводы    (Транспорт и спецтехника)";5479
37.7579;55.7265;Центральный ремонтно–механический завод (ЦРМЗ);Москва, Рязанский пр-т, д. 10;"Ремонтные заводы    (Машиностроение и металлообработка)";5316
37.514;55.833;Московская фармацевтическая фабрика (МосФарма);г.Москва, Фармацевтический проезд, дом 1;"Фармацевтические фабрики    (Медицинская промышленность)";6282
37.6581;55.7865;Кондитерский концерн Бабаевский (Бабаевский);г. Москва, ул. Малая Красносельская, 7;"Кондитерские фабрики    (Пищевая и с/х промышленность)";5882
37.7783;55.8146;Научно-производственное предприятие «Спецкабель» (НПП «Спецкабель»);ул. Бирюсинка, дом 6, корпус 1-5, Москва;"Кабельные заводы    (Машиностроение и металлообработка)";6137
37.6642;55.7349;Часовое Производство Полёт-Хронос;Москва, Марксистская, 34, к.5;"Часовые заводы    (Прочие промышленные производства)";5391
37.6518;55.7728;Швейная фабрика Большевичка (Большевичка);Москва, ул. Каланчевская, 17;"Швейные фабрики    (Легкая промышленность)";5800
37.5627;55.8045;«Машиностроительное конструкторское бюро «Искра» имени Ивана Ивановича Картукова» («МКБ «Искра»);г. Москва, Петровско-Разумовский проезд, дом 28;"Моторные заводы    (Машиностроение и металлообработка)";6040
37.6574;55.6079;«Завод «ОГОНЕК»;г. Москва, 6-я Радиальная ул., д. 62, стр. 1;"Фабрики игрушек    (Легкая промышленность)";4242
37.5323;55.856;Аурат (Химический завод им. П.Л. Войкова);Москва, 4-ый Лихачевский пер., д. 6;"Химические заводы    (Химическая и нефтехимическая промышленность)";6529
37.6799;55.8589;Лосиноостровский электродный завод (ЛЭЗ);г. Москва, Хибинский пр-д, д. 3;"Электродные заводы    (Металлургия)";6540
37.3946;55.9007;Торговый дом «СЛАВА»;г. Москва, Новокуркинское шоссе, 33, 1 этаж;"Часовые заводы    (Прочие промышленные производства)";6930
37.5337;55.8525;Мебельная Фабрика Марта;ул. Автомоторная, д.6Б, Москва;"Мебельные фабрики    (Лесная промышленность)";6448
37.2928;55.6717;Московский насосный завод (МНЗ);Московская область г., Одинцово, ул. Транспортная, д.2;"Машиностроение и металлообработка    (Насосные заводы)";4790
37.734105;55.811767;Московский завод специализированных автомобилей («МЗСА»);Москва, Открытое шоссе, дом 12, стр. 1;"Транспорт и спецтехника    (Заводы автофургонов и прицепов)";6134
37.6827;55.7289;Микояновский мясокомбинат (Микоян);Москва, ул. Талалихина, дом 41, стр. 14;"Мясоперерабатывающие заводы    (Пищевая и с/х промышленность)";5392
37.6927;55.7006;Московский завод деревоизделий (ЗДИ);Москва, 2-ой Южнопортовый проезд, 26А,стр.1;"Деревообрабатывающие комбинаты    (Лесная промышленность)";5147
37.5508;55.6519;Московский завод по обработке специальных сплавов (МЗСС);г. Москва, ул. Обручева, д. 31;"Полезные ископаемые    (Аффинажные заводы)";4645
37.5986;55.8173;Останкинский мясоперерабатывающий комбинат (ОМПК);Г. Москва, Огородный проезд, д. 18;"Мясоперерабатывающие заводы    (Пищевая и с/х промышленность)";6206
37.6866;55.6407;«Московский завод полиметаллов» («МЗП»);г. Москва, Каширское шоссе, дом 49;"Заводы цветных металлов    (Металлургия)";4572
37.7143;55.663;Компания «Соберизавод»;ул. Песчаный карьер, д. 3, стр. 16;Прочие промышленные производства    (Производители 3D-принтеров);4738
37.7172;55.6569;«Завод «Электроприбор»;109651, город Москва, улица Перерва, дом 1;"Заводы радиоаппаратуры и радиодеталей    (Машиностроение и металлообработка)";4739
37.6171;55.6185;«Московский завод «Сапфир»;Москва, Днепропетровский проезд, 4А, стр. 3А;"Машиностроение и металлообработка    (Электромеханические заводы)";4321
37.7113;55.7457;Московский кабельный завод (Москабель);г. Москва, ул. 2-я Кабельная, д. 2;"Кабельные заводы    (Машиностроение и металлообработка)";5558
37.5987;55.8106;Останкинский Завод Напитков (ОЗН);г. Москва, ул. Добролюбова, д.8;"Производители безалкогольных напитков    (Пищевая и с/х промышленность)";6124
37.5087;55.8077;«Научно-производственное объединение «Алмаз» имени академика А.А. Расплетина» («НПО «Алмаз»);Ленинградский проспект, д. 80, корп. 16, г. Москва;"Машиностроение и металлообработка    (Оборонная промышленность)";6036
37.6201;55.803;Ювелирный Завод \u0022Эстет\u0022 (ЮЗ \u0022Эстет\u0022 );г. Москва ул. Веткина, 4;"Ювелирные заводы    (Прочие промышленные производства)";6044
37.5773;55.7905;Машиностроительное производственное объединение имени И. Румянцева (\u0022МПО им. И. Румянцева\u0022);г.Москва 127015 ул.Расковой д.34;"Машиностроительные заводы    (Машиностроение и металлообработка)";5959
37.5283;55.8513;66 Металлообрабатывающий завод (\u002266 МОЗ\u0022);г.Москва, 4-й Лихачевский переулок, д.2;"Заводы металлоконструкций и металлоизделий    (Машиностроение и металлообработка)";6447
37.5954;55.8123;Останкинский молочный комбинат (ОМК);Москва, улица Руставели, дом 14 строение 1;"Молочные заводы    (Пищевая и с/х промышленность)";6124
37.6744;55.7714;Мосводоканал;Москва, Плетешковский пер., 2;"Водоканалы    (Энергетика и коммунальное хозяйство)";5720
37.7266;55.7271;Карачаровский механический завод (\u0022КМЗ\u0022);Москва, Рязанский проспект, 2c4;"Механические заводы    (Машиностроение и металлообработка)";5395
37.5082;55.7392;Мостотрест;г. Москва, ул. Барклая, д. 6, стр. 5;"Заводы металлоконструкций и металлоизделий    (Машиностроение и металлообработка)";5462
37.6528;55.6654;Часовой завод Ника (Ника);115446, город Москва, Коломенский проезд, дом 14, комната 36 этаж 5;"Часовые заводы    (Прочие промышленные производства)";4816
37.4459;55.8297;Московское машиностроительное предприятие имени В. В. Чернышева (\u0022ММП имени В.В. Чернышева\u0022);МОСКВА, УЛ. ВИШНЕВАЯ,;"Моторные заводы    (Машиностроение и металлообработка)";6277
37.4659;55.5783;«НПО Промет»;г. Москва, Новомосковский округ, поселение Сосенское, промышленная зона \u0022ПРОМЕТ\u0022;"Машиностроение и металлообработка    (Заводы металлоконструкций и металлоизделий)";3983
37.5653;55.5055;Щербинский лифтостроительный завод (\u0022ЩЛЗ\u0022);г. Москва, г. Щербинка, ул. Первомайская, д. 6;"Промышленное оборудование    (Производители подъемно-транспортного оборудования)";3334
37.4519;55.6929;Второй Московский приборостроительный завод (\u00222 МПЗ\u0022);г. Москва, Очаковское шоссе, дом 16, строение 2;"Приборостроительные заводы    (Машиностроение и металлообработка)";5048
37.6952;55.7133;Швейная фабрика MuseLab (ТПК «Глобал Фэшн Трейдинг»);г. Москва, ул. Угрешская, дом 12, строение 4, этаж 2, кабинет 27;"Швейные фабрики    (Легкая промышленность)";5229
37.3827;55.8634;ГК «МОСЭЛЕКТРО»;Московская обл., Красногорский р-н,п/о.Путилково, ул.69 км МКАД, стр.23;"Энергетика и коммунальное хозяйство    (Заводы электрощитового оборудования)";6601
37.6868;55.751;«Московский металлургический завод «Серп и молот» (\u0022СИМ СТ\u0022);111033, город Москва, улица Золоторожский Вал, дом 11 строение 20, этаж 2 помещение 7;"Металлургические заводы    (Металлургия)";5556
37.6585;55.6757;Московский мясоперерабатывающий завод «Коломенское» (ММПЗ «Коломенское»);Москва пр-т Андропова, д.36,корп.3, стр.1;"Мясоперерабатывающие заводы    (Пищевая и с/х промышленность)";4898
37.5437;55.6469;Конструкторское бюро точного машиностроения им. А.Э. Нудельмана (\u0022КБточмаш им. А.Э. Нудельмана\u0022);Москва, 117342,ул. Введенского, д. 8;"Машиностроение и металлообработка    (Оборонная промышленность)";4644
37.5677;55.7632;Московский Машиностроительный Завод \u0022Рассвет\u0022 (ММЗ \u0022Рассвет\u0022 );г.Москва, Столярный пер., 3;"Агрегатные заводы    (Машиностроение и металлообработка)";5712
37.5846;55.802;Московский машиностроительный завод \u0022Знамя\u0022 (\u0022ММЗ \u0022Знамя\u0022);127015, Россия, г. Москва, ул. Большая Новодмитровская, д. 23;"Машиностроительные заводы    (Машиностроение и металлообработка)";6041
37.6773;55.7561;Московский завод Кристалл (Кристалл);г. Москва, ул. Самокатная, д. 4;"Ликеро-водочные заводы    (Пищевая и с/х промышленность)";5638
37.5123;55.829;Московский машиностроительный завод «Авангард» (ММЗ «Авангард»);г. Москва, ул. Клары Цеткин, 33;"Машиностроение и металлообработка    (Оборонная промышленность)";6282
37.7502;55.7588;Графитэл-московский Электродный Завод (Графитэл-МЭЗ);г. Москва, ш. Энтузиастов, д. 31, стр. 2;"Электродные заводы    (Металлургия)";5643
37.7294;55.7891;Машиностроительный завод \u0022Маяк\u0022 (\u0022МЗ \u0022Маяк\u0022);г. Москва, ул. Ибрагимова, д. 31;"Машиностроительные заводы    (Машиностроение и металлообработка)";5887
37.4351;55.6745;Московский комбинат шампанских вин (МКШВ);Москва, ул. Рябиновая, д.44;"Винные заводы    (Пищевая и с/х промышленность)";4883
37.6004;55.8134;Московский завод плавленых сыров «КАРАТ»;г.Москва, ул.Руставели, влад.14, стр.11;"Пищевая и с/х промышленность    (Производители сыров)";6124
37.6019;55.7088;Промышленно-металлургический холдинг (ПМХ);Москва, ул. 2-й Верхний Михайловский проезд д. 9;"Коксохимические предприятия    (Металлургия)";5140
37.7041;55.7865;Холдинговая компания «ЭЛЕКТРОЗАВОД»;г. Москва, ул. Электрозаводская, 21;"Трансформаторные заводы    (Машиностроение и металлообработка)";5886
37.7548;55.733;Карачаровский завод пластмасс (Полимербыт);г. Москва, 2-я Карачаровская ул., д. 3;"Заводы пластмасс    (Химическая и нефтехимическая промышленность)";5397
37.4525;55.8412;Тушинский машиностроительный завод (ТМЗ);г.Москва, ул. Свободы, д.35;"Машиностроительные заводы    (Машиностроение и металлообработка)";6360
37.544;55.8907;Научно-производственное объединение \u0022Лианозовский электромеханический завод (\u0022НПО \u0022ЛЭМЗ\u0022);г. Москва, Дмитровское шоссе, 110;"Электромеханические заводы    (Машиностроение и металлообработка)";6858
37.4351;55.6745;Московский пиво-безалкогольный комбинат «Очаково»;Москва, улица Рябиновая, 44;"Пивоваренные заводы    (Пищевая и с/х промышленность)";4883
37.7924;55.8195;Московский абразивный завод;Москва, Черницынский проезд, дом 3;"Абразивные заводы    (Машиностроение и металлообработка)";6220
37.6301;55.7208;Московский электромеханический Завод имени Владимира Ильича (ЗВИ);Москва, Партийный пер., дом 1;"Электромеханические заводы    (Машиностроение и металлообработка)";5306
37.7437;55.7216;Светотехнический завод Сатурн (Сатурн);Москва, 2-й Грайвороновский проезд, дом 48;"Светотехнические заводы    (Машиностроение и металлообработка)";5315
37.4363;55.711;Научно – производственное объединение \u0022Московский радиотехнический завод (\u0022НПО \u0022МРТЗ\u0022);Москва, 121357, ул. Верейская, д. 29;"Заводы радиоаппаратуры и радиодеталей    (Машиностроение и металлообработка)";5211
37.7155;55.7806;Московский инструментальный завод (МИЗ);Москва, ул. Большая Cемёновская, 42;"Инструментальные заводы    (Машиностроение и металлообработка)";5804
37.5573;55.7849;Российская самолетостроительная корпорация МиГ (РСК «МиГ»);Москва, 1-й Боткинский проезд, д.7;"Авиационные заводы    (Транспорт и спецтехника)";5875
37.7566;55.723;Московский механический завод №3 (\u0022ММЗ №3\u0022);г. Москва, ул. Стахановская, д. 4;"Механические заводы    (Машиностроение и металлообработка)";5315
37.6518;55.7689;Московский энергомеханический завод (МЭЗ);г. Москва, ул. Новая Басманная, д.2;"Трансформаторные заводы    (Машиностроение и металлообработка)";5718
37.6354;55.6806;Московский завод ювелирных изделий Лукас-Голд (Лукас-Голд);Нагатинская ул., дом 5, Москва;"Ювелирные заводы    (Прочие промышленные производства)";4897
37.6153;55.7104;Московский завод электроизмерительных приборов (\u0022Завод Мзэп\u0022);ул. Серпуховский Вал, 7, Москва;"Приборостроительные заводы    (Машиностроение и металлообработка)";5223
37.7186;55.7567;Московский машиностроительный завод \u0022Вперед\u0022 (\u0022ММЗ \u0022Вперед\u0022);г. Москва, проезд Энтузиастов, д. 15;"Машиностроительные заводы    (Машиностроение и металлообработка)";5641
37.707;55.7908;Комбинат мучнисто-кондитерских изделий «Добрынинский» (\u0022КМКИ \u0022Добрынинский\u0022);г. Москва, ул. Электрозаводская, д. 27, стр. 1;"Кондитерские фабрики    (Пищевая и с/х промышленность)";5968
37.6297;55.6591;Завод По Ремонту Электротехнического Оборудования (Завод Рэто);г. Москва, ул. Старокаширское шоссе, дом 4а;"Ремонтные заводы    (Машиностроение и металлообработка)";4732
37.5861;55.7981;Аэроэлектромаш;г. Москва, 127015 ул. Б. Новодмитровская, 12;"Машиностроительные заводы    (Машиностроение и металлообработка)";5959
37.5364;55.7465;«Юнипро»;г. Москва, Пресненская набережная. Дом 10, Блок В, 23 этаж;"Энергетические компании    (Энергетика и коммунальное хозяйство)";5546
37.7422;55.7561;НК \u0022Роснефть\u0022 - Московский завод \u0022Нефтепродукт\u0022 (МЗ «Нефтепродукт»);г.Москва, Шоссе Энтузиастов, д.40;"Нефтеперерабатывающие заводы    (Полезные ископаемые)";5642
37.7686;55.7602;Московский Прожекторный Завод (\u0022МПЗ\u0022);г. Москва, ш. Энтузиастов, д. 56, стр. 33;"Трансформаторные заводы    (Машиностроение и металлообработка)";5644
37.7165;55.7261;Московский эндокринный завод;Москва, ул. Новохохловская, д. 25;"Фармацевтические фабрики    (Медицинская промышленность)";5313
37.6866;55.6407;Топливная компания Росатома «ТВЭЛ»;г. Москва, Каширское шоссе, д. 49;"Химические заводы    (Химическая и нефтехимическая промышленность)";4572
37.6233;55.7399;Государственная корпорация по атомной энергии «Росатом»;Москва, ул. Большая Ордынка, 24;"Энергетические компании    (Энергетика и коммунальное хозяйство)";5470
37.6202;55.747;«НК «Роснефть»;Москва, Софийская набережная, 26/1;"Нефтегазовые компании    (Полезные ископаемые)";5552
37.6252;55.71;Концерн Росэнергоатом;Москва, м. Тульская, Холодильный переулок, д. 3а;"Энергетические компании    (Энергетика и коммунальное хозяйство)";5224
37.6363;55.767;ЛУКОЙЛ;г. Москва, Сретенский бульвар, 11;"Нефтегазовые компании    (Полезные ископаемые)";5717
37.6378;55.7219;МХК «ЕвроХим»;Москва, ул. Дубининская, 53, стр.6;"Химическая и нефтехимическая промышленность    (Производители удобрений)";5307
37.5695;55.6799;Нефтехимическая компания «СИБУР Холдинг»;Москва, ул. Кржижановского, д. 16/1;"Химические заводы    (Химическая и нефтехимическая промышленность)";4892
37.6376;55.7387;Объединенная металлургическая компания (ОМК);Москва, Озерковская набережная, д. 28, стр. 2;"Металлургия    (Трубные заводы)";5471
37.6274;55.7318;НК «РуссНефть»;г. Москва, ул. Пятницкая, д. 69;"Нефтегазовые компании    (Полезные ископаемые)";5388
37.5419;55.7484;«Транснефть»;г. Москва, Пресненская набережная, д. 4, стр. 2;"Промышленное оборудование    (Производители нефтегазового оборудования)";5546
37.5993;55.7511;«Нефтяная компания «Альянс»;г. Москва, Арбатская площадь, 1;"Нефтегазовые компании    (Полезные ископаемые)";5550
37.4309;55.7127;Концерн воздушно-космической обороны Алмаз – Антей;г. Москва, ул. Верейская, д. 41;"Машиностроение и металлообработка    (Оборонная промышленность)";5210
37.637;55.722;Сибирская угольная энергетическая компания (СУЭК);г. Москва, ул. Дубининская, д. 53, стр. 7;"Угольные компании    (Полезные ископаемые)";5307
37.5395;55.7505;ГМК Норильский никель;Москва, 1-й Красногвардейский проезд., д. 15;"Заводы цветных металлов    (Металлургия)";5546
37.4256;55.7478;УК «МЕТАЛЛОИНВЕСТ»;г. Москва, Рублевское шоссе, д. 28;"Металлургические заводы    (Металлургия)";5538
37.5756;55.726;Трансмашхолдинг;г. Москва, ул. Ефремова, дом 10;"Вагоностроительные заводы    (Транспорт и спецтехника)";5303
37.3899;55.7131;ЕвразХолдинг;Москва, ул. Беловежская, 4, блок «В»;"Металлургические заводы    (Металлургия)";5207
37.6339;55.7694;Евроцемент груп;г. Москва, М. Головин пер., д. 3, стр.1;"Цементные заводы    (Строительные и отделочные материалы)";5717
37.6201;55.7337;Группа Магнезит;г. Москва ул. Большая Полянка, д. 43, стр. 3;"Производители огнеупоров    (Металлургия)";5388
37.727;55.7695;«Объединенная двигателестроительная корпорация» (\u0022ОДК\u0022);Москва, просп. Буденного, 16;"Моторные заводы    (Машиностроение и металлообработка)";5723
37.6354;55.6806;МОСКОВСКИЙ ЮВЕЛИРНЫЙ ЗАВОД (МЮЗ);Москва, м. Нагатинская, ул. Нагатинская, д. 5;"Ювелирные заводы    (Прочие промышленные производства)";4897
37.5566;55.6587;Газпром;ул. Наметкина, 16, Москва, ГСП-7;"Нефтегазовые компании    (Полезные ископаемые)";4727
37.4864;55.8609;Московский Экспериментальный Ювелирный Завод \u0022Ювелирпром\u0022 (МЭЮЗ \u0022Ювелирпром\u0022);Москва, ул. Лавочкина, 19;"Ювелирные заводы    (Прочие промышленные производства)";6526
37.7969;55.6439;Газпромнефть – Московский НПЗ (\u0022Московский НПЗ\u0022);Москва, Капотня, 2 квартал, д. 1, корп. 3;"Нефтеперерабатывающие заводы    (Полезные ископаемые)";4580
37.5405;55.7481;«Объединенная химическая компания «УРАЛХИМ» («ОХК «УРАЛХИМ»);г. Москва, наб. Пресненская, д. 6, строен. 2;"Химические заводы    (Химическая и нефтехимическая промышленность)";5546
37.6667;55.6228;Троицкий крановый завод (\u0022ТКЗ\u0022);г. Москва, ппх Минзаг, ул. Солнечная, д. 21;"Крановые заводы    (Машиностроение и металлообработка)";4407
37.4195;55.1727;«Энергомаш (Чехов) – ЧЗЭМ»;улица Гагарина, 1, микрорайон Венюково, Чехов, Московская область;"Арматурные заводы    (Машиностроение и металлообработка)";289
37.409577;55.175779;СегментЭНЕРГО;город Чехов, ул. Складская, промышленная зона Энергомаш тер., стр. 8/1;"Кабельные заводы    (Машиностроение и металлообработка)";289
36.8756;55.6208;Петелинская птицефабрика (ППФ);143060, Московская область, Одинцовский район, поселок Часцы, 3;"Птицефабрики    (Пищевая и с/х промышленность)";4351
37.6176;55.7558;ЛГ Электроникс Рус;143160, Московская область, Рузский район, территория С.П.Дороховское 86 км.Минского шоссе, шоссе 86 Км. Минского, 9;"Машиностроение и металлообработка    (Производители микроэлектроники)";5634
37.9498;55.6329;Горизонт;Московская обл., Люберецкий р-н, п. Жилино-1, д. 112/1;"Строительные и отделочные материалы    (Производители окон)";4509
37.7377;55.5921;Московский газоперерабатывающий завод (МГПЗ);Московская область, Ленинский муниципальный район, сельское поселение Развилковское, п. Развилка, Проектируемый проезд № 5537, вл. № 4;"Газоперерабатывающие заводы    (Полезные ископаемые)";4166
37.9189;55.6907;Раменский горно-обогатительный комбинат (РГОК);140125, Московская область, Раменский район, село Еганово, строение 3, этаж/пом 2/4;"Полезные ископаемые    (Песчаные карьеры)";4999
37.7603;55.5529;Московский коксогазовый завод (\u0022Москокс\u0022);142703, Россия, Ленинский район, г. Видное, Белокаменное шоссе, владение 13;"Коксохимические предприятия    (Металлургия)";3758
37.949;55.5572;Старатели;Московская обл., г. Лыткарино, территория промзона Тураево, строение 13;"Строительные и отделочные материалы    (Производители отделочных материалов)";3853
37.9233;55.5836;Лыткаринский завод оптического стекла (ЛЗОС);Московская область, г.Лыткарино, ул.Парковая, д.1;"Стекольные заводы    (Строительные и отделочные материалы)";4097
37.6479;55.7441;Раменский приборостроительный завод (РПЗ);Россия, Москва, Гончарная ул., д.20/1, стр.1;"Машиностроение и металлообработка    (Приборостроительные заводы)";5472
37.9232;55.9605;Ивантеевский Элеватормельмаш (\u0022ИЭММ\u0022);Московская область, г.Ивантеевка, ул.Толмачева, д.80;"Промышленное оборудование    (Производители пищевого оборудования)";7459
37.8843;55.5983;Лыткаринский мясоперерабатывающий завод (ЛМПЗ);МОСКОВСКАЯ ОБЛАСТЬ, ЛЫТКАРИНО, 6-Й МИКРОРАЙОН, 4А;"Мясоперерабатывающие заводы    (Пищевая и с/х промышленность)";4177
37.9238;55.9731;Королёвский трубный завод;141284, МО, г. Ивантеевка, ул. Заречная, д. 2;"Трубные заводы    (Металлургия)";7623
37.8549;55.7597;Реутовский экспериментальный завод средств протезирования (Реутовский ЭЗСП);Московская область, г.Реутов, ул. Ленина, д. 25;"Медицинская промышленность    (Производители реабилитационных товаров)";5650
37.8929;55.9646;Ивантеевский завод железобетонных конструкций (Ивантеевский завод ЖБК);Московская обл., г. Ивантеевка, Центральный проезд д.27;"Заводы ЖБИ    (Строительные и отделочные материалы)";7539
37.8681;55.7627;Военно-промышленная корпорация \u0022Научно-производственное объединение машиностроения\u0022 (\u0022ВПК \u0022НПО машиностроения\u0022);Россия, 143966, Московская область, г. Реутов, ул. Гагарина, д.33;"Машиностроение и металлообработка    (Оборонная промышленность)";5651
37.414;55.9924;Пепсико Холдингс;141580, Московская область, Солнечногорский район, территория Свободной Экономической Зоны Шерризон, 1;"Производители безалкогольных напитков    (Пищевая и с/х промышленность)";7751
37.8415;55.9141;Королёвский Завод Свай (КЗС);Московская обл, город Королев, улица Калининградская (Текстильщик Мкр), дом 28 ЛИТЕРА Б,Б, КАБИНЕТ 12,14,16;"Заводы ЖБИ    (Строительные и отделочные материалы)";7043
37.9416;55.6633;Московский вертолётный завод им. М.Л. Миля (МВЗ им. М.Л. Миля);140070, Московская область, Люберецкий район, поселок Томилино, улица Гаршина, дом 26/1;"Авиационные заводы    (Транспорт и спецтехника)";4755
37.7494;55.4696;Каширский завод металлоконструкций и котлостроения (КЗМК);Московская область, г. Кашира, Каширское шоссе, д.1;"Котельные заводы    (Машиностроение и металлообработка)";3019
37.8386;55.9149;Королёвский трубный завод;МО, г. Королев, ул. Калининградская, д. 28 А;"Трубные заводы    (Металлургия)";7043
37.9476;55.6627;Научно-производственное предприятие «Томилинский электронный завод» («НПП ТЭЗ»);Московская обл., г. Люберцы, рп Томилино, ул. Гаршина, д. 11, лит/эт О/6, пом. 1;"Заводы радиоаппаратуры и радиодеталей    (Машиностроение и металлообработка)";4755
37.3316;55.8319;Красногорский завод им. С. А. Зверева (КМЗ);г. Красногорск, ул. Речная, д. 8;"Приборостроительные заводы    (Машиностроение и металлообработка)";6269
37.4191;55.9049;ДЕКАРТ;Московская область, г. Химки, Ленинградская ул., вл. 31;"Лакокрасочные заводы    (Химическая и нефтехимическая промышленность)";6931
37.2683;55.8255;Красногорские лекарственные средства (\u0022Красногорсклексредства\u0022);Московская область, г. Красногорск, мкр. Опалиха, ул. Мира, д. 25;"Фармацевтические фабрики    (Медицинская промышленность)";6183
37.4348;55.9095;АртДетаилс-МО;Московская область, г. Химки, ул. Рабочая 2А, к.7;"Заводы РТИ    (Химическая и нефтехимическая промышленность)";7015
37.1625;55.7511;«Биомед» им. И.И. Мечникова;143422, Московская область, Красногорский р-н, п/о Петрово-Дальнее;"Фармацевтические фабрики    (Медицинская промышленность)";5519
37.9448;55.8333;Балашихинский опытный химический завод (БОХЗ);143900,Россия, Московская область, городской округ Балашиха, ул. Звездная, дом 17;"Химическая и нефтехимическая промышленность    (Производители упаковки и пакетов)";6313
37.765;55.443;Домодедовский машиностроительный завод «Кондиционер» (ДоКон);МО., ДОМОДЕДОВО, МИКРОРАЙОН СЕВЕРНЫЙ, УЛИЦА КАШИРСКОЕ ШОССЕ, ДОМ 14;"Промышленное оборудование    (Производители вентиляционного оборудования)";2774
37.062;55.8139;Завод \u0022Изолятор\u0022;Московская область, город Истра, село Павловская Слобода, улица Ленина, здание 77;"Электромеханические заводы    (Машиностроение и металлообработка)";6086
36.9675;55.6301;Голицынский керамический завод (ГКЗ);Московская область, 45-й км Можайского шоссе, г. Голицыно, пос. Большие Вяземы;"Керамические заводы    (Строительные и отделочные материалы)";4439
37.9141;55.7946;Авиационная корпорация Рубин;Московская область, Балашиха, квартал Западная Промзона, шоссе Энтузиастов, 5;"Авиационные заводы    (Транспорт и спецтехника)";5983
37.903;55.7947;Балашихинский литейно-механический завод (БЛМЗ);Московская область, г. Балашиха,Западная промзона, ш. Энтузиастов, 4;"Машиностроение и металлообработка    (Литейные заводы)";5982
37.2746;55.664;Одинцовский лакокрасочный завод (Одилак);Московская область, Одинцовский район, город Одинцово, Транспортный проезд дом 3, Блок 6;"Лакокрасочные заводы    (Химическая и нефтехимическая промышленность)";4707
37.2536;55.6566;«Окуловский завод мебельной фурнитуры» («ОЗМФ»);Московская обл., г.Одинцово, ул. Акуловская, д. 23;"Заводы металлоконструкций и металлоизделий    (Машиностроение и металлообработка)";4706
37.1157;55.8749;СОКОЛ;143532 Россия, Московская область, Истринский район, г. Дедовск, ул. Керамическая, д.24;"Керамические заводы    (Строительные и отделочные материалы)";6664
37.9227;55.7954;«345 механический завод» («345 МЗ»);г. Балашиха, Московской обл., Западная промзона, ш. Энтузиастов, 7;"Промышленное оборудование    (Производители нефтегазового оборудования)";5983
37.8527;55.9929;Пушкинский Ювелирный Завод (ПЮЗ);Московская область, г. Пушкино, Кудринское шоссе, д. 6;"Ювелирные заводы    (Прочие промышленные производства)";7782
37.7615;55.9398;Механический завод «Спецмашмонтаж»;Московская обл., г. Мытищи, Проектируемый проезд № 4530, стр. 2;"Машиностроение и металлообработка    (Механические заводы)";7284
37.7653;55.9113;МЕТРОВАГОНМАШ;г. о. Мытищи, г. Мытищи, Московская обл., ул. Колонцова, 4;"Вагоностроительные заводы    (Транспорт и спецтехника)";7038
37.7653;55.9113;Мытищинский машиностроительный завод (\u0022ММЗ\u0022);Московская область, г. Мытищи, ул. Колонцова, д.4;"Тракторные заводы    (Транспорт и спецтехника)";7038
37.5695;55.4569;Подольск-Цемент;Московская обл. г.Подольск, ул. Плещеевская, д.15;"Цементные заводы    (Строительные и отделочные материалы)";2842
37.769;55.913;Мытищинский молочный завод (\u0022ММЗ\u0022);Московская обл., г. Мытищи, ул. Бояринова, д. 26;"Молочные заводы    (Пищевая и с/х промышленность)";7038
37.5728;55.4573;Подольскогнеупор;Московская область, г. Подольск, ул. Плещеевская, д. 15а;"Производители огнеупоров    (Металлургия)";2924
37.7203;55.9317;Московская Пивоваренная Компания (МПК);Волковское шоссе, вл. 12, Мытищи, Московская область;"Пивоваренные заводы    (Пищевая и с/х промышленность)";7199
37.5831;55.4287;Народное Предприятие \u0022Подольсккабель\u0022 (\u0022НП \u0022ПОДОЛЬСККАБЕЛЬ\u0022);Московская область, Подольск, улица Бронницкая, дом 11;"Кабельные заводы    (Машиностроение и металлообработка)";2597
37.7732;55.9214;Мытищинский электромеханический завод (МЭМЗ);г.Мытищи, Московская обл.,ул. Коминтерна, 15-А;"Трансформаторные заводы    (Машиностроение и металлообработка)";7121
37.5788;55.413;Подольский машиностроительный завод (ЗИО);Московская область, город Подольск, улица Машиностроителей, дом 23;"Котельные заводы    (Машиностроение и металлообработка)";2515
37.7135;55.9235;Особое конструкторское бюро кабельной промышленности (ОКБ КП);Московская область, г. Мытищи, ул. Колпакова, 77;"Кабельные заводы    (Машиностроение и металлообработка)";7116
37.5744;55.4324;Завод «Микропровод»;Московская область, г. Подольск, улица Бронницкая, 3;"Кабельные заводы    (Машиностроение и металлообработка)";2678
37.5578;55.3713;Климовский трубный завод (КТЗ);Московская область, Подольск, микрорайон Климовск, Бережковский проезд, 10;"Производители пленок и труб из полимерных материалов    (Химическая и нефтехимическая промышленность)";2103
37.7689;55.929;Мытищинский приборостроительный завод (МПЗ);г. Мытищи, МО, 1-й Силикатный пер., 12;"Машиностроение и металлообработка    (Приборостроительные заводы)";7202
37.5495;55.38;Климовский специализированный патронный завод («КСПЗ»);Московская область, г.Подольск, мкр Климовск, ул.Заводская, д.2;"Химические заводы    (Химическая и нефтехимическая промышленность)";2185
37.5476;55.4212;Подольский механический завод (ПМЗ);142105, Россия, Московская область, г. Подольск, ул. Большая Серпуховская, д.43;"Механические заводы    (Машиностроение и металлообработка)";2595
37.7737;55.9476;Мытищинский завод профнастила;МО, г.Мытищи, ул. Силикатная, д.53, корп.3;Строительные и отделочные материалы    (Производители кровельных материалов)    ;7367